<?xml version="1.0" encoding="UTF-8"?>
<kml xmlns="http://www.opengis.net/kml/2.2"><Document><name>Alta Linea Continua – Stage 9: Laghi di Valscura to Lago di Lausfer</name><Style id="l"><LineStyle><color>ff2b30c4</color><width>4</width></LineStyle></Style><Placemark><name>Alta Linea Continua – Stage 9: Laghi di Valscura to Lago di Lausfer</name><styleUrl>#l</styleUrl><LineString><tessellate>1</tessellate><altitudeMode>clampToGround</altitudeMode><coordinates>7.197341,44.193818,2450 7.197248,44.193935,2450 7.197423,44.193951,2450 7.197510,44.194081,2450 7.197499,44.194097,2451 7.197445,44.194123,2452 7.197415,44.194135,2453 7.197398,44.194149,2453 7.197370,44.194177,2453 7.197325,44.194224,2455 7.197324,44.194262,2455 7.197317,44.194337,2456 7.197299,44.194385,2457 7.197302,44.194453,2458 7.197263,44.194477,2459 7.197154,44.194434,2460 7.197060,44.194379,2460 7.196994,44.194327,2461 7.196929,44.194268,2462 7.196890,44.194215,2462 7.196841,44.194172,2462 7.196798,44.194133,2463 7.196749,44.194082,2464 7.196644,44.194065,2465 7.196578,44.194084,2465 7.196580,44.194138,2466 7.196582,44.194194,2467 7.196599,44.194277,2468 7.196628,44.194309,2469 7.196598,44.194246,2469 7.196556,44.194303,2470 7.196503,44.194334,2470 7.196342,44.194305,2471 7.196272,44.194246,2472 7.196223,44.194215,2473 7.196123,44.194186,2474 7.196087,44.194181,2474 7.196005,44.194167,2475 7.195776,44.194133,2476 7.195643,44.194097,2478 7.195578,44.194097,2479 7.195417,44.194122,2479 7.195322,44.194130,2480 7.195279,44.194146,2480 7.195269,44.194149,2480 7.195271,44.194153,2480 7.195273,44.194153,2480 7.195262,44.194155,2480 7.195307,44.194148,2480 7.195279,44.194129,2480 7.195217,44.194109,2480 7.195110,44.194098,2481 7.195019,44.194020,2482 7.195016,44.193953,2483 7.195019,44.193910,2484 7.195022,44.193874,2484 7.195075,44.193723,2485 7.195036,44.193645,2485 7.194974,44.193565,2486 7.194924,44.193493,2487 7.194848,44.193395,2488 7.194839,44.193345,2490 7.194817,44.193282,2491 7.194789,44.193227,2492 7.194826,44.193140,2493 7.194873,44.193068,2494 7.194882,44.192973,2495 7.194864,44.192894,2496 7.194839,44.192849,2497 7.194818,44.192809,2498 7.194785,44.192747,2499 7.194772,44.192708,2500 7.194775,44.192665,2501 7.194772,44.192636,2502 7.194763,44.192576,2503 7.194747,44.192565,2504 7.194718,44.192502,2505 7.194724,44.192433,2507 7.194698,44.192382,2508 7.194614,44.192360,2508 7.194589,44.192276,2509 7.194585,44.192193,2510 7.194576,44.192120,2511 7.194596,44.192067,2512 7.194594,44.192001,2513 7.194574,44.191923,2515 7.194554,44.191876,2516 7.194543,44.191859,2517 7.194555,44.191826,2518 7.194559,44.191762,2519 7.194572,44.191742,2521 7.194583,44.191704,2522 7.194559,44.191656,2523 7.194559,44.191603,2524 7.194554,44.191531,2525 7.194558,44.191446,2526 7.194570,44.191412,2527 7.194575,44.191376,2528 7.194585,44.191310,2529 7.194471,44.191336,2531 7.194456,44.191355,2532 7.194419,44.191382,2533 7.194362,44.191431,2534 7.194314,44.191478,2535 7.194269,44.191530,2536 7.194211,44.191582,2538 7.194170,44.191611,2539 7.194162,44.191590,2539 7.194183,44.191556,2540 7.194182,44.191502,2542 7.194196,44.191424,2542 7.194259,44.191347,2543 7.194272,44.191308,2545 7.194283,44.191248,2546 7.194307,44.191188,2547 7.194329,44.191136,2548 7.194326,44.191102,2549 7.194350,44.191020,2550 7.194355,44.190973,2551 7.194333,44.190901,2552 7.194330,44.190818,2553 7.194347,44.190767,2554 7.194354,44.190730,2555 7.194370,44.190665,2556 7.194374,44.190582,2558 7.194366,44.190523,2559 7.194391,44.190450,2560 7.194417,44.190399,2561 7.194430,44.190306,2563 7.194458,44.190281,2564 7.194450,44.190250,2565 7.194393,44.190291,2566 7.194326,44.190340,2567 7.194253,44.190418,2569 7.194136,44.190511,2569 7.194085,44.190577,2570 7.194055,44.190621,2571 7.193991,44.190699,2572 7.193953,44.190723,2573 7.193913,44.190770,2574 7.193909,44.190837,2575 7.193866,44.190903,2576 7.193834,44.190966,2577 7.193812,44.191029,2578 7.193721,44.191117,2580 7.193671,44.191174,2581 7.193626,44.191198,2581 7.193536,44.191249,2582 7.193463,44.191296,2583 7.193387,44.191349,2584 7.193330,44.191380,2585 7.193253,44.191433,2587 7.193160,44.191493,2588 7.193079,44.191548,2589 7.192972,44.191577,2590 7.192831,44.191665,2591 7.192771,44.191695,2592 7.192652,44.191757,2592 7.192549,44.191828,2593 7.192455,44.191913,2594 7.192419,44.191949,2595 7.192384,44.191973,2595 7.192312,44.192017,2596 7.192187,44.192109,2598 7.192139,44.192158,2599 7.192063,44.192217,2600 7.192009,44.192271,2602 7.191990,44.192308,2602 7.191937,44.192357,2603 7.191905,44.192395,2604 7.191878,44.192431,2605 7.191898,44.192431,2605 7.191903,44.192435,2605 7.191907,44.192410,2605 7.191904,44.192428,2605 7.191899,44.192483,2605 7.191895,44.192557,2606 7.191905,44.192661,2606 7.191966,44.192783,2606 7.191948,44.192873,2607 7.191947,44.192912,2608 7.191950,44.192969,2610 7.191961,44.192995,2611 7.191966,44.193037,2612 7.191967,44.193117,2614 7.191948,44.193177,2614 7.192012,44.193279,2615 7.192019,44.193397,2615 7.191948,44.193450,2616 7.191891,44.193525,2617 7.191897,44.193561,2618 7.191918,44.193592,2619 7.191959,44.193654,2618 7.191951,44.193659,2617 7.191921,44.193693,2619 7.191925,44.193763,2620 7.191954,44.193782,2621 7.191988,44.193849,2622 7.191971,44.193903,2623 7.191969,44.193927,2624 7.191999,44.193974,2625 7.192005,44.194032,2626 7.192042,44.194061,2627 7.192090,44.194101,2628 7.192266,44.194163,2627 7.192346,44.194152,2628 7.192431,44.194208,2628 7.192461,44.194221,2628 7.192475,44.194245,2628 7.192480,44.194217,2627 7.192488,44.194197,2626 7.192526,44.194179,2624 7.192562,44.194177,2623 7.192630,44.194183,2622 7.192601,44.194208,2624 7.192593,44.194217,2624 7.192630,44.194204,2624 7.192649,44.194223,2624 7.192617,44.194202,2624 7.192613,44.194246,2624 7.192613,44.194255,2625 7.192608,44.194229,2627 7.192625,44.194258,2628 7.192612,44.194261,2629 7.192591,44.194294,2630 7.192606,44.194308,2632 7.192589,44.194299,2632 7.192643,44.194306,2633 7.192585,44.194316,2634 7.192548,44.194311,2635 7.192553,44.194314,2636 7.192551,44.194324,2637 7.192517,44.194340,2638 7.192541,44.194345,2639 7.192473,44.194352,2639 7.192459,44.194341,2640 7.192478,44.194359,2641 7.192479,44.194363,2642 7.192464,44.194384,2642 7.192469,44.194392,2643 7.192491,44.194364,2644 7.192467,44.194379,2646 7.192427,44.194400,2646 7.192439,44.194424,2646 7.192476,44.194421,2647 7.192517,44.194431,2648 7.192504,44.194448,2648 7.192472,44.194467,2650 7.192473,44.194479,2650 7.192506,44.194474,2651 7.192525,44.194486,2652 7.192541,44.194512,2653 7.192520,44.194508,2653 7.192512,44.194509,2654 7.192462,44.194506,2655 7.192445,44.194504,2657 7.192461,44.194514,2657 7.192449,44.194536,2659 7.192466,44.194543,2660 7.192459,44.194560,2661 7.192426,44.194599,2663 7.192389,44.194607,2664 7.192416,44.194607,2665 7.192436,44.194615,2665 7.192451,44.194627,2666 7.192446,44.194642,2667 7.192439,44.194640,2667 7.192443,44.194638,2668 7.192443,44.194655,2669 7.192387,44.194692,2669 7.192356,44.194787,2669 7.192353,44.194779,2669 7.192361,44.194776,2670 7.192373,44.194752,2670 7.192325,44.194728,2670 7.192301,44.194738,2670 7.192343,44.194768,2670 7.192339,44.194855,2669 7.192322,44.194813,2669 7.192308,44.194853,2670 7.192286,44.194794,2670 7.192332,44.194806,2671 7.192290,44.194822,2671 7.192295,44.194839,2671 7.192249,44.194905,2673 7.192221,44.194946,2674 7.192211,44.194968,2674 7.192205,44.195020,2675 7.192197,44.195100,2675 7.192167,44.195196,2676 7.192141,44.195237,2677 7.192131,44.195291,2678 7.192130,44.195288,2679 7.192126,44.195292,2679 7.192097,44.195313,2680 7.192085,44.195316,2680 7.192067,44.195326,2680 7.192012,44.195366,2681 7.192036,44.195394,2683 7.192037,44.195430,2684 7.192051,44.195469,2685 7.192092,44.195508,2686 7.192092,44.195575,2687 7.192099,44.195586,2688 7.192127,44.195593,2689 7.192082,44.195606,2690 7.192022,44.195671,2691 7.191994,44.195710,2693 7.191980,44.195748,2694 7.191964,44.195772,2695 7.191978,44.195807,2696 7.192013,44.195832,2698 7.192012,44.195884,2698 7.191990,44.195933,2699 7.191961,44.195949,2700 7.191951,44.195972,2702 7.191943,44.196013,2703 7.191926,44.196028,2704 7.191932,44.196014,2705 7.191889,44.196050,2705 7.191852,44.196058,2706 7.191845,44.196039,2707 7.191829,44.196074,2708 7.191807,44.196055,2709 7.191772,44.196061,2710 7.191693,44.196053,2711 7.191718,44.196100,2712 7.191728,44.196110,2713 7.191665,44.196114,2714 7.191592,44.196127,2716 7.191573,44.196136,2716 7.191496,44.196129,2717 7.191487,44.196100,2718 7.191439,44.196049,2719 7.191390,44.196066,2720 7.191373,44.196052,2721 7.191318,44.196098,2722 7.191318,44.196094,2722 7.191300,44.196089,2723 7.191244,44.196105,2723 7.191245,44.196131,2723 7.191246,44.196125,2724 7.191239,44.196140,2725 7.191205,44.196135,2726 7.191186,44.196146,2727 7.191177,44.196137,2727 7.191139,44.196121,2728 7.191111,44.196142,2729 7.191091,44.196139,2730 7.191044,44.196150,2732 7.191028,44.196166,2732 7.191026,44.196170,2733 7.190968,44.196185,2735 7.190933,44.196183,2736 7.190895,44.196179,2737 7.190833,44.196180,2738 7.190817,44.196156,2740 7.190808,44.196156,2740 7.190785,44.196151,2740 7.190790,44.196152,2740 7.190781,44.196128,2740 7.190796,44.196128,2740 7.190819,44.196111,2740 7.190805,44.196138,2740 7.190810,44.196164,2739 7.190811,44.196164,2739 7.190818,44.196165,2740 7.190813,44.196177,2740 7.190801,44.196167,2739 7.190820,44.196155,2739 7.190823,44.196154,2739 7.190816,44.196146,2739 7.190829,44.196112,2739 7.190862,44.196125,2740 7.190830,44.196139,2740 7.190804,44.196167,2741 7.190803,44.196133,2741 7.190807,44.196143,2741 7.190818,44.196170,2742 7.190810,44.196174,2742 7.190808,44.196172,2742 7.190840,44.196149,2742 7.190836,44.196155,2742 7.190796,44.196152,2743 7.190814,44.196172,2743 7.190806,44.196148,2743 7.190804,44.196148,2743 7.190803,44.196131,2743 7.190804,44.196140,2743 7.190799,44.196147,2743 7.190794,44.196143,2742 7.190809,44.196146,2742 7.190821,44.196145,2743 7.190786,44.196146,2743 7.190770,44.196169,2743 7.190716,44.196225,2743 7.190668,44.196252,2744 7.190612,44.196255,2745 7.190592,44.196260,2746 7.190579,44.196276,2746 7.190520,44.196274,2748 7.190417,44.196240,2749 7.190430,44.196231,2748 7.190273,44.196161,2749 7.190253,44.196091,2750 7.190236,44.196066,2750 7.190197,44.196045,2751 7.190180,44.196054,2752 7.190142,44.196045,2754 7.190070,44.196050,2755 7.189986,44.196072,2756 7.189981,44.196093,2758 7.189970,44.196118,2759 7.189980,44.196132,2760 7.189933,44.196117,2761 7.189890,44.196121,2762 7.189862,44.196129,2763 7.189825,44.196143,2764 7.189853,44.196157,2765 7.189844,44.196169,2766 7.189828,44.196159,2767 7.189793,44.196148,2769 7.189761,44.196173,2770 7.189741,44.196180,2771 7.189690,44.196191,2773 7.189689,44.196196,2774 7.189670,44.196213,2775 7.189646,44.196205,2777 7.189634,44.196197,2777 7.189624,44.196229,2779 7.189598,44.196264,2780 7.189594,44.196263,2780 7.189568,44.196229,2780 7.189562,44.196239,2782 7.189574,44.196223,2782 7.189577,44.196267,2782 7.189566,44.196305,2782 7.189609,44.196277,2783 7.189561,44.196267,2783 7.189519,44.196251,2783 7.189503,44.196238,2784 7.189503,44.196257,2785 7.189474,44.196281,2785 7.189484,44.196295,2787 7.189462,44.196350,2789 7.189475,44.196379,2790 7.189456,44.196406,2791 7.189452,44.196468,2792 7.189474,44.196499,2794 7.189477,44.196520,2795 7.189469,44.196562,2797 7.189452,44.196562,2798 7.189388,44.196540,2799 7.189395,44.196572,2800 7.189388,44.196613,2801 7.189363,44.196618,2802 7.189315,44.196626,2804 7.189305,44.196638,2805 7.189300,44.196665,2806 7.189311,44.196692,2806 7.189317,44.196690,2807 7.189329,44.196741,2808 7.189318,44.196742,2809 7.189298,44.196774,2810 7.189320,44.196817,2811 7.189281,44.196799,2812 7.189281,44.196811,2813 7.189271,44.196841,2813 7.189238,44.196837,2814 7.189212,44.196845,2815 7.189191,44.196884,2817 7.189156,44.196913,2818 7.189128,44.196923,2819 7.189134,44.196941,2820 7.189145,44.196970,2821 7.189154,44.197011,2822 7.189166,44.197035,2823 7.189181,44.197056,2824 7.189152,44.197100,2825 7.189131,44.197106,2826 7.189137,44.197120,2827 7.189113,44.197136,2829 7.189118,44.197172,2830 7.189140,44.197205,2831 7.189126,44.197237,2832 7.189082,44.197237,2834 7.189059,44.197247,2835 7.189041,44.197278,2836 7.189048,44.197289,2837 7.189052,44.197301,2838 7.189044,44.197335,2840 7.189041,44.197368,2841 7.189049,44.197391,2843 7.189047,44.197396,2844 7.188989,44.197392,2845 7.188973,44.197384,2846 7.188959,44.197365,2847 7.188961,44.197363,2848 7.188878,44.197325,2850 7.188866,44.197347,2851 7.188871,44.197388,2852 7.188853,44.197401,2853 7.188851,44.197405,2854 7.188845,44.197406,2854 7.188802,44.197423,2856 7.188804,44.197435,2857 7.188784,44.197435,2858 7.188785,44.197456,2859 7.188775,44.197503,2861 7.188744,44.197506,2862 7.188721,44.197499,2863 7.188717,44.197521,2864 7.188706,44.197552,2865 7.188669,44.197567,2866 7.188691,44.197588,2867 7.188720,44.197630,2868 7.188738,44.197672,2869 7.188746,44.197696,2871 7.188746,44.197732,2872 7.188730,44.197726,2873 7.188726,44.197761,2874 7.188736,44.197801,2875 7.188752,44.197807,2876 7.188746,44.197833,2877 7.188703,44.197864,2878 7.188740,44.197889,2879 7.188724,44.197912,2882 7.188722,44.197934,2883 7.188776,44.197911,2883 7.188760,44.197931,2884 7.188771,44.197952,2885 7.188791,44.197966,2885 7.188780,44.197967,2885 7.188781,44.197970,2887 7.188779,44.197981,2888 7.188773,44.197992,2889 7.188795,44.198017,2889 7.188789,44.198031,2890 7.188779,44.198052,2891 7.188763,44.198056,2892 7.188793,44.198024,2893 7.188814,44.198018,2893 7.188797,44.198049,2894 7.188793,44.198082,2895 7.188816,44.198105,2895 7.188812,44.198122,2897 7.188808,44.198137,2898 7.188813,44.198153,2899 7.188799,44.198176,2901 7.188800,44.198215,2901 7.188843,44.198222,2903 7.188867,44.198246,2904 7.188858,44.198253,2905 7.188889,44.198287,2907 7.188866,44.198306,2908 7.188848,44.198326,2908 7.188846,44.198313,2909 7.188821,44.198315,2909 7.188828,44.198320,2910 7.188825,44.198300,2910 7.188816,44.198341,2911 7.188797,44.198349,2911 7.188809,44.198377,2913 7.188820,44.198373,2914 7.188834,44.198391,2915 7.188784,44.198407,2916 7.188806,44.198434,2917 7.188794,44.198424,2918 7.188783,44.198454,2919 7.188779,44.198467,2921 7.188756,44.198479,2921 7.188744,44.198513,2922 7.188782,44.198533,2922 7.188790,44.198534,2922 7.188827,44.198535,2923 7.188864,44.198592,2923 7.188887,44.198591,2923 7.188912,44.198585,2923 7.188886,44.198589,2923 7.188888,44.198578,2922 7.188908,44.198618,2922 7.188924,44.198613,2921 7.188930,44.198588,2921 7.188916,44.198596,2920 7.188917,44.198595,2919 7.188923,44.198590,2919 7.188933,44.198588,2918 7.188905,44.198567,2918 7.188916,44.198554,2917 7.188906,44.198534,2917 7.188893,44.198552,2917 7.188875,44.198566,2916 7.188893,44.198578,2916 7.188883,44.198588,2915 7.188907,44.198566,2915 7.188880,44.198593,2914 7.188879,44.198605,2915 7.188889,44.198594,2915 7.188905,44.198590,2914 7.188911,44.198612,2914 7.188912,44.198601,2914 7.188929,44.198583,2913 7.188923,44.198594,2913 7.188919,44.198608,2913 7.188866,44.198609,2913 7.188924,44.198612,2913 7.188909,44.198600,2913 7.188912,44.198587,2913 7.188911,44.198579,2913 7.188933,44.198583,2912 7.188901,44.198599,2912 7.188897,44.198595,2912 7.188864,44.198570,2911 7.188857,44.198547,2911 7.188872,44.198558,2911 7.188901,44.198555,2911 7.188887,44.198560,2911 7.188853,44.198580,2911 7.188868,44.198564,2911 7.188857,44.198571,2910 7.188849,44.198539,2910 7.188898,44.198596,2910 7.188927,44.198578,2910 7.188914,44.198554,2910 7.188887,44.198571,2910 7.188892,44.198568,2909 7.188888,44.198558,2908 7.188922,44.198568,2908 7.188927,44.198577,2908 7.188915,44.198581,2907 7.188928,44.198578,2907 7.188939,44.198585,2907 7.188929,44.198579,2907 7.188943,44.198570,2908 7.188953,44.198583,2907 7.188943,44.198596,2907 7.188951,44.198578,2907 7.188946,44.198591,2907 7.188892,44.198596,2907 7.188914,44.198604,2907 7.188916,44.198602,2907 7.188918,44.198600,2907 7.188916,44.198600,2907 7.188902,44.198604,2907 7.188907,44.198613,2907 7.188890,44.198597,2907 7.188926,44.198584,2907 7.188906,44.198566,2907 7.188899,44.198617,2907 7.188904,44.198622,2907 7.188908,44.198641,2907 7.188893,44.198656,2907 7.188922,44.198657,2907 7.188998,44.198671,2907 7.189044,44.198710,2907 7.189036,44.198750,2907 7.189048,44.198765,2907 7.189019,44.198792,2906 7.189016,44.198773,2905 7.189000,44.198783,2905 7.189000,44.198790,2904 7.189004,44.198797,2904 7.189002,44.198787,2904 7.189005,44.198777,2905 7.188990,44.198809,2904 7.188983,44.198870,2903 7.189000,44.198893,2902 7.189002,44.198906,2900 7.189014,44.198914,2899 7.189003,44.198966,2898 7.189002,44.198988,2897 7.189007,44.198993,2895 7.188954,44.199018,2894 7.188936,44.199046,2893 7.188935,44.199059,2893 7.188934,44.199088,2892 7.188928,44.199135,2890 7.188937,44.199128,2889 7.188927,44.199154,2888 7.188925,44.199161,2887 7.188893,44.199179,2887 7.188879,44.199234,2886 7.188906,44.199252,2886 7.188912,44.199253,2885 7.188918,44.199285,2884 7.188906,44.199261,2883 7.188921,44.199281,2883 7.188901,44.199290,2883 7.188926,44.199322,2882 7.188895,44.199314,2882 7.188896,44.199330,2881 7.188897,44.199317,2880 7.188872,44.199363,2880 7.188891,44.199385,2879 7.188865,44.199400,2878 7.188878,44.199410,2877 7.188913,44.199438,2876 7.188929,44.199458,2875 7.188893,44.199446,2874 7.188874,44.199511,2873 7.188849,44.199524,2872 7.188843,44.199511,2871 7.188861,44.199517,2870 7.188907,44.199569,2869 7.188873,44.199548,2868 7.188877,44.199559,2867 7.188861,44.199552,2868 7.188874,44.199550,2867 7.188874,44.199577,2866 7.188863,44.199585,2865 7.188875,44.199585,2864 7.188900,44.199586,2863 7.188885,44.199597,2862 7.188889,44.199659,2861 7.188883,44.199692,2861 7.188879,44.199698,2860 7.188809,44.199774,2860 7.188813,44.199821,2861 7.188808,44.199762,2861 7.188805,44.199770,2862 7.188806,44.199799,2862 7.188801,44.199792,2862 7.188800,44.199764,2862 7.188824,44.199807,2862 7.188812,44.199835,2861 7.188790,44.199883,2861 7.188794,44.199926,2859 7.188777,44.199978,2859 7.188729,44.200051,2860 7.188677,44.200120,2861 7.188665,44.200147,2861 7.188669,44.200158,2862 7.188676,44.200151,2862 7.188683,44.200222,2862 7.188676,44.200240,2863 7.188660,44.200284,2864 7.188656,44.200275,2866 7.188660,44.200293,2866 7.188670,44.200296,2866 7.188645,44.200329,2866 7.188647,44.200344,2868 7.188612,44.200376,2870 7.188583,44.200387,2871 7.188572,44.200423,2872 7.188551,44.200423,2872 7.188552,44.200455,2873 7.188553,44.200530,2875 7.188541,44.200529,2875 7.188521,44.200572,2876 7.188514,44.200623,2878 7.188488,44.200627,2878 7.188451,44.200625,2880 7.188417,44.200637,2882 7.188382,44.200688,2884 7.188362,44.200741,2885 7.188328,44.200707,2885 7.188330,44.200683,2885 7.188322,44.200694,2885 7.188347,44.200692,2885 7.188348,44.200728,2885 7.188332,44.200723,2886 7.188337,44.200723,2886 7.188367,44.200733,2886 7.188371,44.200738,2886 7.188368,44.200740,2886 7.188382,44.200788,2885 7.188369,44.200816,2884 7.188283,44.200884,2884 7.188262,44.200882,2882 7.188268,44.200867,2883 7.188213,44.200898,2882 7.188215,44.200910,2881 7.188209,44.200908,2880 7.188197,44.200913,2879 7.188194,44.200919,2879 7.188163,44.200927,2878 7.188128,44.200899,2879 7.188110,44.200895,2879 7.188109,44.200901,2879 7.188072,44.200896,2879 7.188047,44.200904,2878 7.188060,44.200936,2878 7.188035,44.200957,2876 7.188031,44.200960,2876 7.188037,44.200955,2875 7.187995,44.200920,2875 7.187969,44.200944,2874 7.187986,44.200965,2873 7.187931,44.200968,2874 7.187895,44.200961,2875 7.187880,44.200969,2875 7.187881,44.200980,2874 7.187828,44.200991,2873 7.187808,44.200994,2873 7.187793,44.201009,2872 7.187789,44.201010,2873 7.187766,44.200999,2872 7.187777,44.200980,2872 7.187730,44.201013,2871 7.187695,44.201008,2872 7.187694,44.201011,2872 7.187673,44.201021,2872 7.187702,44.201015,2872 7.187694,44.201044,2873 7.187682,44.201047,2872 7.187659,44.201049,2872 7.187658,44.201059,2872 7.187668,44.201055,2872 7.187651,44.201044,2872 7.187675,44.201073,2871 7.187650,44.201090,2870 7.187650,44.201079,2869 7.187625,44.201094,2868 7.187614,44.201087,2867 7.187599,44.201094,2867 7.187586,44.201066,2867 7.187585,44.201064,2866 7.187587,44.201062,2866 7.187592,44.201067,2866 7.187556,44.201084,2866 7.187550,44.201064,2864 7.187503,44.201103,2863 7.187526,44.201070,2863 7.187535,44.201052,2862 7.187526,44.201060,2862 7.187464,44.201093,2863 7.187469,44.201107,2864 7.187437,44.201116,2866 7.187417,44.201097,2866 7.187401,44.201112,2867 7.187388,44.201117,2867 7.187394,44.201145,2867 7.187396,44.201148,2867 7.187368,44.201143,2866 7.187327,44.201178,2869 7.187304,44.201202,2869 7.187288,44.201182,2868 7.187252,44.201138,2869 7.187294,44.201213,2869 7.187274,44.201187,2868 7.187283,44.201180,2867 7.187253,44.201185,2866 7.187184,44.201216,2867 7.187155,44.201201,2867 7.187136,44.201185,2869 7.187091,44.201201,2870 7.187060,44.201213,2870 7.187023,44.201219,2871 7.187012,44.201213,2872 7.186965,44.201194,2873 7.186924,44.201200,2874 7.186864,44.201203,2874 7.186808,44.201225,2874 7.186756,44.201234,2874 7.186668,44.201264,2873 7.186634,44.201258,2873 7.186634,44.201258,2873 7.186628,44.201271,2873 7.186622,44.201271,2873 7.186621,44.201271,2873 7.186641,44.201254,2873 7.186644,44.201240,2873 7.186641,44.201265,2873 7.186596,44.201271,2874 7.186565,44.201272,2876 7.186522,44.201274,2877 7.186471,44.201274,2878 7.186437,44.201277,2880 7.186408,44.201286,2880 7.186385,44.201290,2881 7.186331,44.201290,2882 7.186253,44.201321,2883 7.186203,44.201333,2884 7.186130,44.201330,2885 7.186090,44.201325,2886 7.186096,44.201307,2887 7.186053,44.201262,2887 7.186045,44.201273,2887 7.186045,44.201258,2886 7.186028,44.201250,2886 7.186037,44.201266,2886 7.186045,44.201256,2885 7.186045,44.201257,2885 7.186044,44.201265,2884 7.186042,44.201276,2884 7.186033,44.201279,2883 7.186025,44.201280,2883 7.186021,44.201273,2882 7.186041,44.201271,2882 7.186033,44.201247,2881 7.186014,44.201275,2881 7.186009,44.201287,2880 7.186017,44.201278,2880 7.186042,44.201310,2880 7.186051,44.201273,2880 7.186054,44.201281,2881 7.186037,44.201274,2882 7.186050,44.201290,2882 7.186046,44.201268,2882 7.186043,44.201282,2881 7.186073,44.201285,2881 7.186055,44.201303,2880 7.186046,44.201307,2880 7.186060,44.201320,2880 7.186066,44.201321,2879 7.186116,44.201335,2878 7.186130,44.201330,2876 7.186176,44.201363,2875 7.186202,44.201355,2874 7.186232,44.201336,2874 7.186304,44.201331,2872 7.186361,44.201305,2871 7.186409,44.201283,2870 7.186444,44.201277,2869 7.186468,44.201294,2867 7.186498,44.201309,2865 7.186535,44.201306,2864 7.186557,44.201309,2863 7.186573,44.201306,2862 7.186600,44.201302,2861 7.186625,44.201269,2860 7.186629,44.201253,2861 7.186621,44.201270,2860 7.186647,44.201244,2861 7.186650,44.201260,2861 7.186619,44.201267,2860 7.186649,44.201254,2859 7.186650,44.201273,2859 7.186645,44.201271,2859 7.186646,44.201250,2858 7.186647,44.201249,2858 7.186671,44.201268,2858 7.186665,44.201277,2859 7.186682,44.201283,2858 7.186666,44.201248,2858 7.186636,44.201233,2857 7.186660,44.201246,2857 7.186650,44.201239,2857 7.186637,44.201213,2856 7.186611,44.201153,2855 7.186635,44.201208,2854 7.186648,44.201215,2854 7.186682,44.201208,2853 7.186644,44.201177,2853 7.186642,44.201182,2853 7.186671,44.201170,2852 7.186672,44.201188,2851 7.186658,44.201191,2851 7.186646,44.201166,2850 7.186661,44.201179,2850 7.186685,44.201184,2849 7.186719,44.201157,2848 7.186730,44.201177,2847 7.186735,44.201186,2847 7.186696,44.201138,2846 7.186692,44.201137,2845 7.186698,44.201149,2845 7.186698,44.201128,2844 7.186713,44.201120,2843 7.186683,44.201135,2843 7.186726,44.201142,2843 7.186730,44.201138,2843 7.186701,44.201123,2843 7.186689,44.201113,2842 7.186703,44.201083,2842 7.186670,44.201116,2842 7.186674,44.201121,2841 7.186692,44.201098,2841 7.186717,44.201042,2840 7.186737,44.201017,2840 7.186721,44.201025,2841 7.186712,44.201002,2841 7.186710,44.201000,2841 7.186737,44.201026,2842 7.186701,44.200986,2842 7.186738,44.201018,2841 7.186780,44.201020,2840 7.186722,44.201005,2840 7.186748,44.201010,2839 7.186777,44.200983,2840 7.186770,44.201013,2839 7.186766,44.200998,2839 7.186781,44.200992,2839 7.186771,44.201006,2838 7.186756,44.200984,2838 7.186774,44.200995,2839 7.186773,44.200978,2838 7.186774,44.200982,2838 7.186734,44.200980,2838 7.186774,44.201029,2837 7.186839,44.201057,2837 7.186877,44.201088,2837 7.186756,44.200968,2837 7.186723,44.200921,2837 7.186675,44.200908,2837 7.186717,44.200959,2838 7.186673,44.200980,2839 7.186679,44.200967,2839 7.186670,44.200981,2839 7.186637,44.200965,2838 7.186637,44.200977,2839 7.186635,44.200985,2839 7.186629,44.200952,2839 7.186624,44.200955,2840 7.186621,44.200947,2839 7.186622,44.200966,2838 7.186626,44.200972,2838 7.186648,44.200920,2838 7.186658,44.200961,2838 7.186702,44.200936,2839 7.186679,44.200956,2840 7.186686,44.200945,2841 7.186673,44.200891,2840 7.186711,44.200899,2841 7.186697,44.200896,2841 7.186659,44.200898,2840 7.186702,44.200891,2841 7.186688,44.200895,2841 7.186681,44.200877,2840 7.186665,44.200873,2840 7.186698,44.200907,2840 7.186638,44.200895,2839 7.186660,44.200886,2839 7.186643,44.200898,2839 7.186644,44.200862,2838 7.186657,44.200850,2839 7.186639,44.200864,2839 7.186638,44.200868,2838 7.186629,44.200902,2838 7.186611,44.200851,2838 7.186638,44.200870,2837 7.186630,44.200830,2837 7.186610,44.200838,2836 7.186599,44.200851,2836 7.186615,44.200844,2836 7.186622,44.200834,2836 7.186571,44.200831,2836 7.186577,44.200818,2835 7.186553,44.200819,2835 7.186527,44.200784,2835 7.186554,44.200794,2835 7.186577,44.200800,2835 7.186574,44.200812,2834 7.186596,44.200807,2834 7.186561,44.200821,2834 7.186590,44.200811,2833 7.186563,44.200831,2833 7.186565,44.200827,2833 7.186544,44.200807,2833 7.186543,44.200805,2834 7.186587,44.200804,2833 7.186597,44.200780,2834 7.186597,44.200784,2833 7.186571,44.200781,2834 7.186584,44.200750,2835 7.186598,44.200772,2835 7.186581,44.200784,2834 7.186535,44.200753,2833 7.186528,44.200742,2833 7.186543,44.200784,2833 7.186500,44.200756,2833 7.186499,44.200733,2832 7.186494,44.200720,2832 7.186518,44.200739,2833 7.186495,44.200733,2833 7.186517,44.200731,2832 7.186514,44.200723,2832 7.186545,44.200685,2831 7.186520,44.200721,2832 7.186515,44.200723,2831 7.186546,44.200692,2830 7.186551,44.200701,2830 7.186569,44.200674,2830 7.186581,44.200674,2829 7.186621,44.200699,2829 7.186591,44.200677,2828 7.186588,44.200648,2828 7.186585,44.200628,2827 7.186548,44.200641,2828 7.186572,44.200637,2827 7.186605,44.200634,2827 7.186549,44.200665,2827 7.186574,44.200641,2827 7.186605,44.200646,2826 7.186632,44.200639,2825 7.186643,44.200637,2825 7.186673,44.200628,2824 7.186679,44.200604,2824 7.186685,44.200582,2824 7.186652,44.200575,2824 7.186627,44.200563,2823 7.186638,44.200567,2823 7.186686,44.200555,2822 7.186649,44.200527,2821 7.186620,44.200538,2821 7.186602,44.200526,2820 7.186657,44.200516,2819 7.186625,44.200526,2820 7.186615,44.200525,2820 7.186600,44.200493,2820 7.186624,44.200525,2819 7.186630,44.200481,2818 7.186559,44.200504,2818 7.186536,44.200517,2818 7.186546,44.200504,2817 7.186531,44.200504,2817 7.186535,44.200485,2817 7.186560,44.200495,2815 7.186550,44.200492,2815 7.186588,44.200481,2815 7.186568,44.200467,2814 7.186583,44.200463,2814 7.186550,44.200443,2813 7.186561,44.200436,2813 7.186548,44.200415,2813 7.186524,44.200414,2813 7.186524,44.200416,2812 7.186540,44.200397,2811 7.186532,44.200393,2811 7.186523,44.200380,2810 7.186546,44.200374,2811 7.186558,44.200381,2810 7.186566,44.200381,2810 7.186536,44.200380,2810 7.186514,44.200362,2809 7.186562,44.200375,2809 7.186520,44.200346,2808 7.186515,44.200340,2808 7.186518,44.200333,2808 7.186533,44.200334,2808 7.186568,44.200336,2808 7.186573,44.200332,2807 7.186555,44.200340,2807 7.186559,44.200323,2807 7.186521,44.200303,2806 7.186523,44.200310,2806 7.186557,44.200289,2805 7.186554,44.200296,2805 7.186541,44.200299,2805 7.186548,44.200296,2806 7.186568,44.200293,2805 7.186599,44.200288,2805 7.186569,44.200303,2805 7.186560,44.200308,2805 7.186568,44.200324,2805 7.186566,44.200285,2805 7.186614,44.200293,2804 7.186640,44.200284,2804 7.186720,44.200324,2805 7.186854,44.200405,2805 7.186874,44.200430,2805 7.186776,44.200372,2805 7.186670,44.200285,2805 7.186679,44.200266,2805 7.186598,44.200266,2806 7.186615,44.200251,2806 7.186579,44.200289,2806 7.186622,44.200237,2806 7.186605,44.200251,2807 7.186600,44.200252,2807 7.186610,44.200241,2807 7.186632,44.200281,2807 7.186595,44.200287,2807 7.186621,44.200261,2806 7.186619,44.200278,2805 7.186599,44.200241,2804 7.186600,44.200199,2803 7.186585,44.200205,2802 7.186571,44.200208,2802 7.186547,44.200196,2801 7.186556,44.200190,2801 7.186532,44.200198,2800 7.186500,44.200185,2799 7.186487,44.200151,2799 7.186502,44.200149,2798 7.186442,44.200181,2795 7.186398,44.200153,2794 7.186383,44.200140,2792 7.186375,44.200137,2792 7.186364,44.200110,2792 7.186347,44.200086,2791 7.186345,44.200085,2790 7.186322,44.200056,2791 7.186307,44.200053,2791 7.186301,44.200137,2790 7.186235,44.200151,2790 7.186147,44.200138,2791 7.186224,44.200123,2791 7.186312,44.200093,2791 7.186315,44.200080,2790 7.186298,44.200066,2790 7.186312,44.200053,2788 7.186274,44.200043,2787 7.186242,44.200032,2786 7.186224,44.200016,2785 7.186235,44.199996,2785 7.186229,44.200000,2785 7.186224,44.199995,2784 7.186224,44.199981,2783 7.186216,44.199967,2782 7.186244,44.199951,2781 7.186192,44.199929,2780 7.186206,44.199924,2779 7.186192,44.199923,2778 7.186228,44.199911,2777 7.186211,44.199879,2776 7.186209,44.199854,2775 7.186162,44.199854,2775 7.186141,44.199877,2774 7.186148,44.199880,2774 7.186172,44.199875,2773 7.186166,44.199879,2773 7.186114,44.199891,2774 7.186109,44.199833,2774 7.186117,44.199821,2773 7.186094,44.199845,2772 7.186060,44.199832,2770 7.186021,44.199817,2770 7.186010,44.199813,2769 7.185969,44.199800,2768 7.185972,44.199801,2766 7.185895,44.199770,2766 7.185860,44.199766,2766 7.185839,44.199752,2765 7.185812,44.199737,2764 7.185783,44.199767,2763 7.185728,44.199708,2763 7.185719,44.199717,2762 7.185678,44.199716,2761 7.185625,44.199727,2761 7.185560,44.199694,2762 7.185506,44.199663,2763 7.185412,44.199623,2762 7.185384,44.199647,2761 7.185388,44.199592,2761 7.185345,44.199569,2760 7.185331,44.199569,2759 7.185309,44.199557,2759 7.185332,44.199546,2758 7.185322,44.199545,2757 7.185351,44.199531,2755 7.185352,44.199527,2754 7.185379,44.199485,2753 7.185443,44.199484,2752 7.185472,44.199477,2751 7.185450,44.199426,2750 7.185476,44.199431,2750 7.185465,44.199434,2750 7.185444,44.199392,2749 7.185444,44.199348,2747 7.185394,44.199352,2746 7.185387,44.199363,2745 7.185372,44.199351,2745 7.185383,44.199331,2744 7.185388,44.199293,2743 7.185365,44.199298,2741 7.185376,44.199301,2741 7.185311,44.199259,2740 7.185260,44.199242,2739 7.185313,44.199216,2737 7.185279,44.199189,2736 7.185270,44.199182,2736 7.185262,44.199204,2735 7.185220,44.199188,2734 7.185184,44.199188,2733 7.185169,44.199167,2732 7.185151,44.199178,2731 7.185113,44.199180,2730 7.185064,44.199175,2729 7.185012,44.199164,2729 7.184994,44.199162,2728 7.184976,44.199150,2727 7.184961,44.199134,2726 7.184923,44.199125,2725 7.184860,44.199120,2725 7.184821,44.199113,2724 7.184788,44.199105,2723 7.184798,44.199098,2722 7.184717,44.199102,2722 7.184692,44.199089,2721 7.184617,44.199107,2721 7.184591,44.199121,2721 7.184498,44.199108,2719 7.184439,44.199119,2718 7.184407,44.199133,2718 7.184459,44.199144,2718 7.184479,44.199150,2718 7.184452,44.199152,2718 7.184416,44.199143,2717 7.184325,44.199117,2716 7.184300,44.199091,2715 7.184278,44.199080,2713 7.184216,44.199078,2712 7.184192,44.199079,2711 7.184131,44.199059,2710 7.184099,44.199047,2710 7.184072,44.199015,2708 7.184012,44.199022,2706 7.183949,44.198976,2706 7.183870,44.198986,2706 7.183771,44.198998,2704 7.183714,44.198980,2703 7.183624,44.198970,2702 7.183563,44.198974,2701 7.183503,44.198969,2701 7.183418,44.198937,2699 7.183388,44.198931,2699 7.183361,44.198913,2697 7.183340,44.198891,2696 7.183335,44.198874,2695 7.183327,44.198835,2694 7.183334,44.198822,2692 7.183327,44.198785,2690 7.183323,44.198772,2689 7.183305,44.198763,2688 7.183249,44.198744,2686 7.183207,44.198708,2686 7.183156,44.198647,2685 7.183084,44.198606,2684 7.183021,44.198562,2683 7.182957,44.198514,2682 7.182935,44.198471,2681 7.182880,44.198441,2679 7.182799,44.198405,2679 7.182707,44.198323,2677 7.182670,44.198268,2676 7.182610,44.198222,2674 7.182611,44.198206,2673 7.182606,44.198177,2672 7.182572,44.198154,2671 7.182565,44.198135,2670 7.182566,44.198124,2668 7.182531,44.198151,2667 7.182344,44.198114,2666 7.182197,44.198091,2665 7.182098,44.198083,2664 7.182009,44.198060,2663 7.181889,44.198017,2662 7.181796,44.197980,2661 7.181747,44.197959,2660 7.181588,44.197893,2659 7.181521,44.197882,2659 7.181420,44.197862,2658 7.181282,44.197855,2656 7.181244,44.197850,2656 7.181123,44.197837,2655 7.181112,44.197827,2654 7.181095,44.197811,2653 7.181019,44.197786,2652 7.180925,44.197770,2652 7.180854,44.197753,2651 7.180764,44.197742,2650 7.180735,44.197727,2649 7.180727,44.197725,2648 7.180708,44.197722,2647 7.180600,44.197676,2646 7.180536,44.197655,2646 7.180563,44.197789,2647 7.180487,44.197670,2646 7.180383,44.197635,2645 7.180301,44.197615,2644 7.180220,44.197577,2642 7.180144,44.197551,2642 7.180124,44.197525,2641 7.180091,44.197496,2639 7.180094,44.197483,2639 7.180078,44.197464,2637 7.180074,44.197449,2635 7.180065,44.197429,2634 7.179981,44.197398,2632 7.179997,44.197393,2631 7.179922,44.197353,2631 7.179904,44.197345,2630 7.179864,44.197304,2630 7.179829,44.197270,2628 7.179756,44.197254,2630 7.179703,44.197238,2631 7.179688,44.197238,2633 7.179678,44.197231,2633 7.179670,44.197222,2634 7.179638,44.197179,2635 7.179610,44.197157,2637 7.179575,44.197145,2638 7.179526,44.197119,2639 7.179458,44.197118,2640 7.179480,44.197134,2641 7.179599,44.197209,2641 7.179684,44.197335,2642 7.179668,44.197368,2642 7.179598,44.197342,2644 7.179521,44.197310,2646 7.179464,44.197281,2647 7.179445,44.197269,2648 7.179413,44.197244,2649 7.179377,44.197211,2650 7.179417,44.197242,2651 7.179482,44.197329,2652 7.179484,44.197440,2653 7.179457,44.197416,2655 7.179410,44.197381,2657 7.179364,44.197356,2658 7.179288,44.197323,2659 7.179263,44.197284,2660 7.179224,44.197280,2661 7.179270,44.197346,2662 7.179347,44.197402,2663 7.179384,44.197489,2663 7.179415,44.197505,2663 7.179431,44.197555,2664 7.179395,44.197532,2665 7.179358,44.197499,2666 7.179300,44.197478,2667 7.179229,44.197450,2669 7.179256,44.197443,2670 7.179251,44.197452,2671 7.179263,44.197497,2672 7.179265,44.197550,2673 7.179290,44.197629,2675 7.179295,44.197648,2675 7.179319,44.197668,2676 7.179419,44.197654,2676 7.179409,44.197643,2675 7.179417,44.197630,2675 7.179402,44.197616,2675 7.179420,44.197623,2675 7.179430,44.197642,2675 7.179454,44.197629,2673 7.179457,44.197603,2673 7.179408,44.197614,2672 7.179411,44.197632,2671 7.179421,44.197636,2671 7.179424,44.197638,2671 7.179449,44.197623,2671 7.179421,44.197617,2671 7.179441,44.197612,2671 7.179469,44.197627,2671 7.179473,44.197618,2671 7.179506,44.197598,2671 7.179412,44.197638,2671 7.179407,44.197645,2671 7.179444,44.197626,2670 7.179398,44.197615,2670 7.179468,44.197619,2670 7.179532,44.197648,2670 7.179437,44.197622,2670 7.179439,44.197631,2670 7.179444,44.197606,2670 7.179457,44.197616,2670 7.179517,44.197615,2669 7.179426,44.197616,2670 7.179381,44.197651,2669 7.179410,44.197675,2668 7.179412,44.197665,2668 7.179413,44.197665,2668 7.179466,44.197631,2668 7.179406,44.197679,2668 7.179416,44.197663,2667 7.179416,44.197654,2667 7.179436,44.197598,2666 7.179453,44.197629,2666 7.179442,44.197609,2666 7.179407,44.197635,2665 7.179477,44.197690,2665 7.179451,44.197612,2665 7.179420,44.197567,2665 7.179391,44.197615,2665 7.179381,44.197677,2665 7.179393,44.197674,2665 7.179399,44.197664,2666 7.179394,44.197665,2666 7.179396,44.197689,2666 7.179402,44.197689,2666 7.179402,44.197686,2666 7.179396,44.197680,2666 7.179382,44.197689,2665 7.179393,44.197667,2665 7.179438,44.197681,2665 7.179422,44.197664,2665 7.179401,44.197676,2665 7.179429,44.197660,2664 7.179428,44.197666,2664 7.179426,44.197695,2664 7.179425,44.197669,2664 7.179373,44.197662,2664 7.179382,44.197685,2664 7.179400,44.197711,2664 7.179396,44.197678,2664 7.179397,44.197684,2664 7.179417,44.197678,2663 7.179412,44.197685,2663 7.179409,44.197663,2663 7.179445,44.197665,2663 7.179473,44.197639,2663 7.179510,44.197614,2662 7.179451,44.197591,2662 7.179426,44.197595,2662 7.179437,44.197614,2662 7.179432,44.197679,2662 7.179433,44.197635,2662 7.179416,44.197633,2662 7.179393,44.197541,2662 7.179348,44.197525,2662 7.179435,44.197625,2662 7.179448,44.197646,2662 7.179398,44.197666,2662 7.179395,44.197675,2662 7.179393,44.197670,2662 7.179402,44.197660,2662 7.179452,44.197608,2662 7.179429,44.197648,2663 7.179449,44.197663,2662 7.179400,44.197631,2662 7.179400,44.197653,2662 7.179402,44.197665,2662 7.179365,44.197681,2662 7.179376,44.197675,2663 7.179342,44.197696,2663 7.179355,44.197681,2663 7.179364,44.197642,2663 7.179392,44.197668,2663 7.179379,44.197671,2663 7.179405,44.197668,2663 7.179388,44.197683,2663 7.179430,44.197670,2663 7.179388,44.197677,2663 7.179435,44.197664,2663 7.179406,44.197665,2663 7.179393,44.197659,2663 7.179413,44.197638,2663 7.179414,44.197645,2663 7.179399,44.197650,2663 7.179392,44.197678,2663 7.179378,44.197686,2661 7.179406,44.197657,2660 7.179406,44.197654,2660 7.179398,44.197658,2660 7.179393,44.197678,2660 7.179398,44.197729,2659 7.179369,44.197778,2657 7.179313,44.197789,2655 7.179347,44.197831,2654 7.179321,44.197893,2653 7.179308,44.197927,2652 7.179304,44.197971,2651 7.179278,44.198002,2651 7.179248,44.198048,2650 7.179236,44.198077,2649 7.179231,44.198100,2649 7.179215,44.198171,2648 7.179208,44.198240,2647 7.179185,44.198313,2646 7.179196,44.198297,2646 7.179125,44.198364,2644 7.179067,44.198403,2644 7.179029,44.198401,2643 7.178941,44.198438,2643 7.178886,44.198497,2643 7.178873,44.198567,2642 7.178893,44.198606,2641 7.178869,44.198682,2640 7.178872,44.198707,2639 7.178863,44.198781,2638 7.178865,44.198775,2638 7.178876,44.198805,2638 7.178762,44.198860,2639 7.178663,44.198897,2639 7.178516,44.198979,2638 7.178388,44.199050,2638 7.178233,44.199122,2639 7.178186,44.199137,2640 7.178073,44.199161,2641 7.177997,44.199193,2642 7.177869,44.199229,2642 7.177783,44.199272,2641 7.177644,44.199373,2641 7.177555,44.199447,2639 7.177496,44.199487,2637 7.177432,44.199537,2636 7.177420,44.199572,2635 7.177359,44.199610,2633 7.177240,44.199645,2631 7.177004,44.199665,2631 7.176891,44.199713,2630 7.176856,44.199725,2628 7.176817,44.199738,2627 7.176810,44.199838,2627 7.176806,44.199916,2625 7.176822,44.199989,2623 7.176804,44.200047,2622 7.176780,44.200093,2620 7.176754,44.200103,2619 7.176749,44.200121,2618 7.176705,44.200171,2616 7.176697,44.200219,2615 7.176665,44.200271,2614 7.176638,44.200308,2613 7.176598,44.200361,2611 7.176550,44.200416,2610 7.176528,44.200479,2608 7.176462,44.200545,2607 7.176446,44.200611,2605 7.176421,44.200653,2604 7.176409,44.200677,2602 7.176396,44.200729,2601 7.176397,44.200750,2600 7.176404,44.200842,2599 7.176331,44.200926,2598 7.176208,44.200962,2597 7.176159,44.200944,2596 7.176121,44.200937,2595 7.176101,44.200937,2594 7.176063,44.200938,2593 7.176017,44.200951,2591 7.175959,44.200968,2590 7.175860,44.200993,2589 7.175795,44.201015,2588 7.175716,44.201053,2587 7.175635,44.201086,2586 7.175489,44.201204,2585 7.175457,44.201250,2585 7.175400,44.201290,2584 7.175307,44.201340,2583 7.175258,44.201347,2583 7.175223,44.201371,2582 7.175178,44.201390,2580 7.174985,44.201417,2580 7.174780,44.201462,2580 7.174736,44.201437,2579 7.174709,44.201433,2578 7.174660,44.201428,2577 7.174606,44.201425,2576 7.174627,44.201472,2574 7.174652,44.201499,2574 7.174614,44.201457,2573 7.174678,44.201519,2573 7.174693,44.201524,2573 7.174719,44.201551,2573 7.174733,44.201556,2572 7.174778,44.201596,2571 7.174738,44.201597,2569 7.174762,44.201600,2568 7.174766,44.201639,2567 7.174746,44.201661,2566 7.174681,44.201649,2565 7.174686,44.201671,2564 7.174712,44.201709,2564 7.174691,44.201696,2563 7.174630,44.201727,2563 7.174595,44.201768,2563 7.174580,44.201770,2562 7.174562,44.201777,2562 7.174430,44.201804,2562 7.174409,44.201757,2561 7.174301,44.201774,2560 7.174107,44.201823,2561 7.173969,44.201899,2561 7.173941,44.201967,2561 7.173850,44.202033,2561 7.173706,44.202085,2561 7.173710,44.202136,2560 7.173700,44.202188,2559 7.173671,44.202226,2558 7.173688,44.202240,2557 7.173693,44.202304,2557 7.173638,44.202349,2557 7.173606,44.202423,2559 7.173595,44.202468,2560 7.173597,44.202495,2560 7.173589,44.202517,2560 7.173541,44.202642,2561 7.173546,44.202678,2562 7.173561,44.202728,2563 7.173544,44.202754,2563 7.173562,44.202839,2562 7.173730,44.202856,2561 7.173806,44.202911,2563 7.173882,44.202931,2563 7.173936,44.202971,2562 7.173930,44.203050,2561 7.173887,44.203172,2562 7.173865,44.203205,2561 7.173857,44.203197,2561 7.173896,44.203178,2561 7.173907,44.203181,2560 7.173882,44.203222,2559 7.173884,44.203293,2556 7.173865,44.203365,2555 7.173794,44.203340,2555 7.173707,44.203424,2556 7.173659,44.203437,2556 7.173615,44.203422,2556 7.173607,44.203402,2554 7.173539,44.203366,2553 7.173504,44.203370,2553 7.173476,44.203385,2552 7.173432,44.203430,2551 7.173302,44.203406,2552 7.173302,44.203425,2552 7.173296,44.203488,2551 7.173293,44.203546,2551 7.173304,44.203626,2551 7.173298,44.203666,2551 7.173319,44.203621,2551 7.173321,44.203617,2551 7.173306,44.203604,2552 7.173233,44.203564,2553 7.173232,44.203571,2555 7.173101,44.203545,2555 7.173080,44.203543,2554 7.172963,44.203504,2554 7.172892,44.203483,2555 7.172841,44.203500,2554 7.172770,44.203480,2553 7.172690,44.203457,2552 7.172579,44.203459,2551 7.172514,44.203454,2550 7.172456,44.203457,2548 7.172443,44.203467,2546 7.172408,44.203491,2545 7.172348,44.203541,2544 7.172223,44.203664,2543 7.172198,44.203663,2542 7.172160,44.203677,2541 7.172121,44.203701,2540 7.172064,44.203713,2538 7.171992,44.203732,2537 7.171906,44.203738,2535 7.171822,44.203729,2535 7.171693,44.203724,2535 7.171611,44.203705,2536 7.171499,44.203669,2536 7.171470,44.203696,2534 7.171375,44.203757,2534 7.171235,44.203743,2534 7.171194,44.203724,2535 7.171091,44.203722,2537 7.170981,44.203780,2538 7.170858,44.203799,2539 7.170808,44.203789,2540 7.170794,44.203802,2540 7.170773,44.203839,2541 7.170729,44.203900,2541 7.170607,44.204036,2543 7.170482,44.204119,2544 7.170373,44.204170,2544 7.170280,44.204194,2543 7.170338,44.204133,2543 7.170326,44.204147,2543 7.170298,44.204147,2543 7.170264,44.204188,2544 7.170289,44.204193,2545 7.170282,44.204170,2545 7.170243,44.204179,2545 7.170211,44.204181,2545 7.170165,44.204182,2546 7.170071,44.204156,2547 7.169987,44.204171,2548 7.169900,44.204157,2549 7.169847,44.204148,2550 7.169790,44.204144,2550 7.169723,44.204176,2550 7.169624,44.204156,2550 7.169564,44.204082,2551 7.169540,44.204057,2552 7.169471,44.204041,2554 7.169431,44.203994,2555 7.169374,44.203958,2556 7.169331,44.203920,2558 7.169263,44.203899,2559 7.169238,44.203899,2560 7.169215,44.203900,2561 7.169184,44.203881,2563 7.169190,44.203855,2564 7.169182,44.203824,2565 7.169164,44.203787,2567 7.169160,44.203761,2568 7.169143,44.203721,2570 7.169150,44.203712,2571 7.169129,44.203679,2573 7.169086,44.203611,2575 7.169098,44.203593,2576 7.169081,44.203544,2577 7.169078,44.203528,2578 7.169078,44.203531,2579 7.169063,44.203507,2580 7.169047,44.203471,2581 7.169027,44.203457,2582 7.169005,44.203478,2584 7.168995,44.203496,2584 7.168948,44.203528,2585 7.168923,44.203573,2586 7.168909,44.203592,2586 7.168905,44.203580,2587 7.168871,44.203586,2588 7.168856,44.203576,2589 7.168855,44.203553,2590 7.168819,44.203504,2591 7.168777,44.203528,2592 7.168751,44.203539,2592 7.168714,44.203536,2593 7.168664,44.203511,2594 7.168622,44.203487,2595 7.168630,44.203466,2597 7.168612,44.203442,2598 7.168581,44.203424,2599 7.168543,44.203441,2600 7.168534,44.203551,2601 7.168561,44.203549,2602 7.168563,44.203565,2603 7.168576,44.203625,2604 7.168557,44.203699,2605 7.168564,44.203738,2606 7.168578,44.203774,2607 7.168565,44.203808,2608 7.168533,44.203781,2609 7.168518,44.203753,2610 7.168515,44.203729,2612 7.168501,44.203722,2613 7.168459,44.203697,2614 7.168412,44.203662,2615 7.168378,44.203629,2617 7.168290,44.203631,2618 7.168245,44.203621,2620 7.168206,44.203622,2621 7.168173,44.203611,2623 7.168163,44.203574,2624 7.168161,44.203535,2626 7.168138,44.203529,2627 7.168081,44.203514,2628 7.167996,44.203501,2629 7.167984,44.203497,2630 7.167896,44.203464,2631 7.167881,44.203443,2632 7.167825,44.203429,2634 7.167777,44.203419,2635 7.167716,44.203417,2636 7.167674,44.203399,2638 7.167641,44.203357,2639 7.167597,44.203348,2641 7.167584,44.203325,2642 7.167544,44.203331,2643 7.167517,44.203343,2645 7.167505,44.203336,2646 7.167516,44.203366,2647 7.167542,44.203425,2648 7.167530,44.203477,2649 7.167530,44.203538,2650 7.167559,44.203587,2651 7.167581,44.203618,2652 7.167608,44.203660,2653 7.167621,44.203691,2655 7.167633,44.203752,2656 7.167630,44.203787,2658 7.167680,44.203828,2660 7.167708,44.203889,2661 7.167698,44.203920,2662 7.167667,44.203920,2663 7.167616,44.203898,2665 7.167573,44.203870,2666 7.167536,44.203858,2667 7.167483,44.203836,2668 7.167456,44.203818,2670 7.167458,44.203845,2670 7.167467,44.203861,2671 7.167518,44.203903,2672 7.167564,44.203949,2673 7.167556,44.203982,2675 7.167525,44.204011,2676 7.167495,44.203998,2677 7.167484,44.204001,2678 7.167432,44.203985,2679 7.167443,44.204012,2680 7.167475,44.204066,2681 7.167523,44.204118,2682 7.167562,44.204178,2684 7.167606,44.204199,2685 7.167672,44.204253,2686 7.167709,44.204352,2687 7.167741,44.204409,2688 7.167727,44.204424,2689 7.167681,44.204398,2691 7.167641,44.204367,2692 7.167606,44.204353,2693 7.167560,44.204336,2695 7.167525,44.204314,2696 7.167476,44.204298,2697 7.167433,44.204280,2698 7.167395,44.204276,2699 7.167419,44.204315,2700 7.167460,44.204430,2701 7.167512,44.204489,2702 7.167525,44.204570,2703 7.167526,44.204593,2704 7.167474,44.204560,2706 7.167432,44.204538,2707 7.167395,44.204513,2709 7.167336,44.204480,2710 7.167305,44.204457,2711 7.167260,44.204431,2712 7.167266,44.204460,2713 7.167326,44.204602,2714 7.167345,44.204654,2715 7.167379,44.204700,2716 7.167393,44.204739,2717 7.167397,44.204776,2718 7.167432,44.204806,2720 7.167460,44.204845,2721 7.167468,44.204901,2722 7.167500,44.204934,2724 7.167524,44.204960,2724 7.167541,44.205007,2725 7.167509,44.204997,2726 7.167469,44.204986,2728 7.167428,44.204970,2729 7.167379,44.204954,2730 7.167401,44.204972,2732 7.167427,44.205014,2733 7.167435,44.205055,2734 7.167455,44.205121,2735 7.167491,44.205195,2736 7.167549,44.205302,2738 7.167548,44.205336,2739 7.167540,44.205354,2740 7.167548,44.205400,2741 7.167496,44.205379,2743 7.167458,44.205361,2744 7.167435,44.205378,2745 7.167456,44.205413,2746 7.167466,44.205474,2748 7.167441,44.205495,2749 7.167408,44.205527,2750 7.167366,44.205553,2749 7.167342,44.205531,2750 7.167363,44.205526,2750 7.167375,44.205531,2749 7.167364,44.205529,2750 7.167372,44.205529,2750 7.167377,44.205534,2750 7.167448,44.205528,2749 7.167460,44.205520,2749 7.167442,44.205521,2749 7.167431,44.205506,2748 7.167397,44.205528,2748 7.167423,44.205518,2748 7.167431,44.205520,2748 7.167435,44.205522,2748 7.167422,44.205524,2747 7.167403,44.205516,2747 7.167397,44.205514,2747 7.167406,44.205518,2747 7.167424,44.205523,2747 7.167358,44.205539,2746 7.167256,44.205575,2744 7.167194,44.205591,2743 7.167162,44.205605,2743 7.167018,44.205640,2744 7.166900,44.205671,2743 7.166764,44.205723,2742 7.166568,44.205790,2740 7.166472,44.205826,2739 7.166353,44.205895,2737 7.166289,44.205949,2736 7.166201,44.206021,2734 7.166140,44.206055,2733 7.166086,44.206111,2732 7.166055,44.206231,2730 7.166002,44.206312,2728 7.165939,44.206401,2727 7.165956,44.206421,2726 7.166008,44.206405,2724 7.166184,44.206368,2723 7.166258,44.206353,2722 7.166335,44.206345,2721 7.166444,44.206342,2720 7.166558,44.206337,2719 7.166538,44.206343,2719 7.166450,44.206390,2718 7.166362,44.206452,2717 7.166258,44.206525,2716 7.166138,44.206590,2715 7.166018,44.206633,2714 7.165875,44.206678,2713 7.165758,44.206694,2712 7.165709,44.206674,2711 7.165699,44.206692,2711 7.165627,44.206740,2709 7.165509,44.206778,2708 7.165388,44.206838,2708 7.165308,44.206848,2710 7.165215,44.206848,2711 7.165190,44.206865,2712 7.165161,44.206870,2712 7.165121,44.206866,2713 7.165067,44.206901,2714 7.165031,44.206902,2715 7.164963,44.206899,2717 7.164948,44.206905,2718 7.164922,44.206918,2718 7.164885,44.206947,2719 7.164851,44.206968,2720 7.164819,44.206971,2721 7.164751,44.206999,2723 7.164721,44.207036,2725 7.164721,44.207042,2725 7.164693,44.207047,2726 7.164663,44.207058,2727 7.164658,44.207067,2728 7.164608,44.207101,2729 7.164566,44.207146,2731 7.164547,44.207161,2732 7.164499,44.207192,2733 7.164458,44.207194,2734 7.164417,44.207253,2735 7.164405,44.207282,2736 7.164362,44.207314,2738 7.164348,44.207353,2739 7.164342,44.207380,2739 7.164308,44.207402,2741 7.164293,44.207408,2742 7.164254,44.207419,2743 7.164233,44.207448,2744 7.164207,44.207481,2745 7.164202,44.207502,2746 7.164156,44.207508,2747 7.164109,44.207489,2748 7.164091,44.207505,2749 7.164064,44.207530,2751 7.164052,44.207537,2752 7.164036,44.207539,2753 7.164037,44.207563,2754 7.164010,44.207582,2755 7.163997,44.207586,2755 7.163976,44.207559,2756 7.163928,44.207582,2757 7.163928,44.207616,2758 7.163914,44.207623,2759 7.163850,44.207583,2760 7.163843,44.207622,2761 7.163805,44.207649,2762 7.163781,44.207665,2763 7.163761,44.207705,2764 7.163742,44.207723,2766 7.163707,44.207739,2767 7.163682,44.207734,2768 7.163671,44.207732,2769 7.163663,44.207748,2770 7.163644,44.207782,2771 7.163623,44.207816,2773 7.163598,44.207830,2774 7.163552,44.207845,2775 7.163534,44.207884,2777 7.163518,44.207921,2778 7.163512,44.207934,2779 7.163482,44.207954,2780 7.163464,44.207975,2781 7.163436,44.207997,2782 7.163433,44.208020,2783 7.163407,44.208033,2784 7.163395,44.208041,2785 7.163366,44.208041,2787 7.163343,44.208054,2788 7.163315,44.208067,2789 7.163310,44.208074,2790 7.163280,44.208086,2791 7.163273,44.208093,2791 7.163274,44.208089,2790 7.163259,44.208093,2790 7.163260,44.208097,2789 7.163277,44.208104,2789 7.163286,44.208143,2789 7.163271,44.208120,2789 7.163256,44.208119,2789 7.163262,44.208112,2789 7.163253,44.208129,2788 7.163299,44.208117,2788 7.163264,44.208083,2789 7.163273,44.208083,2789 7.163278,44.208088,2789 7.163270,44.208089,2790 7.163271,44.208089,2790 7.163276,44.208134,2789 7.163261,44.208122,2789 7.163294,44.208138,2789 7.163283,44.208151,2788 7.163255,44.208132,2788 7.163274,44.208125,2788 7.163295,44.208123,2788 7.163294,44.208109,2787 7.163266,44.208124,2787 7.163306,44.208130,2787 7.163264,44.208131,2787 7.163260,44.208141,2787 7.163280,44.208144,2787 7.163285,44.208135,2786 7.163261,44.208129,2786 7.163259,44.208122,2786 7.163306,44.208119,2786 7.163273,44.208113,2786 7.163268,44.208114,2786 7.163257,44.208116,2786 7.163277,44.208133,2785 7.163251,44.208116,2785 7.163259,44.208124,2785 7.163280,44.208117,2785 7.163270,44.208137,2786 7.163262,44.208130,2785 7.163252,44.208117,2785 7.163275,44.208117,2785 7.163287,44.208111,2785 7.163274,44.208095,2784 7.163278,44.208102,2784 7.163273,44.208112,2784 7.163272,44.208114,2783 7.163282,44.208128,2783 7.163280,44.208129,2783 7.163274,44.208119,2783 7.163283,44.208129,2783 7.163243,44.208054,2783 7.163234,44.208115,2783 7.163262,44.208113,2783 7.163264,44.208119,2782 7.163258,44.208112,2783 7.163274,44.208105,2783 7.163279,44.208108,2783 7.163277,44.208107,2783 7.163248,44.208114,2783 7.163284,44.208095,2783 7.163276,44.208107,2783 7.163259,44.208109,2783 7.163253,44.208108,2782 7.163280,44.208110,2782 7.163273,44.208107,2782 7.163278,44.208112,2783 7.163280,44.208112,2782 7.163278,44.208120,2782 7.163247,44.208096,2782 7.163265,44.208122,2782 7.163280,44.208098,2782 7.163268,44.208107,2782 7.163257,44.208100,2782 7.163263,44.208100,2783 7.163265,44.208101,2783 7.163269,44.208107,2783 7.163291,44.208098,2783 7.163301,44.208091,2783 7.163340,44.208092,2783 7.163307,44.208085,2783 7.163283,44.208091,2783 7.163272,44.208103,2783 7.163275,44.208116,2783 7.163268,44.208113,2783 7.163282,44.208114,2782 7.163282,44.208112,2782 7.163265,44.208108,2782 7.163261,44.208142,2783 7.163262,44.208121,2783 7.163269,44.208121,2782 7.163286,44.208125,2782 7.163278,44.208134,2783 7.163274,44.208126,2783 7.163262,44.208133,2783 7.163239,44.208141,2783 7.163250,44.208141,2783 7.163286,44.208128,2783 7.163262,44.208132,2783 7.163279,44.208130,2784 7.163257,44.208132,2784 7.163233,44.208123,2784 7.163171,44.208132,2783 7.163128,44.208115,2781 7.163107,44.208092,2780 7.163075,44.208082,2779 7.163006,44.208059,2777 7.162790,44.208079,2778 7.162760,44.208074,2778 7.162656,44.208046,2777 7.162509,44.207995,2778 7.162492,44.207978,2779 7.162511,44.207957,2779 7.162529,44.207946,2780 7.162519,44.207958,2779 7.162520,44.207957,2779 7.162515,44.207947,2779 7.162461,44.207910,2780 7.162354,44.207878,2778 7.162263,44.207812,2777 7.162213,44.207770,2776 7.162143,44.207709,2776 7.162084,44.207670,2774 7.162002,44.207649,2772 7.161925,44.207610,2771 7.161850,44.207584,2770 7.161768,44.207558,2769 7.161674,44.207547,2767 7.161579,44.207502,2766 7.161521,44.207474,2765 7.161471,44.207446,2764 7.161455,44.207427,2763 7.161424,44.207402,2763 7.161382,44.207383,2762 7.161350,44.207352,2762 7.161350,44.207320,2760 7.161344,44.207296,2759 7.161305,44.207292,2760 7.161263,44.207245,2759 7.161256,44.207219,2758 7.161223,44.207203,2757 7.161214,44.207171,2756 7.161208,44.207150,2755 7.161220,44.207136,2754 7.161196,44.207114,2752 7.161180,44.207095,2751 7.161168,44.207071,2750 7.161111,44.207052,2749 7.161113,44.207013,2747 7.161071,44.207012,2745 7.161055,44.207000,2744 7.161039,44.206982,2743 7.160999,44.206970,2741 7.160986,44.206954,2740 7.160974,44.206932,2739 7.160960,44.206925,2738 7.160934,44.206903,2737 7.160919,44.206904,2736 7.160935,44.206900,2735 7.160948,44.206885,2734 7.160937,44.206863,2733 7.160903,44.206854,2731 7.160911,44.206833,2730 7.160857,44.206811,2729 7.160803,44.206788,2728 7.160768,44.206777,2727 7.160745,44.206764,2726 7.160713,44.206764,2725 7.160703,44.206756,2724 7.160680,44.206733,2722 7.160648,44.206728,2721 7.160626,44.206707,2720 7.160622,44.206687,2719 7.160643,44.206639,2718 7.160619,44.206626,2717 7.160585,44.206618,2716 7.160553,44.206612,2715 7.160540,44.206611,2714 7.160519,44.206601,2713 7.160538,44.206575,2713 7.160511,44.206534,2711 7.160492,44.206510,2709 7.160443,44.206524,2708 7.160378,44.206528,2709 7.160397,44.206509,2707 7.160374,44.206440,2706 7.160321,44.206438,2705 7.160264,44.206409,2704 7.160233,44.206382,2703 7.160223,44.206398,2703 7.160202,44.206404,2703 7.160189,44.206409,2702 7.160188,44.206409,2702 7.160172,44.206414,2701 7.160172,44.206414,2701 7.160172,44.206400,2701 7.160233,44.206386,2700 7.160209,44.206410,2699 7.160186,44.206365,2699 7.160172,44.206358,2698 7.160110,44.206361,2697 7.160119,44.206355,2696 7.160104,44.206336,2695 7.160090,44.206320,2694 7.160126,44.206284,2692 7.160168,44.206261,2690 7.160168,44.206236,2689 7.160122,44.206214,2689 7.160118,44.206191,2687 7.160180,44.206168,2686 7.160150,44.206169,2685 7.160170,44.206139,2684 7.160165,44.206157,2682 7.160185,44.206117,2681 7.160145,44.206090,2680 7.160114,44.206096,2679 7.160082,44.206086,2678 7.160097,44.206076,2677 7.160087,44.206059,2676 7.160042,44.206047,2676 7.160015,44.206056,2674 7.159970,44.206062,2674 7.159925,44.206059,2673 7.159894,44.206070,2672 7.159861,44.206072,2671 7.159863,44.206052,2670 7.159856,44.206046,2670 7.159829,44.206046,2669 7.159805,44.206054,2669 7.159775,44.206049,2668 7.159748,44.206051,2668 7.159741,44.206049,2667 7.159707,44.206054,2666 7.159620,44.206075,2664 7.159603,44.206054,2663 7.159567,44.206059,2662 7.159537,44.206044,2661 7.159513,44.206028,2660 7.159493,44.206030,2659 7.159487,44.206035,2658 7.159497,44.206017,2657 7.159442,44.206012,2656 7.159427,44.206013,2655 7.159405,44.206002,2654 7.159359,44.206003,2653 7.159343,44.206003,2651 7.159352,44.205967,2650 7.159331,44.205949,2649 7.159297,44.205945,2648 7.159280,44.205943,2646 7.159284,44.205935,2645 7.159312,44.205913,2644 7.159332,44.205910,2643 7.159294,44.205905,2642 7.159295,44.205874,2641 7.159239,44.205864,2640 7.159211,44.205849,2639 7.159212,44.205846,2639 7.159182,44.205848,2638 7.159173,44.205848,2638 7.159127,44.205848,2637 7.159133,44.205839,2636 7.159167,44.205832,2635 7.159138,44.205834,2635 7.159146,44.205820,2634 7.159130,44.205807,2633 7.159126,44.205794,2632 7.159123,44.205800,2631 7.159114,44.205786,2630 7.159091,44.205759,2629 7.159085,44.205742,2627 7.159081,44.205705,2626 7.159032,44.205699,2625 7.158983,44.205699,2624 7.158953,44.205713,2623 7.158928,44.205722,2621 7.158924,44.205700,2620 7.158893,44.205688,2619 7.158885,44.205679,2617 7.158849,44.205676,2616 7.158847,44.205676,2615 7.158809,44.205638,2613 7.158789,44.205627,2612 7.158740,44.205600,2609 7.158719,44.205609,2608 7.158676,44.205606,2607 7.158654,44.205603,2606 7.158603,44.205604,2605 7.158587,44.205617,2603 7.158576,44.205597,2603 7.158560,44.205569,2601 7.158563,44.205556,2600 7.158559,44.205540,2599 7.158524,44.205521,2598 7.158531,44.205524,2597 7.158515,44.205516,2596 7.158528,44.205474,2594 7.158477,44.205466,2594 7.158439,44.205455,2592 7.158398,44.205475,2592 7.158375,44.205483,2591 7.158365,44.205464,2590 7.158338,44.205431,2589 7.158318,44.205431,2588 7.158325,44.205431,2587 7.158268,44.205422,2586 7.158271,44.205414,2584 7.158270,44.205396,2583 7.158212,44.205384,2582 7.158181,44.205387,2582 7.158165,44.205385,2581 7.158146,44.205372,2579 7.158145,44.205353,2578 7.158173,44.205297,2577 7.158142,44.205317,2576 7.158130,44.205291,2575 7.158118,44.205279,2574 7.158081,44.205242,2572 7.158046,44.205233,2571 7.158034,44.205224,2570 7.158003,44.205187,2569 7.157998,44.205147,2567 7.157899,44.205140,2567 7.157897,44.205131,2566 7.157900,44.205108,2565 7.157866,44.205092,2565 7.157845,44.205076,2564 7.157854,44.205056,2563 7.157849,44.205049,2562 7.157809,44.205028,2561 7.157810,44.205033,2560 7.157810,44.205033,2560 7.157810,44.205033,2560 7.157765,44.205027,2559 7.157741,44.204995,2558 7.157723,44.204945,2557 7.157676,44.204937,2557 7.157650,44.204904,2556 7.157671,44.204886,2555 7.157653,44.204907,2556 7.157664,44.204919,2555 7.157645,44.204948,2555 7.157665,44.204943,2554 7.157675,44.204938,2553 7.157650,44.204940,2551 7.157657,44.204972,2550 7.157631,44.204954,2549 7.157608,44.204959,2547 7.157590,44.204962,2545 7.157553,44.204945,2543 7.157547,44.204974,2541 7.157538,44.204987,2540 7.157519,44.204994,2539 7.157517,44.205000,2538 7.157491,44.205030,2536 7.157483,44.204999,2535 7.157441,44.205021,2533 7.157421,44.205022,2532 7.157366,44.205051,2531 7.157362,44.205053,2529 7.157350,44.205062,2528 7.157334,44.205090,2527 7.157332,44.205118,2526 7.157294,44.205126,2524 7.157274,44.205116,2523 7.157268,44.205135,2523 7.157241,44.205158,2522 7.157199,44.205140,2521 7.157205,44.205177,2520 7.157151,44.205172,2519 7.157148,44.205180,2518 7.157091,44.205058,2517 7.157081,44.205040,2517 7.157045,44.205017,2516 7.156991,44.204910,2514 7.156978,44.204865,2514 7.156962,44.204807,2513 7.156936,44.204775,2512 7.156915,44.204737,2510 7.156881,44.204664,2508 7.156860,44.204723,2507 7.156850,44.204770,2506 7.156832,44.204791,2505 7.156806,44.204760,2504 7.156798,44.204747,2503 7.156786,44.204758,2501 7.156786,44.204767,2500 7.156772,44.204827,2499 7.156727,44.204794,2498 7.156703,44.204766,2496 7.156662,44.204729,2495 7.156657,44.204698,2493 7.156645,44.204727,2492 7.156632,44.204739,2491 7.156586,44.204819,2490 7.156568,44.204847,2488 7.156561,44.204864,2488 7.156534,44.204902,2486 7.156471,44.204927,2485 7.156443,44.204899,2484 7.156449,44.204884,2482 7.156454,44.204884,2482 7.156437,44.204940,2480 7.156421,44.204992,2479 7.156432,44.205010,2478 7.156434,44.205025,2477 7.156448,44.205055,2476 7.156431,44.205086,2474 7.156370,44.205084,2472 7.156351,44.205046,2471 7.156308,44.205038,2470 7.156262,44.205035,2469 7.156216,44.205000,2467 7.156202,44.204968,2465 7.156160,44.204944,2464 7.156123,44.204910,2462 7.156101,44.204868,2461 7.156078,44.204813,2460 7.156067,44.204775,2459 7.156035,44.204740,2458 7.156003,44.204706,2457 7.155955,44.204653,2456 7.155888,44.204602,2454 7.155868,44.204590,2453 7.155845,44.204576,2452 7.155847,44.204576,2451 7.155840,44.204593,2450 7.155771,44.204598,2449 7.155751,44.204588,2448 7.155725,44.204587,2446 7.155658,44.204567,2444 7.155627,44.204539,2443 7.155622,44.204553,2442 7.155574,44.204578,2441 7.155535,44.204584,2440 7.155487,44.204585,2438 7.155458,44.204574,2437 7.155426,44.204552,2436 7.155392,44.204511,2434 7.155315,44.204436,2432 7.155235,44.204349,2431 7.155188,44.204302,2431 7.155106,44.204197,2430 7.155076,44.204168,2429 7.155064,44.204183,2429 7.155048,44.204209,2428 7.155022,44.204266,2427 7.154978,44.204295,2426 7.154925,44.204256,2424 7.154861,44.204227,2423 7.154812,44.204202,2422 7.154767,44.204162,2421 7.154715,44.204102,2420 7.154620,44.204080,2418 7.154528,44.204093,2417 7.154506,44.204089,2416 7.154437,44.204063,2415 7.154391,44.204062,2414 7.154367,44.204152,2414 7.154350,44.204199,2413 7.154306,44.204216,2412 7.154252,44.204221,2411 7.154197,44.204184,2409 7.154169,44.204170,2408 7.154095,44.204161,2406 7.154027,44.204131,2405 7.154026,44.204121,2404 7.153967,44.204088,2401 7.153844,44.204126,2400 7.153818,44.204191,2399 7.153822,44.204210,2398 7.153823,44.204226,2397 7.153792,44.204254,2397 7.153753,44.204281,2396 7.153720,44.204300,2395 7.153671,44.204320,2394 7.153625,44.204272,2392 7.153584,44.204216,2391 7.153517,44.204137,2391 7.153451,44.204038,2390 7.153435,44.204003,2389 7.153373,44.203959,2387 7.153326,44.203956,2386 7.153252,44.203930,2385 7.153213,44.203877,2384 7.153153,44.203795,2384 7.153108,44.203785,2383 7.153062,44.203769,2382 7.153016,44.203754,2381 7.152962,44.203751,2380 7.152920,44.203743,2378 7.152879,44.203742,2377 7.152850,44.203765,2376 7.152775,44.203750,2375 7.152669,44.203696,2373 7.152659,44.203679,2372 7.152642,44.203658,2371 7.152641,44.203587,2370 7.152629,44.203553,2369 7.152630,44.203483,2368 7.152630,44.203403,2367 7.152633,44.203360,2365 7.152649,44.203310,2364 7.152671,44.203258,2363 7.152647,44.203260,2363 7.152419,44.203382,2362 7.152186,44.203345,2362 7.151923,44.203354,2362 7.151764,44.203403,2361 7.151602,44.203385,2361 7.151570,44.203371,2360 7.151494,44.203297,2360 7.149064,44.202450,2347 7.148879,44.202406,2346 7.148653,44.202339,2346 7.148475,44.202304,2345 7.148172,44.202292,2346 7.148069,44.202299,2346 7.147913,44.202289,2348 7.147801,44.202263,2349 7.147548,44.202218,2350 7.147372,44.202199,2350 7.147181,44.202167,2348 7.146869,44.202132,2350 7.146709,44.202073,2351 7.146558,44.202050,2350 7.146266,44.202094,2352 7.146155,44.202056,2353 7.146065,44.202003,2354 7.145832,44.201903,2355 7.145684,44.201841,2355 7.145401,44.201714,2356 7.145204,44.201623,2357 7.144896,44.201610,2358 7.144788,44.201669,2359 7.144682,44.201715,2360 7.144490,44.201746,2360 7.144262,44.201766,2361 7.144007,44.201774,2362 7.143891,44.201768,2363 7.143730,44.201761,2364 7.143550,44.201783,2365 7.143286,44.201834,2365 7.142997,44.201987,2365 7.142852,44.202104,2366 7.142717,44.202174,2367 7.142450,44.202289,2368 7.142088,44.202366,2368 7.141903,44.202394,2369 7.141781,44.202423,2370 7.141635,44.202464,2371 7.141324,44.202505,2372 7.141047,44.202488,2373 7.140763,44.202455,2374 7.140569,44.202448,2374 7.140390,44.202450,2376 7.140287,44.202451,2375 7.140189,44.202449,2376 7.140028,44.202453,2376 7.139737,44.202587,2378 7.139594,44.202652,2378 7.139207,44.202696,2379 7.139057,44.202703,2378 7.138826,44.202722,2380 7.138644,44.202736,2381 7.138497,44.202740,2380 7.138440,44.202721,2381 7.138401,44.202700,2382 7.138353,44.202699,2383 7.138272,44.202714,2383 7.138209,44.202853,2381 7.138173,44.202943,2380 7.138096,44.203035,2378 7.138073,44.203054,2378 7.138012,44.203135,2377 7.137988,44.203260,2377 7.137937,44.203354,2375 7.137907,44.203413,2373 7.137897,44.203460,2372 7.137879,44.203536,2370 7.137835,44.203581,2369 7.137767,44.203652,2367 7.137719,44.203730,2366 7.137685,44.203775,2364 7.137637,44.203824,2363 7.137568,44.203915,2361 7.137477,44.204046,2361 7.137328,44.204172,2360 7.137074,44.204335,2359 7.136928,44.204419,2358 7.136814,44.204493,2358 7.136586,44.204652,2357 7.136469,44.204745,2356 7.136417,44.204800,2355 7.136359,44.204832,2353 7.136280,44.204890,2353 7.136251,44.204911,2352 7.136131,44.204981,2351 7.136006,44.205059,2350 7.135875,44.205122,2350 7.135760,44.205206,2349 7.135664,44.205285,2348 7.135498,44.205340,2347 7.135337,44.205361,2346 7.135260,44.205383,2346 7.135053,44.205433,2345 7.134859,44.205448,2345 7.134656,44.205451,2344 7.134517,44.205450,2343 7.134436,44.205467,2342 7.134356,44.205477,2340 7.134237,44.205461,2339 7.134117,44.205462,2337 7.134084,44.205473,2336 7.134002,44.205496,2335 7.133884,44.205525,2334 7.133781,44.205573,2332 7.133718,44.205600,2330 7.133573,44.205658,2329 7.133409,44.205717,2326 7.133270,44.205734,2325 7.133192,44.205746,2324 7.133047,44.205787,2323 7.132823,44.205919,2323 7.132739,44.205990,2323 7.132607,44.206084,2323 7.132353,44.206153,2323 7.132187,44.206248,2323 7.132082,44.206306,2321 7.132004,44.206363,2320 7.131914,44.206435,2320 7.131797,44.206480,2319 7.131741,44.206485,2317 7.131673,44.206511,2316 7.131612,44.206551,2314 7.131518,44.206590,2312 7.131484,44.206602,2311 7.131433,44.206643,2310 7.131374,44.206682,2308 7.131348,44.206695,2307 7.131283,44.206731,2306 7.131219,44.206764,2305 7.131108,44.206802,2304 7.131027,44.206841,2302 7.130937,44.206904,2301 7.130872,44.206935,2300 7.130767,44.207012,2301 7.130628,44.207087,2300 7.130479,44.207152,2301 7.130375,44.207260,2301 7.130292,44.207359,2302 7.130238,44.207406,2303 7.130186,44.207463,2304 7.130136,44.207527,2305 7.130019,44.207621,2306 7.129910,44.207708,2307 7.129766,44.207770,2308 7.129664,44.207814,2310 7.129594,44.207859,2311 7.129482,44.207964,2312 7.129402,44.208091,2313 7.129210,44.208287,2313 7.129123,44.208389,2314 7.129032,44.208488,2313 7.128929,44.208612,2313 7.128890,44.208669,2314 7.128859,44.208715,2315 7.128824,44.208770,2316 7.128763,44.208842,2317 7.128679,44.208956,2318 7.128570,44.209059,2318 7.128533,44.209094,2318 7.128367,44.209276,2318 7.128264,44.209371,2317 7.128173,44.209445,2318 7.128071,44.209500,2319 7.127795,44.209704,2317 7.127699,44.209793,2317 7.127474,44.209971,2316 7.127339,44.210117,2315 7.127283,44.210181,2315 7.127198,44.210265,2313 7.127116,44.210376,2312 7.127043,44.210458,2310 7.126973,44.210535,2310 7.126911,44.210623,2309 7.126678,44.210736,2308 7.126537,44.210818,2308 7.126349,44.210920,2309 7.126179,44.210966,2309 7.126049,44.211066,2311 7.125949,44.211097,2312 7.125902,44.211118,2312 7.125818,44.211164,2312 7.125681,44.211251,2311 7.125525,44.211310,2309 7.125402,44.211333,2307 7.125353,44.211339,2306 7.125289,44.211338,2303 7.125267,44.211326,2302 7.125139,44.211275,2301 7.125122,44.211270,2300 7.125135,44.211258,2300 7.125109,44.211277,2300 7.124942,44.211323,2297 7.124834,44.211320,2297 7.124661,44.211308,2296 7.124539,44.211319,2295 7.124237,44.211377,2296 7.124009,44.211466,2295 7.123920,44.211576,2295 7.123848,44.211725,2294 7.123802,44.211797,2293 7.123733,44.211839,2291 7.123618,44.211903,2290 7.123458,44.211965,2289 7.123234,44.212006,2289 7.123131,44.212061,2287 7.122966,44.212119,2286 7.122877,44.212151,2284 7.122779,44.212160,2282 7.122604,44.212181,2281 7.122284,44.212185,2282 7.122149,44.212205,2283 7.122063,44.212248,2284 7.122001,44.212261,2284 7.121951,44.212262,2284 7.121901,44.212259,2284 7.121683,44.212265,2283 7.121412,44.212296,2282 7.121176,44.212362,2283 7.121022,44.212410,2283 7.120917,44.212448,2281 7.120736,44.212513,2280 7.120596,44.212609,2279 7.120448,44.212758,2281 7.120334,44.212823,2281 7.120322,44.212842,2282 7.120242,44.212899,2282 7.120016,44.212984,2281 7.119849,44.213097,2280 7.119680,44.213211,2280 7.119444,44.213351,2280 7.119252,44.213510,2281 7.119123,44.213577,2282 7.119036,44.213740,2283 7.118944,44.213850,2283 7.118877,44.213915,2284 7.118830,44.213985,2285 7.118811,44.214023,2287 7.118772,44.214095,2288 7.118768,44.214143,2289 7.118752,44.214192,2291 7.118746,44.214211,2292 7.118702,44.214275,2294 7.118672,44.214341,2294 7.118594,44.214372,2296 7.118508,44.214393,2297 7.118470,44.214423,2299 7.118487,44.214458,2300 7.118479,44.214503,2302 7.118454,44.214534,2303 7.118399,44.214600,2304 7.118367,44.214627,2304 7.118347,44.214636,2306 7.118335,44.214651,2307 7.118307,44.214677,2308 7.118291,44.214703,2309 7.118267,44.214754,2312 7.118253,44.214780,2313 7.118214,44.214829,2315 7.118198,44.214860,2316 7.118177,44.214879,2317 7.118127,44.214896,2319 7.118088,44.214929,2320 7.118047,44.214957,2321 7.117995,44.214973,2322 7.117956,44.214979,2323 7.117956,44.215042,2324 7.117927,44.215093,2325 7.117911,44.215121,2326 7.117865,44.215160,2327 7.117794,44.215177,2328 7.117767,44.215187,2330 7.117714,44.215208,2331 7.117677,44.215225,2332 7.117575,44.215245,2334 7.117510,44.215262,2335 7.117480,44.215276,2335 7.117432,44.215329,2337 7.117408,44.215351,2337 7.117331,44.215390,2339 7.117266,44.215414,2340 7.117153,44.215487,2341 7.117040,44.215533,2341 7.116972,44.215556,2344 7.116884,44.215661,2345 7.116862,44.215729,2346 7.116840,44.215758,2347 7.116786,44.215771,2347 7.116670,44.215819,2348 7.116606,44.215975,2349 7.116561,44.216070,2350 7.116472,44.216164,2347 7.116304,44.216262,2346 7.116239,44.216302,2345 7.116189,44.216333,2343 7.116139,44.216340,2341 7.116050,44.216382,2339 7.115911,44.216481,2339 7.115726,44.216582,2340 7.115532,44.216659,2338 7.115466,44.216675,2337 7.115363,44.216694,2334 7.115272,44.216715,2332 7.115202,44.216727,2331 7.115121,44.216768,2329 7.115046,44.216832,2326 7.115008,44.216847,2325 7.114918,44.216879,2323 7.114795,44.216948,2321 7.114598,44.217113,2321 7.114514,44.217174,2323 7.114459,44.217242,2324 7.114433,44.217284,2324 7.114394,44.217320,2325 7.114315,44.217360,2326 7.114296,44.217432,2326 7.114269,44.217464,2328 7.114192,44.217525,2330 7.114169,44.217564,2331 7.114119,44.217639,2332 7.114074,44.217668,2333 7.114043,44.217702,2334 7.113930,44.217734,2335 7.113821,44.217780,2335 7.113752,44.217823,2336 7.113651,44.217876,2338 7.113558,44.217923,2340 7.113467,44.217947,2341 7.113415,44.217960,2342 7.113394,44.217980,2343 7.113375,44.218019,2344 7.113318,44.218060,2345 7.113272,44.218068,2346 7.113210,44.218106,2348 7.113179,44.218144,2350 7.113154,44.218164,2351 7.113088,44.218203,2353 7.113069,44.218213,2354 7.113061,44.218203,2355 7.112982,44.218182,2357 7.112905,44.218180,2359 7.112838,44.218222,2360 7.112784,44.218254,2361 7.112730,44.218289,2363 7.112633,44.218323,2363 7.112529,44.218381,2364 7.112407,44.218406,2364 7.112395,44.218395,2365 7.112387,44.218378,2365 7.112443,44.218384,2366 7.112482,44.218416,2365 7.112485,44.218410,2365 7.112478,44.218407,2364 7.112464,44.218417,2366 7.112430,44.218394,2366 7.112394,44.218367,2366 7.112438,44.218366,2366 7.112393,44.218378,2366 7.112471,44.218412,2366 7.112478,44.218414,2365 7.112415,44.218420,2366 7.112407,44.218417,2367 7.112402,44.218428,2368 7.112407,44.218434,2368 7.112362,44.218460,2366 7.112308,44.218485,2365 7.112257,44.218527,2362 7.112188,44.218575,2360 7.112139,44.218607,2360 7.112082,44.218659,2358 7.112015,44.218694,2356 7.111971,44.218716,2355 7.111934,44.218743,2353 7.111880,44.218748,2351 7.111870,44.218780,2350 7.111867,44.218815,2349 7.111877,44.218886,2347 7.111876,44.218932,2346 7.111834,44.218938,2346 7.111811,44.218913,2345 7.111806,44.218940,2344 7.111803,44.218986,2342 7.111782,44.219018,2340 7.111700,44.219080,2338 7.111700,44.219125,2336 7.111661,44.219156,2335 7.111675,44.219189,2333 7.111654,44.219222,2332 7.111598,44.219260,2329 7.111566,44.219329,2329 7.111520,44.219361,2328 7.111505,44.219399,2326 7.111496,44.219463,2324 7.111467,44.219485,2323 7.111445,44.219426,2322 7.111432,44.219336,2321 7.111400,44.219262,2320 7.111381,44.219144,2319 7.111338,44.219059,2318 7.111330,44.219003,2316 7.111326,44.218982,2315 7.111306,44.219000,2315 7.111271,44.219027,2314 7.111237,44.219054,2312 7.111188,44.219083,2311 7.111159,44.219111,2310 7.111146,44.219142,2309 7.111124,44.219166,2307 7.111070,44.219198,2307 7.111012,44.219251,2304 7.110983,44.219304,2302 7.110920,44.219364,2301 7.110891,44.219394,2300 7.110866,44.219427,2299 7.110798,44.219473,2298 7.110711,44.219505,2296 7.110695,44.219547,2296 7.110673,44.219562,2295 7.110640,44.219602,2294 7.110579,44.219660,2292 7.110486,44.219733,2291 7.110369,44.219893,2292 7.110314,44.220000,2291 7.110300,44.220061,2290 7.110268,44.220081,2288 7.110242,44.220068,2287 7.110221,44.220121,2285 7.110197,44.220223,2284 7.110207,44.220284,2283 7.110219,44.220335,2281 7.110198,44.220377,2280 7.110151,44.220410,2278 7.110089,44.220467,2277 7.110144,44.220490,2275 7.110141,44.220560,2274 7.110101,44.220610,2272 7.110085,44.220592,2271 7.110119,44.220623,2271 7.110062,44.220661,2272 7.109964,44.220723,2272 7.110000,44.220706,2272 7.110001,44.220717,2272 7.109984,44.220729,2272 7.109962,44.220741,2270 7.109963,44.220741,2269 7.109933,44.220739,2268 7.109947,44.220787,2267 7.109885,44.220793,2265 7.109884,44.220815,2264 7.109888,44.220842,2263 7.109827,44.220847,2261 7.109819,44.220843,2261 7.109783,44.220837,2260 7.109771,44.220841,2258 7.109727,44.220836,2257 7.109730,44.220871,2256 7.109721,44.220867,2255 7.109715,44.220878,2254 7.109707,44.220895,2253 7.109707,44.220882,2252 7.109665,44.220881,2250 7.109663,44.220880,2250 7.109644,44.220892,2249 7.109619,44.220922,2248 7.109599,44.220947,2247 7.109589,44.220947,2245 7.109527,44.220945,2245 7.109508,44.220948,2246 7.109496,44.220948,2246 7.109478,44.220970,2247 7.109444,44.221003,2245 7.109382,44.220995,2244 7.109350,44.221006,2243 7.109334,44.221029,2242 7.109266,44.220984,2243 7.109237,44.220994,2244 7.109164,44.221014,2243 7.109118,44.221004,2244 7.109066,44.220975,2244 7.109069,44.220944,2244 7.109061,44.220952,2244 7.109027,44.220903,2244 7.109031,44.220864,2243 7.109017,44.220826,2244 7.108939,44.220844,2245 7.108856,44.220806,2244 7.108817,44.220808,2242 7.108673,44.220783,2242 7.108619,44.220777,2241 7.108535,44.220788,2240 7.108452,44.220783,2242 7.108420,44.220767,2242 7.108371,44.220683,2243 7.108359,44.220691,2245 7.108306,44.220686,2245 7.108281,44.220693,2246 7.108267,44.220709,2246 7.108142,44.220723,2247 7.108099,44.220709,2246 7.108086,44.220712,2245 7.108023,44.220726,2245 7.107907,44.220701,2244 7.107897,44.220686,2243 7.107845,44.220684,2244 7.107774,44.220668,2245 7.107742,44.220657,2247 7.107707,44.220637,2247 7.107636,44.220545,2246 7.107471,44.220451,2247 7.107412,44.220409,2245 7.107314,44.220368,2244 7.107186,44.220350,2244 7.107054,44.220341,2242 7.106961,44.220370,2243 7.106918,44.220294,2244 7.106872,44.220235,2245 7.106813,44.220172,2245 7.106785,44.220146,2246 7.106750,44.220085,2248 7.106724,44.220042,2249 7.106700,44.220008,2252 7.106554,44.219919,2252 7.106496,44.219876,2251 7.106471,44.219819,2253 7.106455,44.219783,2254 7.106457,44.219760,2255 7.106463,44.219773,2255 7.106473,44.219776,2254 7.106455,44.219788,2254 7.106469,44.219781,2254 7.106491,44.219761,2255 7.106469,44.219753,2255 7.106479,44.219754,2255 7.106457,44.219741,2255 7.106459,44.219731,2255 7.106485,44.219754,2255 7.106488,44.219766,2255 7.106468,44.219775,2256 7.106467,44.219787,2256 7.106459,44.219776,2256 7.106473,44.219750,2256 7.106468,44.219743,2256 7.106448,44.219757,2257 7.106450,44.219782,2257 7.106447,44.219804,2257 7.106473,44.219795,2257 7.106500,44.219802,2257 7.106496,44.219761,2257 7.106463,44.219752,2257 7.106462,44.219745,2257 7.106478,44.219732,2257 7.106473,44.219796,2257 7.106447,44.219778,2257 7.106469,44.219753,2257 7.106466,44.219763,2257 7.106466,44.219763,2257 7.106454,44.219715,2257 7.106457,44.219696,2257 7.106450,44.219742,2257 7.106449,44.219751,2257 7.106452,44.219765,2257 7.106450,44.219731,2257 7.106467,44.219727,2257 7.106450,44.219783,2257 7.106459,44.219778,2258 7.106502,44.219787,2258 7.106497,44.219784,2258 7.106473,44.219752,2258 7.106437,44.219738,2258 7.106434,44.219733,2258 7.106434,44.219734,2258 7.106429,44.219735,2258 7.106485,44.219655,2258 7.106497,44.219684,2258 7.106463,44.219738,2258 7.106461,44.219769,2258 7.106463,44.219690,2259 7.106462,44.219703,2259 7.106485,44.219716,2259 7.106458,44.219715,2259 7.106521,44.219682,2259 7.106428,44.219696,2257 7.106460,44.219765,2257 7.106477,44.219776,2257 7.106465,44.219766,2257 7.106472,44.219699,2257 7.106462,44.219710,2257 7.106454,44.219758,2257 7.106478,44.219758,2256 7.106458,44.219764,2256 7.106432,44.219755,2257 7.106485,44.219726,2257 7.106475,44.219770,2257 7.106471,44.219743,2257 7.106463,44.219742,2258 7.106451,44.219759,2258 7.106462,44.219752,2258 7.106472,44.219761,2258 7.106401,44.219733,2257 7.106440,44.219737,2257 7.106466,44.219744,2257 7.106471,44.219758,2257 7.106447,44.219786,2257 7.106460,44.219753,2257 7.106461,44.219780,2257 7.106474,44.219758,2257 7.106469,44.219761,2257 7.106475,44.219774,2258 7.106483,44.219772,2258 7.106467,44.219786,2258 7.106453,44.219765,2257 7.106491,44.219743,2258 7.106437,44.219770,2258 7.106455,44.219745,2258 7.106467,44.219753,2258 7.106487,44.219798,2257 7.106402,44.219878,2256 7.106284,44.219864,2257 7.106100,44.219975,2257 7.106017,44.220006,2258 7.105927,44.220039,2259 7.105874,44.220051,2259 7.105795,44.220123,2261 7.105753,44.220163,2262 7.105727,44.220201,2262 7.105680,44.220283,2263 7.105616,44.220348,2263 7.105554,44.220436,2264 7.105476,44.220470,2266 7.105446,44.220439,2267 7.105455,44.220379,2268 7.105473,44.220317,2269 7.105484,44.220273,2270 7.105514,44.220207,2271 7.105432,44.220155,2272 7.105397,44.220164,2272 7.105328,44.220271,2272 7.105305,44.220340,2273 7.105245,44.220386,2274 7.105219,44.220339,2274 7.105236,44.220253,2275 7.105262,44.220174,2277 7.105292,44.220094,2278 7.105323,44.219999,2279 7.105344,44.219921,2280 7.105353,44.219873,2281 7.105429,44.219762,2282 7.105487,44.219687,2283 7.105572,44.219615,2284 7.105577,44.219503,2285 7.105500,44.219517,2285 7.105436,44.219576,2286 7.105379,44.219649,2287 7.105227,44.219733,2288 7.105146,44.219791,2289 7.105059,44.219881,2290 7.104955,44.219965,2291 7.104928,44.219922,2292 7.105001,44.219862,2293 7.105067,44.219752,2293 7.105128,44.219670,2294 7.105196,44.219557,2295 7.105311,44.219480,2296 7.105236,44.219409,2297 7.105154,44.219483,2298 7.104966,44.219653,2298 7.104828,44.219785,2299 7.104709,44.219830,2300 7.104681,44.219748,2301 7.104669,44.219656,2302 7.104661,44.219604,2303 7.104688,44.219510,2304 7.104714,44.219459,2305 7.104723,44.219391,2306 7.104683,44.219327,2308 7.104613,44.219295,2309 7.104482,44.219323,2309 7.104287,44.219369,2312 7.104239,44.219386,2313 7.104129,44.219447,2314 7.104095,44.219558,2315 7.104109,44.219646,2316 7.104176,44.219781,2317 7.104200,44.219839,2318 7.104146,44.219877,2319 7.104056,44.219842,2320 7.104017,44.219819,2320 7.103961,44.219780,2321 7.103769,44.219727,2327 7.103750,44.219745,2330 7.103756,44.219853,2327 7.103822,44.219950,2328 7.103799,44.220070,2329 7.103738,44.220171,2330 7.103704,44.220229,2331 7.103736,44.220371,2332 7.103851,44.220569,2332 7.103855,44.220679,2334 7.103840,44.220819,2333 7.103741,44.220864,2333 7.103600,44.220829,2334 7.103468,44.220844,2335 7.103369,44.220886,2336 7.103220,44.220978,2335 7.103076,44.221067,2336 7.102936,44.221140,2337 7.102863,44.221175,2337 7.102826,44.221192,2337 7.102532,44.221164,2336 7.102349,44.221084,2335 7.102191,44.221197,2336 7.102161,44.221246,2337 7.102047,44.221349,2338 7.101869,44.221414,2338 7.101733,44.221456,2340 7.101520,44.221511,2342 7.101435,44.221521,2344 7.101367,44.221563,2345 7.101202,44.221684,2346 7.101069,44.221764,2346 7.100992,44.221879,2348 7.100970,44.222004,2348 7.100965,44.222118,2349 7.100966,44.222237,2349 7.100968,44.222338,2350 7.100986,44.222470,2351 7.100939,44.222490,2352 7.100917,44.222479,2352 7.100893,44.222372,2354 7.100887,44.222300,2355 7.100867,44.222256,2356 7.100800,44.222109,2357 7.100796,44.222052,2358 7.100783,44.221981,2359 7.100777,44.221903,2360 7.100763,44.221876,2361 7.100707,44.221888,2363 7.100648,44.222040,2363 7.100646,44.222152,2364 7.100605,44.222245,2364 7.100475,44.222223,2366 7.100402,44.222171,2364 7.100276,44.222099,2363 7.100174,44.222031,2361 7.100028,44.221957,2360 7.099968,44.221884,2359 7.099935,44.221823,2358 7.099866,44.221679,2357 7.099783,44.221572,2355 7.099725,44.221486,2355 7.099541,44.221408,2355 7.099450,44.221362,2354 7.099401,44.221323,2353 7.099326,44.221248,2352 7.099244,44.221171,2351 7.099131,44.221077,2350 7.098874,44.221019,2349 7.098712,44.221055,2349 7.098552,44.221091,2348 7.098440,44.221104,2348 7.098354,44.221123,2347 7.098250,44.221142,2346 7.098006,44.221158,2345 7.097843,44.221244,2345 7.097762,44.221302,2346 7.097689,44.221333,2347 7.097617,44.221375,2349 7.097421,44.221471,2349 7.097320,44.221488,2350 7.097213,44.221521,2351 7.097122,44.221568,2352 7.097072,44.221649,2354 7.097025,44.221721,2355 7.096965,44.221764,2356 7.096884,44.221799,2357 7.096778,44.221813,2357 7.096658,44.221876,2359 7.096495,44.221924,2360 7.096386,44.221909,2360 7.096261,44.221912,2361 7.096142,44.221935,2362 7.095998,44.221969,2364 7.095873,44.222016,2366 7.095769,44.222015,2367 7.095643,44.222028,2368 7.095551,44.222090,2369 7.095483,44.222156,2370 7.095421,44.222259,2371 7.095379,44.222306,2372 7.095350,44.222351,2373 7.095329,44.222386,2375 7.095259,44.222453,2376 7.095191,44.222486,2377 7.095093,44.222575,2378 7.095098,44.222649,2378 7.095120,44.222735,2379 7.095113,44.222825,2380 7.095112,44.222858,2380 7.095069,44.222929,2381 7.094982,44.223123,2382 7.094973,44.223197,2383 7.095027,44.223279,2383 7.095050,44.223360,2385 7.095071,44.223423,2386 7.095080,44.223529,2387 7.095065,44.223650,2387 7.095040,44.223763,2388 7.094875,44.223753,2389 7.094781,44.223584,2387 7.094761,44.223556,2387 7.094727,44.223496,2385 7.094678,44.223424,2384 7.094603,44.223328,2382 7.094601,44.223247,2381 7.094594,44.223129,2380 7.094527,44.223008,2380 7.094393,44.222865,2381 7.094329,44.222694,2382 7.094200,44.222575,2383 7.094126,44.222478,2383 7.094078,44.222329,2382 7.093930,44.222271,2384 7.093883,44.222283,2384 7.093773,44.222264,2386 7.093731,44.222207,2387 7.093679,44.222124,2387 7.093619,44.222050,2388 7.093443,44.221968,2389 7.093274,44.221972,2392 7.093174,44.221920,2393 7.093130,44.221886,2395 7.093105,44.221878,2394 7.092986,44.221830,2395 7.092908,44.221798,2396 7.092781,44.221795,2398 7.092722,44.221807,2400 7.092666,44.221804,2402 7.092621,44.221797,2403 7.092587,44.221777,2404 7.092574,44.221760,2406 7.092557,44.221738,2406 7.092575,44.221816,2406 7.092530,44.221799,2405 7.092515,44.221789,2405 7.092508,44.221789,2404 7.092527,44.221766,2405 7.092535,44.221783,2404 7.092495,44.221792,2404 7.092514,44.221786,2404 7.092546,44.221768,2403 7.092548,44.221776,2403 7.092502,44.221806,2403 7.092487,44.221825,2404 7.092475,44.221782,2405 7.092438,44.221779,2407 7.092418,44.221772,2408 7.092261,44.221717,2409 7.092162,44.221713,2410 7.092075,44.221704,2410 7.092030,44.221692,2410 7.091982,44.221692,2411 7.091957,44.221693,2413 7.091886,44.221681,2415 7.091776,44.221659,2414 7.091682,44.221667,2416 7.091634,44.221675,2418 7.091594,44.221673,2419 7.091496,44.221671,2419 7.091408,44.221706,2419 7.091291,44.221729,2420 7.091211,44.221763,2420 7.091135,44.221786,2421 7.091119,44.221797,2422 7.091059,44.221812,2423 7.091031,44.221823,2424 7.091017,44.221787,2426 7.090988,44.221734,2428 7.090956,44.221692,2429 7.090916,44.221690,2430 7.090882,44.221762,2429 7.090887,44.221793,2437 7.090846,44.221785,2435 7.090845,44.221795,2434 7.090860,44.221781,2433 7.090874,44.221754,2434 7.090912,44.221785,2433 7.090878,44.221746,2434 7.090904,44.221753,2432 7.090901,44.221761,2432 7.090884,44.221766,2434 7.090875,44.221751,2433 7.090903,44.221759,2434 7.090865,44.221770,2434 7.090866,44.221732,2435 7.090884,44.221770,2434 7.090906,44.221797,2431 7.090874,44.221811,2432 7.090867,44.221809,2436 7.090868,44.221810,2435 7.090889,44.221794,2433 7.090844,44.221745,2431 7.090812,44.221748,2429 7.090776,44.221772,2428 7.090731,44.221742,2428 7.090742,44.221716,2427 7.090729,44.221651,2424 7.090712,44.221636,2422 7.090693,44.221639,2420 7.090619,44.221677,2418 7.090595,44.221708,2417 7.090544,44.221731,2416 7.090506,44.221740,2415 7.090463,44.221756,2413 7.090418,44.221789,2412 7.090326,44.221819,2411 7.090281,44.221884,2410 7.090229,44.221935,2409 7.090187,44.221952,2408 7.090151,44.221971,2407 7.090119,44.222002,2405 7.090045,44.222045,2404 7.090020,44.222056,2403 7.089973,44.222061,2400 7.089924,44.222073,2399 7.089872,44.222089,2398 7.089768,44.222134,2395 7.089706,44.222157,2394 7.089577,44.222213,2392 7.089368,44.222250,2392 7.089240,44.222292,2393 7.089158,44.222323,2394 7.089083,44.222363,2395 7.089005,44.222380,2396 7.088887,44.222429,2397 7.088721,44.222534,2397 7.088646,44.222600,2398 7.088524,44.222650,2399 7.088426,44.222668,2401 7.088330,44.222720,2401 7.088212,44.222810,2400 7.088167,44.222828,2399 7.088064,44.222842,2398 7.087996,44.222844,2398 7.087968,44.222843,2399 7.087928,44.222851,2399 7.087789,44.222925,2398 7.087785,44.222983,2397 7.087770,44.223028,2395 7.087750,44.223077,2393 7.087680,44.223121,2392 7.087603,44.223155,2391 7.087570,44.223224,2389 7.087587,44.223279,2388 7.087604,44.223364,2386 7.087661,44.223386,2385 7.087664,44.223398,2384 7.087649,44.223437,2383 7.087685,44.223475,2381 7.087709,44.223494,2380 7.087689,44.223500,2378 7.087642,44.223532,2377 7.087711,44.223580,2377 7.087742,44.223608,2376 7.087717,44.223632,2374 7.087693,44.223667,2373 7.087657,44.223714,2371 7.087634,44.223741,2369 7.087603,44.223739,2368 7.087560,44.223745,2367 7.087516,44.223788,2366 7.087461,44.223800,2365 7.087454,44.223788,2365 7.087445,44.223868,2364 7.087451,44.223893,2362 7.087409,44.223913,2361 7.087348,44.223924,2360 7.087376,44.223911,2360 7.087357,44.223952,2362 7.087366,44.224006,2358 7.087392,44.224004,2359 7.087420,44.224009,2359 7.087424,44.223997,2358 7.087442,44.223954,2358 7.087391,44.223996,2360 7.087447,44.224046,2359</coordinates></LineString></Placemark></Document></kml>