<?xml version="1.0" encoding="UTF-8"?>
<kml xmlns="http://www.opengis.net/kml/2.2"><Document><name>Alta Linea Continua – Stage 12: Lac Chaffour to Refuge des Lacs de Vens</name><Style id="l"><LineStyle><color>ff2b30c4</color><width>4</width></LineStyle></Style><Placemark><name>Alta Linea Continua – Stage 12: Lac Chaffour to Refuge des Lacs de Vens</name><styleUrl>#l</styleUrl><LineString><tessellate>1</tessellate><altitudeMode>clampToGround</altitudeMode><coordinates>6.988135,44.278729,2639 6.988106,44.278800,2639 6.988100,44.278841,2640 6.987992,44.278842,2640 6.987963,44.278825,2641 6.987909,44.278806,2641 6.987856,44.278794,2643 6.987820,44.278818,2644 6.987787,44.278839,2644 6.987763,44.278864,2645 6.987752,44.278895,2646 6.987684,44.278892,2648 6.987609,44.278891,2649 6.987593,44.278924,2651 6.987579,44.278949,2651 6.987583,44.278946,2651 6.987576,44.278950,2651 6.987537,44.278934,2651 6.987550,44.278902,2652 6.987538,44.278917,2652 6.987567,44.278902,2651 6.987597,44.278884,2650 6.987596,44.278886,2650 6.987636,44.278871,2650 6.987606,44.278838,2648 6.987531,44.278871,2648 6.987494,44.278896,2647 6.987463,44.278917,2646 6.987419,44.278929,2645 6.987365,44.278957,2644 6.987336,44.278969,2643 6.987314,44.278970,2643 6.987277,44.278972,2641 6.987235,44.278982,2640 6.987174,44.279043,2640 6.987141,44.279080,2638 6.987148,44.279163,2638 6.987155,44.279287,2637 6.987182,44.279322,2637 6.987251,44.279403,2638 6.987328,44.279531,2639 6.987377,44.279549,2640 6.987420,44.279622,2640 6.987547,44.279705,2642 6.987562,44.279728,2642 6.987560,44.279714,2643 6.987548,44.279727,2644 6.987547,44.279751,2645 6.987531,44.279792,2646 6.987551,44.279854,2647 6.987498,44.279959,2646 6.987457,44.279993,2647 6.987397,44.280028,2646 6.987286,44.280105,2646 6.987287,44.280124,2645 6.987205,44.280192,2646 6.987173,44.280251,2647 6.987179,44.280328,2648 6.987154,44.280418,2649 6.987122,44.280477,2651 6.987125,44.280510,2652 6.987128,44.280544,2652 6.987139,44.280609,2653 6.987097,44.280628,2654 6.987117,44.280701,2655 6.987104,44.280734,2656 6.987070,44.280804,2658 6.987068,44.280858,2659 6.987049,44.280949,2660 6.987008,44.280987,2662 6.986966,44.281026,2663 6.986905,44.281059,2664 6.986823,44.281050,2665 6.986849,44.281105,2665 6.986795,44.281150,2666 6.986809,44.281156,2666 6.986840,44.281143,2666 6.986816,44.281140,2666 6.986766,44.281138,2665 6.986762,44.281122,2666 6.986825,44.281143,2665 6.986699,44.281159,2667 6.986690,44.281193,2668 6.986650,44.281212,2669 6.986601,44.281200,2670 6.986587,44.281220,2672 6.986570,44.281249,2673 6.986555,44.281298,2674 6.986506,44.281320,2676 6.986516,44.281328,2677 6.986517,44.281344,2678 6.986496,44.281383,2679 6.986461,44.281387,2681 6.986409,44.281395,2682 6.986387,44.281407,2683 6.986377,44.281415,2684 6.986360,44.281421,2684 6.986349,44.281419,2685 6.986292,44.281412,2686 6.986243,44.281403,2687 6.986239,44.281429,2688 6.986222,44.281470,2690 6.986235,44.281484,2690 6.986214,44.281484,2691 6.986240,44.281515,2693 6.986212,44.281551,2694 6.986234,44.281591,2695 6.986232,44.281604,2696 6.986247,44.281624,2698 6.986244,44.281621,2699 6.986225,44.281619,2700 6.986219,44.281632,2700 6.986231,44.281649,2702 6.986206,44.281658,2703 6.986177,44.281670,2704 6.986214,44.281686,2705 6.986206,44.281723,2705 6.986177,44.281739,2707 6.986159,44.281765,2708 6.986179,44.281771,2708 6.986206,44.281788,2708 6.986221,44.281779,2708 6.986225,44.281790,2709 6.986219,44.281786,2710 6.986192,44.281784,2710 6.986254,44.281797,2710 6.986216,44.281793,2711 6.986172,44.281812,2712 6.986149,44.281812,2713 6.986174,44.281800,2714 6.986097,44.281824,2716 6.986047,44.281842,2717 6.986014,44.281859,2718 6.986014,44.281863,2718 6.985935,44.281841,2717 6.985962,44.281886,2718 6.985988,44.281886,2718 6.985948,44.281874,2717 6.985867,44.281920,2719 6.985836,44.281919,2720 6.985801,44.281964,2721 6.985796,44.281971,2722 6.985778,44.281974,2722 6.985767,44.282014,2724 6.985762,44.282039,2725 6.985730,44.282050,2726 6.985707,44.282079,2728 6.985687,44.282069,2729 6.985654,44.282091,2730 6.985671,44.282120,2731 6.985689,44.282134,2732 6.985671,44.282143,2733 6.985645,44.282135,2735 6.985569,44.282137,2736 6.985559,44.282161,2737 6.985519,44.282178,2739 6.985499,44.282185,2740 6.985559,44.282229,2741 6.985538,44.282234,2742 6.985504,44.282222,2743 6.985468,44.282223,2744 6.985452,44.282244,2745 6.985407,44.282270,2746 6.985406,44.282278,2747 6.985364,44.282297,2749 6.985349,44.282334,2750 6.985358,44.282342,2751 6.985381,44.282379,2752 6.985355,44.282379,2753 6.985299,44.282407,2755 6.985238,44.282411,2756 6.985185,44.282415,2757 6.985181,44.282428,2757 6.985205,44.282472,2759 6.985257,44.282487,2760 6.985266,44.282489,2761 6.985214,44.282500,2762 6.985122,44.282563,2764 6.985106,44.282584,2764 6.985095,44.282594,2765 6.985073,44.282602,2766 6.985009,44.282620,2767 6.985008,44.282632,2768 6.984915,44.282657,2770 6.984896,44.282694,2771 6.984821,44.282683,2771 6.984762,44.282687,2771 6.984772,44.282739,2773 6.984762,44.282778,2773 6.984756,44.282843,2776 6.984757,44.282845,2777 6.984705,44.282872,2778 6.984650,44.282901,2779 6.984598,44.282921,2780 6.984592,44.282933,2781 6.984550,44.282961,2781 6.984516,44.282994,2782 6.984496,44.282989,2782 6.984414,44.282989,2783 6.984419,44.283006,2783 6.984367,44.283042,2784 6.984340,44.283058,2785 6.984321,44.283085,2785 6.984304,44.283121,2787 6.984326,44.283154,2787 6.984325,44.283127,2787 6.984302,44.283114,2786 6.984264,44.283138,2784 6.984185,44.283142,2785 6.984113,44.283189,2785 6.984072,44.283195,2786 6.984021,44.283230,2786 6.983985,44.283277,2786 6.983927,44.283298,2787 6.983836,44.283327,2787 6.983826,44.283370,2788 6.983784,44.283378,2789 6.983660,44.283415,2790 6.983634,44.283455,2791 6.983579,44.283479,2792 6.983492,44.283512,2792 6.983392,44.283571,2791 6.983350,44.283589,2790 6.983293,44.283658,2789 6.983288,44.283688,2788 6.983242,44.283730,2787 6.983174,44.283739,2787 6.983148,44.283844,2787 6.983136,44.283854,2788 6.983109,44.283877,2789 6.983115,44.283918,2789 6.983093,44.283926,2789 6.983038,44.283955,2788 6.982977,44.283998,2788 6.982953,44.283973,2789 6.982867,44.284031,2790 6.982897,44.284063,2791 6.982789,44.284037,2791 6.982764,44.284053,2791 6.982795,44.284172,2791 6.982697,44.284164,2791 6.982657,44.284219,2791 6.982657,44.284203,2792 6.982626,44.284224,2792 6.982556,44.284248,2793 6.982558,44.284280,2794 6.982512,44.284306,2796 6.982516,44.284312,2796 6.982487,44.284333,2797 6.982442,44.284327,2798 6.982428,44.284317,2799 6.982446,44.284339,2800 6.982389,44.284320,2801 6.982380,44.284318,2801 6.982390,44.284378,2802 6.982372,44.284362,2803 6.982290,44.284395,2803 6.982278,44.284404,2802 6.982245,44.284399,2802 6.982205,44.284408,2802 6.982187,44.284460,2803 6.982120,44.284498,2804 6.982046,44.284475,2805 6.982002,44.284530,2807 6.981988,44.284540,2807 6.981957,44.284552,2808 6.981881,44.284558,2808 6.981854,44.284561,2809 6.981870,44.284585,2809 6.981822,44.284556,2809 6.981781,44.284531,2809 6.981844,44.284590,2808 6.981853,44.284595,2808 6.981931,44.284649,2808 6.981866,44.284669,2807 6.981863,44.284654,2807 6.981852,44.284604,2807 6.981834,44.284581,2808 6.981921,44.284638,2808 6.981824,44.284561,2808 6.981812,44.284547,2808 6.981784,44.284523,2807 6.981799,44.284548,2807 6.981789,44.284532,2807 6.981844,44.284539,2808 6.981773,44.284528,2808 6.981781,44.284543,2808 6.981808,44.284577,2808 6.981848,44.284596,2808 6.981830,44.284592,2808 6.981910,44.284527,2808 6.981854,44.284495,2808 6.981875,44.284555,2808 6.981821,44.284589,2808 6.981841,44.284595,2807 6.981897,44.284623,2807 6.981934,44.284609,2806 6.981907,44.284577,2806 6.981875,44.284553,2806 6.981870,44.284586,2806 6.981851,44.284583,2806 6.981853,44.284603,2806 6.981959,44.284540,2806 6.981938,44.284560,2806 6.981801,44.284597,2806 6.981625,44.284687,2806 6.981614,44.284733,2808 6.981535,44.284754,2808 6.981418,44.284821,2809 6.981376,44.284908,2809 6.981290,44.284996,2810 6.981186,44.285021,2811 6.981154,44.285075,2812 6.981121,44.285124,2812 6.981055,44.285228,2812 6.980964,44.285271,2813 6.980889,44.285260,2815 6.980837,44.285304,2815 6.980829,44.285348,2816 6.980786,44.285383,2817 6.980704,44.285408,2820 6.980688,44.285432,2821 6.980680,44.285439,2821 6.980617,44.285481,2822 6.980597,44.285506,2823 6.980560,44.285545,2825 6.980511,44.285586,2826 6.980493,44.285598,2827 6.980415,44.285626,2828 6.980347,44.285650,2828 6.980277,44.285679,2829 6.980250,44.285682,2830 6.980197,44.285714,2832 6.980220,44.285736,2833 6.980138,44.285773,2834 6.980048,44.285752,2835 6.980039,44.285767,2836 6.980028,44.285804,2837 6.979981,44.285818,2838 6.979967,44.285805,2839 6.979907,44.285832,2840 6.979832,44.285849,2841 6.979788,44.285849,2842 6.979761,44.285861,2843 6.979758,44.285874,2844 6.979683,44.285900,2845 6.979612,44.285894,2846 6.979545,44.285888,2847 6.979503,44.285881,2848 6.979463,44.285880,2849 6.979424,44.285873,2850 6.979333,44.285873,2851 6.979318,44.285885,2853 6.979297,44.285891,2854 6.979237,44.285892,2855 6.979168,44.285910,2856 6.979184,44.285919,2857 6.979166,44.285939,2857 6.979128,44.285955,2858 6.979089,44.285968,2859 6.979028,44.285965,2860 6.979041,44.285970,2861 6.979011,44.285970,2862 6.978945,44.285998,2863 6.978928,44.286019,2864 6.978872,44.286020,2865 6.978848,44.286026,2865 6.978739,44.286044,2866 6.978628,44.286024,2866 6.978602,44.286007,2867 6.978518,44.286013,2867 6.978340,44.286020,2868 6.978183,44.285951,2868 6.978081,44.285909,2869 6.978002,44.285897,2870 6.977909,44.285853,2871 6.977826,44.285826,2872 6.977753,44.285811,2873 6.977719,44.285817,2874 6.977647,44.285784,2875 6.977589,44.285750,2876 6.977480,44.285735,2877 6.977531,44.285746,2877 6.977517,44.285702,2877 6.977522,44.285664,2877 6.977513,44.285649,2876 6.977390,44.285634,2877 6.977346,44.285636,2878 6.977299,44.285614,2879 6.977272,44.285595,2880 6.977184,44.285565,2881 6.977182,44.285567,2882 6.977161,44.285562,2883 6.977130,44.285573,2884 6.977087,44.285557,2884 6.977045,44.285546,2886 6.977025,44.285530,2887 6.976961,44.285496,2888 6.976914,44.285483,2888 6.976864,44.285477,2888 6.976832,44.285468,2889 6.976793,44.285434,2889 6.976730,44.285407,2890 6.976688,44.285393,2890 6.976635,44.285339,2891 6.976614,44.285393,2891 6.976582,44.285374,2892 6.976511,44.285322,2893 6.976489,44.285305,2894 6.976469,44.285297,2895 6.976391,44.285292,2897 6.976357,44.285230,2899 6.976258,44.285243,2901 6.976213,44.285208,2902 6.976173,44.285198,2903 6.976099,44.285186,2905 6.976076,44.285164,2906 6.976032,44.285143,2907 6.976004,44.285101,2908 6.975994,44.285108,2909 6.975981,44.285063,2910 6.975949,44.285062,2911 6.975875,44.285051,2912 6.975849,44.285046,2913 6.975864,44.285045,2913 6.975901,44.285021,2913 6.975820,44.284942,2914 6.975816,44.284943,2915 6.975771,44.284952,2916 6.975758,44.284951,2917 6.975731,44.284930,2919 6.975717,44.284854,2920 6.975667,44.284866,2921 6.975663,44.284893,2922 6.975659,44.284877,2923 6.975612,44.284858,2924 6.975595,44.284861,2925 6.975546,44.284837,2926 6.975542,44.284849,2928 6.975521,44.284817,2929 6.975512,44.284792,2930 6.975457,44.284766,2931 6.975404,44.284761,2933 6.975405,44.284766,2934 6.975396,44.284757,2935 6.975386,44.284747,2935 6.975394,44.284740,2936 6.975389,44.284704,2937 6.975372,44.284672,2938 6.975346,44.284653,2939 6.975317,44.284613,2940 6.975294,44.284613,2941 6.975276,44.284582,2942 6.975260,44.284566,2943 6.975266,44.284552,2944 6.975251,44.284510,2945 6.975227,44.284494,2946 6.975193,44.284487,2947 6.975144,44.284466,2948 6.975147,44.284436,2949 6.975150,44.284438,2950 6.975141,44.284389,2951 6.975116,44.284356,2952 6.975106,44.284326,2953 6.975101,44.284283,2954 6.975085,44.284274,2955 6.975076,44.284257,2955 6.975039,44.284251,2956 6.975057,44.284247,2958 6.975054,44.284236,2959 6.975035,44.284256,2960 6.975013,44.284225,2960 6.975008,44.284231,2961 6.974979,44.284244,2962 6.974969,44.284232,2962 6.974965,44.284222,2963 6.974964,44.284218,2964 6.974937,44.284202,2965 6.974900,44.284204,2967 6.974904,44.284204,2967 6.974892,44.284203,2967 6.974876,44.284197,2968 6.974866,44.284201,2969 6.974844,44.284224,2970 6.974811,44.284234,2971 6.974758,44.284242,2971 6.974736,44.284251,2972 6.974696,44.284278,2973 6.974669,44.284278,2974 6.974640,44.284287,2974 6.974635,44.284288,2975 6.974660,44.284282,2975 6.974613,44.284302,2976 6.974582,44.284274,2977 6.974590,44.284291,2977 6.974554,44.284299,2978 6.974553,44.284284,2978 6.974554,44.284290,2979 6.974557,44.284307,2979 6.974593,44.284263,2980 6.974608,44.284247,2980 6.974593,44.284240,2981 6.974570,44.284209,2982 6.974571,44.284170,2983 6.974565,44.284129,2984 6.974537,44.284129,2985 6.974523,44.284124,2986 6.974496,44.284088,2987 6.974478,44.284072,2987 6.974445,44.284071,2987 6.974399,44.284055,2985 6.974356,44.284050,2985 6.974348,44.284050,2985 6.974295,44.284040,2985 6.974270,44.284055,2986 6.974205,44.284066,2987 6.974129,44.284074,2988 6.974082,44.284072,2989 6.974048,44.284072,2990 6.973894,44.284068,2990 6.973859,44.284030,2988 6.973810,44.284001,2987 6.973735,44.283969,2987 6.973630,44.283994,2989 6.973496,44.284021,2989 6.973470,44.284026,2990 6.973428,44.284032,2988 6.973434,44.284017,2987 6.973365,44.284001,2988 6.973307,44.284008,2990 6.973280,44.284004,2991 6.973276,44.284000,2992 6.973209,44.283989,2994 6.973189,44.283989,2995 6.973189,44.283990,2995 6.973133,44.283980,2996 6.973046,44.283991,2997 6.972976,44.283967,2997 6.972932,44.283950,2998 6.972885,44.283929,2999 6.972872,44.283936,3000 6.972832,44.283936,3001 6.972773,44.283954,3003 6.972741,44.283954,3004 6.972688,44.283957,3005 6.972640,44.283951,3006 6.972619,44.283952,3006 6.972596,44.283961,3008 6.972559,44.283962,3009 6.972517,44.283964,3010 6.972467,44.283971,3011 6.972418,44.283966,3011 6.972354,44.283959,3013 6.972301,44.283938,3013 6.972286,44.283937,3014 6.972264,44.283931,3014 6.972255,44.283891,3014 6.972186,44.283909,3015 6.972179,44.283916,3015 6.972114,44.283911,3016 6.972084,44.283922,3015 6.972075,44.283924,3014 6.972008,44.283944,3013 6.971993,44.283940,3012 6.972007,44.283956,3011 6.972021,44.283970,3011 6.972024,44.283949,3011 6.971993,44.283951,3010 6.971949,44.283945,3009 6.971939,44.283948,3008 6.971949,44.283945,3008 6.971928,44.283941,3007 6.971872,44.283938,3007 6.971786,44.283942,3007 6.971801,44.283936,3007 6.971799,44.283927,3008 6.971776,44.283886,3009 6.971777,44.283810,3011 6.971750,44.283805,3012 6.971732,44.283807,3012 6.971719,44.283788,3013 6.971701,44.283776,3015 6.971703,44.283749,3016 6.971728,44.283708,3017 6.971726,44.283683,3018 6.971720,44.283643,3018 6.971739,44.283648,3018 6.971717,44.283609,3018 6.971702,44.283612,3018 6.971668,44.283602,3018 6.971669,44.283575,3018 6.971676,44.283571,3017 6.971672,44.283535,3017 6.971670,44.283567,3017 6.971646,44.283550,3017 6.971644,44.283546,3018 6.971654,44.283552,3018 6.971660,44.283565,3018 6.971657,44.283558,3018 6.971693,44.283620,3019 6.971700,44.283643,3019 6.971664,44.283683,3019 6.971664,44.283731,3019 6.971693,44.283718,3018 6.971677,44.283708,3019 6.971651,44.283710,3019 6.971689,44.283730,3019 6.971701,44.283731,3018 6.971675,44.283709,3018 6.971700,44.283767,3019 6.971687,44.283755,3019 6.971682,44.283725,3019 6.971726,44.283718,3019 6.971722,44.283717,3020 6.971717,44.283717,3020 6.971700,44.283718,3020 6.971681,44.283738,3019 6.971697,44.283731,3020 6.971692,44.283741,3019 6.971691,44.283746,3020 6.971690,44.283726,3020 6.971676,44.283746,3019 6.971674,44.283718,3020 6.971702,44.283717,3020 6.971679,44.283734,3019 6.971667,44.283734,3019 6.971650,44.283719,3020 6.971681,44.283720,3019 6.971689,44.283743,3020 6.971678,44.283740,3020 6.971683,44.283727,3020 6.971676,44.283726,3020 6.971686,44.283716,3020 6.971680,44.283704,3020 6.971687,44.283696,3020 6.971673,44.283693,3020 6.971691,44.283683,3021 6.971702,44.283671,3021 6.971694,44.283717,3021 6.971692,44.283729,3021 6.971688,44.283720,3021 6.971675,44.283718,3022 6.971696,44.283726,3022 6.971700,44.283737,3022 6.971677,44.283722,3022 6.971684,44.283717,3022 6.971691,44.283735,3022 6.971673,44.283712,3022 6.971653,44.283698,3022 6.971684,44.283724,3022 6.971672,44.283729,3022 6.971696,44.283713,3022 6.971682,44.283747,3022 6.971679,44.283729,3022 6.971687,44.283717,3022 6.971683,44.283722,3023 6.971636,44.283750,3022 6.971663,44.283691,3023 6.971674,44.283735,3023 6.971665,44.283716,3023 6.971688,44.283721,3023 6.971668,44.283724,3023 6.971693,44.283671,3023 6.971681,44.283729,3023 6.971689,44.283720,3023 6.971671,44.283712,3023 6.971684,44.283695,3024 6.971688,44.283726,3024 6.971691,44.283728,3024 6.971690,44.283693,3024 6.971697,44.283710,3024 6.971684,44.283707,3024 6.971676,44.283706,3024 6.971685,44.283739,3024 6.971692,44.283718,3024 6.971701,44.283704,3024 6.971689,44.283721,3024 6.971701,44.283725,3024 6.971675,44.283736,3024 6.971681,44.283713,3024 6.971675,44.283690,3025 6.971656,44.283705,3025 6.971656,44.283743,3025 6.971682,44.283738,3025 6.971665,44.283733,3025 6.971623,44.283739,3024 6.971602,44.283743,3024 6.971664,44.283697,3024 6.971679,44.283704,3024 6.971689,44.283724,3024 6.971666,44.283728,3024 6.971680,44.283708,3024 6.971686,44.283702,3025 6.971692,44.283703,3025 6.971702,44.283712,3025 6.971699,44.283724,3025 6.971702,44.283731,3026 6.971693,44.283719,3026 6.971674,44.283748,3026 6.971688,44.283710,3026 6.971688,44.283714,3026 6.971675,44.283723,3026 6.971667,44.283720,3026 6.971677,44.283718,3026 6.971695,44.283716,3026 6.971701,44.283720,3026 6.971689,44.283713,3026 6.971683,44.283694,3026 6.971682,44.283692,3027 6.971698,44.283706,3027 6.971694,44.283719,3027 6.971678,44.283746,3027 6.971691,44.283718,3027 6.971682,44.283714,3027 6.971695,44.283713,3027 6.971699,44.283714,3027 6.971695,44.283706,3028 6.971677,44.283724,3028 6.971696,44.283709,3028 6.971691,44.283730,3028 6.971669,44.283749,3029 6.971674,44.283743,3029 6.971678,44.283718,3029 6.971685,44.283717,3029 6.971691,44.283744,3029 6.971684,44.283736,3029 6.971693,44.283709,3029 6.971698,44.283723,3029 6.971683,44.283754,3029 6.971695,44.283714,3029 6.971696,44.283721,3029 6.971696,44.283732,3029 6.971712,44.283716,3030 6.971677,44.283704,3030 6.971676,44.283718,3029 6.971681,44.283728,3029 6.971692,44.283727,3029 6.971697,44.283730,3029 6.971697,44.283691,3029 6.971679,44.283716,3029 6.971704,44.283701,3029 6.971707,44.283721,3029 6.971690,44.283714,3029 6.971687,44.283714,3029 6.971688,44.283716,3029 6.971680,44.283718,3029 6.971676,44.283716,3029 6.971673,44.283721,3029 6.971677,44.283722,3029 6.971675,44.283726,3029 6.971696,44.283732,3030 6.971682,44.283730,3030 6.971685,44.283722,3029 6.971686,44.283720,3030 6.971674,44.283723,3030 6.971684,44.283722,3029 6.971686,44.283731,3030 6.971690,44.283724,3030 6.971679,44.283737,3030 6.971682,44.283731,3030 6.971688,44.283724,3030 6.971688,44.283724,3030 6.971678,44.283711,3030 6.971684,44.283717,3030 6.971693,44.283710,3030 6.971694,44.283708,3030 6.971690,44.283725,3030 6.971693,44.283723,3030 6.971694,44.283718,3030 6.971686,44.283727,3030 6.971695,44.283724,3030 6.971655,44.283727,3030 6.971688,44.283707,3030 6.971680,44.283741,3030 6.971688,44.283695,3030 6.971688,44.283712,3030 6.971660,44.283740,3030 6.971695,44.283728,3030 6.971647,44.283749,3030 6.971641,44.283736,3030 6.971656,44.283727,3030 6.971654,44.283711,3031 6.971666,44.283709,3030 6.971660,44.283724,3030 6.971675,44.283754,3030 6.971681,44.283720,3030 6.971679,44.283723,3029 6.971684,44.283725,3029 6.971688,44.283730,3029 6.971701,44.283705,3030 6.971691,44.283705,3030 6.971686,44.283721,3030 6.971685,44.283721,3030 6.971680,44.283721,3030 6.971687,44.283738,3030 6.971685,44.283718,3030 6.971699,44.283719,3030 6.971706,44.283705,3030 6.971699,44.283713,3030 6.971695,44.283714,3030 6.971703,44.283704,3030 6.971692,44.283731,3031 6.971692,44.283723,3031 6.971692,44.283703,3031 6.971676,44.283695,3031 6.971700,44.283740,3032 6.971688,44.283724,3032 6.971697,44.283702,3031 6.971703,44.283711,3033 6.971706,44.283725,3033 6.971702,44.283733,3033 6.971697,44.283706,3033 6.971693,44.283712,3032 6.971686,44.283723,3033 6.971699,44.283724,3033 6.971685,44.283708,3033 6.971680,44.283729,3033 6.971686,44.283732,3033 6.971686,44.283725,3033 6.971676,44.283722,3033 6.971714,44.283730,3033 6.971682,44.283729,3033 6.971688,44.283737,3033 6.971698,44.283724,3033 6.971667,44.283717,3033 6.971665,44.283714,3033 6.971669,44.283732,3033 6.971676,44.283732,3033 6.971665,44.283730,3033 6.971708,44.283693,3033 6.971672,44.283711,3033 6.971678,44.283729,3033 6.971691,44.283715,3033 6.971692,44.283733,3033 6.971722,44.283709,3034 6.971705,44.283679,3034 6.971694,44.283617,3034 6.971680,44.283579,3033 6.971661,44.283525,3033 6.971675,44.283462,3032 6.971669,44.283456,3032 6.971660,44.283467,3031 6.971657,44.283471,3030 6.971639,44.283465,3029 6.971616,44.283445,3028 6.971606,44.283421,3027 6.971591,44.283454,3026 6.971581,44.283458,3025 6.971570,44.283478,3024 6.971564,44.283488,3024 6.971556,44.283480,3024 6.971534,44.283493,3023 6.971522,44.283493,3022 6.971501,44.283501,3021 6.971480,44.283506,3020 6.971473,44.283516,3020 6.971473,44.283538,3019 6.971460,44.283519,3019 6.971443,44.283497,3017 6.971462,44.283504,3017 6.971445,44.283483,3017 6.971436,44.283464,3015 6.971397,44.283449,3015 6.971412,44.283432,3013 6.971417,44.283418,3012 6.971392,44.283442,3012 6.971376,44.283424,3012 6.971374,44.283410,3011 6.971350,44.283412,3009 6.971326,44.283410,3008 6.971321,44.283397,3007 6.971318,44.283406,3006 6.971285,44.283436,3006 6.971294,44.283420,3005 6.971282,44.283397,3004 6.971263,44.283406,3003 6.971245,44.283403,3001 6.971222,44.283424,3000 6.971200,44.283421,2998 6.971229,44.283406,2997 6.971199,44.283406,2995 6.971178,44.283403,2993 6.971165,44.283393,2992 6.971156,44.283378,2991 6.971148,44.283354,2989 6.971163,44.283355,2988 6.971164,44.283345,2987 6.971156,44.283335,2986 6.971165,44.283376,2985 6.971156,44.283369,2983 6.971126,44.283354,2981 6.971116,44.283339,2980 6.971121,44.283332,2979 6.971085,44.283323,2978 6.971106,44.283346,2977 6.971080,44.283332,2976 6.971050,44.283335,2975 6.971088,44.283314,2973 6.971069,44.283315,2973 6.971057,44.283320,2972 6.971061,44.283335,2971 6.971021,44.283305,2971 6.971016,44.283327,2970 6.970983,44.283321,2969 6.970963,44.283298,2967 6.970931,44.283303,2966 6.970908,44.283340,2965 6.970891,44.283339,2964 6.970876,44.283322,2963 6.970870,44.283326,2962 6.970843,44.283307,2960 6.970852,44.283278,2960 6.970835,44.283272,2959 6.970829,44.283245,2958 6.970827,44.283267,2958 6.970840,44.283276,2957 6.970826,44.283273,2956 6.970768,44.283259,2955 6.970747,44.283248,2954 6.970703,44.283250,2953 6.970694,44.283230,2952 6.970654,44.283221,2951 6.970682,44.283240,2951 6.970577,44.283283,2951 6.970560,44.283292,2951 6.970578,44.283293,2951 6.970583,44.283320,2950 6.970541,44.283340,2950 6.970474,44.283336,2949 6.970443,44.283355,2948 6.970456,44.283373,2947 6.970401,44.283382,2946 6.970420,44.283345,2944 6.970400,44.283363,2943 6.970385,44.283332,2942 6.970377,44.283312,2941 6.970374,44.283301,2940 6.970367,44.283295,2939 6.970352,44.283305,2937 6.970337,44.283320,2937 6.970336,44.283324,2936 6.970284,44.283317,2935 6.970296,44.283326,2933 6.970235,44.283311,2932 6.970251,44.283282,2931 6.970246,44.283265,2930 6.970260,44.283280,2929 6.970204,44.283293,2928 6.970174,44.283278,2927 6.970169,44.283292,2926 6.970164,44.283301,2925 6.970121,44.283315,2924 6.970075,44.283335,2922 6.970069,44.283338,2921 6.970034,44.283321,2920 6.970047,44.283303,2920 6.970081,44.283322,2919 6.970100,44.283327,2918 6.970065,44.283296,2917 6.970092,44.283319,2916 6.970083,44.283256,2916 6.970044,44.283254,2915 6.969999,44.283245,2914 6.969976,44.283233,2913 6.969943,44.283225,2912 6.969881,44.283220,2910 6.969853,44.283217,2909 6.969812,44.283205,2908 6.969805,44.283245,2906 6.969763,44.283244,2905 6.969734,44.283237,2904 6.969693,44.283236,2903 6.969627,44.283232,2901 6.969587,44.283240,2901 6.969566,44.283242,2899 6.969550,44.283256,2899 6.969499,44.283283,2897 6.969468,44.283289,2896 6.969441,44.283271,2895 6.969387,44.283251,2894 6.969316,44.283210,2895 6.969242,44.283230,2895 6.969202,44.283215,2894 6.969184,44.283208,2894 6.969159,44.283185,2893 6.969161,44.283168,2892 6.969150,44.283166,2891 6.969153,44.283166,2890 6.969134,44.283175,2889 6.969125,44.283181,2887 6.969093,44.283184,2886 6.969016,44.283167,2884 6.969029,44.283147,2883 6.969034,44.283132,2882 6.969045,44.283127,2881 6.969035,44.283129,2880 6.969030,44.283135,2879 6.969018,44.283146,2879 6.968992,44.283138,2877 6.968956,44.283114,2876 6.968929,44.283092,2875 6.968929,44.283074,2874 6.968899,44.283053,2873 6.968886,44.283071,2872 6.968857,44.283092,2871 6.968840,44.283086,2870 6.968833,44.283061,2869 6.968809,44.283045,2868 6.968750,44.283079,2866 6.968747,44.283067,2865 6.968733,44.283064,2864 6.968692,44.283041,2863 6.968680,44.282990,2862 6.968679,44.282967,2861 6.968692,44.282951,2860 6.968689,44.282967,2859 6.968721,44.282956,2859 6.968682,44.282939,2859 6.968733,44.282927,2858 6.968747,44.282951,2858 6.968727,44.282921,2858 6.968716,44.282915,2858 6.968695,44.282928,2859 6.968714,44.282935,2858 6.968712,44.282945,2859 6.968688,44.282912,2859 6.968699,44.282936,2859 6.968666,44.282911,2859 6.968703,44.282942,2859 6.968694,44.282934,2859 6.968679,44.282930,2859 6.968688,44.282946,2859 6.968693,44.282971,2859 6.968639,44.282969,2858 6.968599,44.282940,2857 6.968578,44.282969,2856 6.968515,44.283024,2855 6.968448,44.283026,2853 6.968405,44.283014,2852 6.968369,44.283021,2851 6.968323,44.283016,2850 6.968289,44.283040,2849 6.968272,44.283103,2849 6.968196,44.283185,2848 6.968115,44.283252,2847 6.968066,44.283293,2846 6.968029,44.283337,2845 6.967968,44.283351,2844 6.967929,44.283407,2843 6.967915,44.283449,2842 6.967851,44.283561,2842 6.967806,44.283591,2841 6.967784,44.283601,2840 6.967758,44.283637,2839 6.967693,44.283693,2838 6.967661,44.283704,2837 6.967637,44.283722,2836 6.967587,44.283724,2835 6.967543,44.283745,2833 6.967520,44.283765,2832 6.967511,44.283769,2831 6.967483,44.283788,2829 6.967425,44.283821,2828 6.967388,44.283837,2827 6.967322,44.283875,2826 6.967324,44.283868,2825 6.967364,44.283876,2825 6.967329,44.283884,2825 6.967335,44.283860,2824 6.967342,44.283878,2823 6.967279,44.283917,2822 6.967244,44.283928,2821 6.967202,44.283957,2820 6.967203,44.283973,2819 6.967190,44.283986,2817 6.967164,44.284021,2816 6.967177,44.284027,2815 6.967144,44.284053,2814 6.967137,44.284081,2813 6.967122,44.284109,2812 6.967028,44.284151,2810 6.967000,44.284154,2809 6.966980,44.284186,2808 6.966998,44.284208,2806 6.967021,44.284224,2805 6.966992,44.284247,2805 6.966973,44.284264,2804 6.966936,44.284286,2802 6.966872,44.284299,2800 6.966858,44.284329,2798 6.966851,44.284354,2796 6.966787,44.284374,2795 6.966787,44.284373,2793 6.966740,44.284387,2792 6.966690,44.284425,2791 6.966545,44.284431,2789 6.966474,44.284392,2789 6.966422,44.284389,2788 6.966378,44.284397,2787 6.966342,44.284377,2785 6.966349,44.284346,2784 6.966389,44.284274,2784 6.966328,44.284335,2782 6.966270,44.284348,2781 6.966245,44.284350,2780 6.966231,44.284369,2779 6.966209,44.284355,2778 6.966183,44.284354,2777 6.966146,44.284310,2776 6.966082,44.284264,2776 6.966005,44.284292,2776 6.965956,44.284261,2774 6.965941,44.284281,2773 6.965893,44.284277,2771 6.965873,44.284292,2770 6.965844,44.284302,2769 6.965759,44.284277,2767 6.965710,44.284320,2766 6.965710,44.284332,2766 6.965705,44.284379,2767 6.965690,44.284347,2767 6.965644,44.284289,2767 6.965465,44.284136,2768 6.965428,44.284150,2768 6.965457,44.284149,2768 6.965464,44.284114,2768 6.965476,44.284122,2768 6.965650,44.284274,2768 6.965628,44.284308,2767 6.965600,44.284331,2766 6.965562,44.284355,2764 6.965504,44.284361,2763 6.965501,44.284363,2763 6.965488,44.284378,2762 6.965434,44.284385,2761 6.965422,44.284401,2760 6.965402,44.284342,2759 6.965379,44.284347,2758 6.965313,44.284343,2757 6.965291,44.284339,2757 6.965287,44.284338,2756 6.965246,44.284333,2755 6.965202,44.284310,2754 6.965200,44.284305,2753 6.965206,44.284295,2752 6.965148,44.284302,2752 6.965132,44.284304,2751 6.965060,44.284260,2750 6.964986,44.284234,2750 6.964936,44.284238,2749 6.964888,44.284236,2748 6.964861,44.284237,2747 6.964841,44.284253,2746 6.964858,44.284265,2745 6.964804,44.284259,2744 6.964775,44.284267,2743 6.964747,44.284249,2741 6.964741,44.284256,2740 6.964672,44.284301,2739 6.964610,44.284337,2738 6.964570,44.284348,2737 6.964553,44.284356,2736 6.964508,44.284326,2734 6.964480,44.284332,2733 6.964468,44.284349,2732 6.964457,44.284365,2732 6.964446,44.284351,2731 6.964418,44.284340,2731 6.964369,44.284340,2730 6.964293,44.284334,2729 6.964233,44.284316,2727 6.964218,44.284282,2726 6.964251,44.284262,2725 6.964244,44.284265,2723 6.964217,44.284252,2722 6.964164,44.284253,2721 6.964086,44.284227,2718 6.964069,44.284230,2717 6.964050,44.284209,2715 6.964039,44.284209,2714 6.963995,44.284156,2713 6.964048,44.284145,2712 6.964049,44.284131,2711 6.964051,44.284100,2710 6.964054,44.284092,2707 6.964062,44.284093,2706 6.963975,44.284077,2704 6.963985,44.284055,2703 6.963987,44.284050,2702 6.963976,44.284015,2701 6.963990,44.284027,2700 6.963898,44.284054,2697 6.963859,44.284065,2697 6.963821,44.284070,2696 6.963747,44.284024,2695 6.963733,44.284007,2694 6.963685,44.284042,2692 6.963655,44.284048,2691 6.963648,44.284053,2690 6.963633,44.284048,2689 6.963600,44.284007,2687 6.963567,44.284017,2685 6.963526,44.284033,2684 6.963423,44.283988,2683 6.963388,44.283977,2682 6.963358,44.283979,2681 6.963303,44.283948,2680 6.963360,44.283907,2678 6.963321,44.283914,2677 6.963290,44.283916,2676 6.963225,44.283903,2675 6.963223,44.283885,2674 6.963222,44.283886,2673 6.963187,44.283890,2671 6.963175,44.283855,2670 6.963137,44.283857,2668 6.963061,44.283836,2667 6.963055,44.283813,2666 6.963067,44.283827,2665 6.963024,44.283857,2663 6.962946,44.283849,2662 6.962853,44.283831,2660 6.962807,44.283825,2659 6.962767,44.283788,2658 6.962791,44.283787,2657 6.962775,44.283803,2656 6.962763,44.283802,2655 6.962673,44.283791,2653 6.962675,44.283809,2652 6.962652,44.283833,2650 6.962602,44.283837,2649 6.962571,44.283826,2647 6.962536,44.283821,2646 6.962500,44.283833,2645 6.962442,44.283830,2643 6.962394,44.283806,2641 6.962369,44.283846,2639 6.962384,44.283874,2638 6.962392,44.283910,2637 6.962381,44.283950,2635 6.962377,44.283965,2635 6.962373,44.284002,2633 6.962398,44.284001,2633 6.962372,44.284009,2632 6.962364,44.284013,2632 6.962360,44.284007,2632 6.962329,44.284031,2632 6.962349,44.284039,2630 6.962313,44.284027,2629 6.962286,44.283981,2628 6.962296,44.283973,2627 6.962255,44.283994,2625 6.962193,44.284012,2624 6.962194,44.284010,2622 6.962255,44.284020,2621 6.962249,44.284061,2619 6.962246,44.284072,2618 6.962246,44.284132,2617 6.962284,44.284120,2616 6.962293,44.284143,2614 6.962255,44.284143,2613 6.962208,44.284170,2611 6.962165,44.284198,2610 6.962129,44.284195,2610 6.962083,44.284169,2609 6.962056,44.284154,2608 6.962013,44.284132,2607 6.961992,44.284117,2606 6.961999,44.284117,2605 6.962029,44.284120,2604 6.962065,44.284153,2603 6.962076,44.284199,2601 6.962063,44.284202,2600 6.962004,44.284196,2600 6.961998,44.284171,2599 6.962039,44.284186,2597 6.962046,44.284249,2595 6.962072,44.284236,2594 6.962040,44.284259,2593 6.962048,44.284265,2592 6.962068,44.284280,2591 6.962057,44.284308,2590 6.962003,44.284297,2588 6.961954,44.284323,2587 6.961965,44.284333,2586 6.961977,44.284336,2584 6.961979,44.284379,2583 6.962010,44.284410,2581 6.962024,44.284485,2580 6.962022,44.284539,2579 6.962013,44.284578,2578 6.962014,44.284597,2577 6.962006,44.284635,2575 6.961999,44.284639,2574 6.961959,44.284638,2573 6.961881,44.284664,2572 6.961871,44.284654,2571 6.961835,44.284665,2570 6.961774,44.284667,2569 6.961764,44.284636,2568 6.961745,44.284600,2566 6.961727,44.284536,2565 6.961724,44.284496,2564 6.961692,44.284584,2562 6.961648,44.284557,2561 6.961603,44.284511,2560 6.961579,44.284475,2560 6.961616,44.284499,2559 6.961552,44.284471,2558 6.961512,44.284425,2557 6.961480,44.284391,2555 6.961473,44.284405,2554 6.961466,44.284386,2553 6.961578,44.284392,2552 6.961595,44.284410,2551 6.961609,44.284419,2550 6.961560,44.284449,2549 6.961497,44.284474,2547 6.961438,44.284440,2546 6.961421,44.284401,2545 6.961405,44.284362,2544 6.961383,44.284320,2543 6.961405,44.284296,2542 6.961441,44.284301,2541 6.961432,44.284311,2539 6.961403,44.284306,2538 6.961393,44.284334,2537 6.961360,44.284311,2536 6.961332,44.284277,2536 6.961300,44.284277,2535 6.961262,44.284283,2535 6.961184,44.284273,2534 6.961183,44.284300,2533 6.961165,44.284315,2531 6.961085,44.284314,2530 6.961027,44.284301,2529 6.960959,44.284250,2528 6.960860,44.284153,2527 6.960852,44.284141,2526 6.960804,44.284123,2525 6.960845,44.284124,2524 6.960863,44.284138,2522 6.960820,44.284137,2522 6.960851,44.284147,2522 6.960760,44.284111,2522 6.960725,44.284111,2522 6.960825,44.284161,2521 6.960714,44.284108,2523 6.960744,44.284113,2523 6.960728,44.284091,2523 6.960782,44.284117,2523 6.960857,44.284178,2523 6.960792,44.284124,2523 6.960829,44.284097,2524 6.960795,44.284078,2524 6.960786,44.284087,2524 6.960765,44.284063,2524 6.960739,44.284111,2524 6.960736,44.284107,2524 6.960765,44.284088,2524 6.960798,44.284120,2524 6.960793,44.284079,2524 6.960803,44.284121,2525 6.960796,44.284123,2525 6.960817,44.284163,2525 6.960765,44.284096,2525 6.960770,44.284107,2526 6.960776,44.284117,2526 6.960823,44.284148,2525 6.960792,44.284154,2525 6.960792,44.284134,2525 6.960768,44.284119,2525 6.960748,44.284071,2525 6.960815,44.284092,2525 6.960844,44.284098,2526 6.960816,44.284083,2526 6.960835,44.284108,2526 6.960823,44.284123,2526 6.960790,44.284111,2527 6.960817,44.284091,2527 6.960813,44.284092,2527 6.960832,44.284091,2527 6.960836,44.284074,2527 6.960839,44.284039,2527 6.960795,44.284107,2527 6.960772,44.284096,2527 6.960813,44.284144,2527 6.960844,44.284149,2527 6.960844,44.284099,2527 6.960800,44.284131,2527 6.960795,44.284133,2527 6.960873,44.284114,2527 6.960899,44.284105,2527 6.960800,44.284131,2527 6.960882,44.284174,2527 6.960854,44.284222,2527 6.960863,44.284177,2527 6.960889,44.284210,2526 6.960870,44.284181,2526 6.960835,44.284130,2526 6.960790,44.284162,2526 6.960938,44.284260,2527 6.961005,44.284318,2527 6.960942,44.284304,2527 6.960908,44.284291,2527 6.960877,44.284273,2527 6.960871,44.284190,2528 6.960824,44.284151,2528 6.960813,44.284140,2528 6.960810,44.284121,2528 6.960805,44.284103,2528 6.960836,44.284129,2528 6.960945,44.284148,2527 6.960935,44.284137,2527 6.960832,44.284156,2527 6.960828,44.284169,2527 6.960949,44.284171,2526 6.960949,44.284164,2527 6.960909,44.284164,2527 6.960919,44.284115,2527 6.960944,44.284102,2527 6.960898,44.284124,2527 6.960827,44.284144,2527 6.960739,44.284189,2527 6.960725,44.284159,2527 6.960744,44.284145,2527 6.960751,44.284129,2527 6.960710,44.284116,2527 6.960779,44.284154,2526 6.960811,44.284150,2526 6.960919,44.284136,2526 6.960870,44.284109,2527 6.960872,44.284081,2527 6.960901,44.284022,2527 6.960986,44.284122,2528 6.960988,44.284127,2528 6.961001,44.284123,2529 6.960960,44.284108,2529 6.960904,44.284114,2529 6.960798,44.284110,2529 6.960772,44.284091,2529 6.960757,44.284103,2529 6.960898,44.284148,2529 6.961031,44.284114,2529 6.960997,44.284044,2529 6.960918,44.283979,2529 6.960894,44.283966,2529 6.960878,44.283955,2529 6.960856,44.284000,2529 6.960868,44.284041,2529 6.960839,44.284068,2529 6.960746,44.284071,2529 6.960733,44.284120,2529 6.960800,44.284142,2529 6.960829,44.284139,2529 6.960902,44.284177,2529 6.960934,44.284140,2529 6.960910,44.284137,2529 6.960864,44.284127,2529 6.960831,44.284158,2529 6.960833,44.284161,2529 6.960881,44.284218,2529 6.960924,44.284147,2529 6.960898,44.284090,2529 6.960812,44.284089,2529 6.960797,44.284052,2530 6.960784,44.284014,2530 6.960831,44.284038,2530 6.960867,44.284010,2530 6.960868,44.284013,2530 6.960916,44.284023,2530 6.960894,44.284025,2530 6.960841,44.284004,2530 6.960795,44.284088,2530 6.960770,44.284104,2530 6.960714,44.284122,2530 6.960685,44.284094,2530 6.960723,44.284061,2529 6.960821,44.284073,2529 6.960803,44.284100,2530 6.960853,44.284099,2530 6.960886,44.284130,2530 6.960871,44.284102,2530 6.960802,44.284100,2530 6.960741,44.284076,2530 6.960737,44.284067,2530 6.960765,44.284060,2530 6.960802,44.284066,2530 6.960839,44.284077,2530 6.960890,44.284094,2530 6.960855,44.284056,2530 6.960820,44.284075,2530 6.960878,44.284096,2530 6.960882,44.284118,2530 6.960960,44.284180,2530 6.960974,44.284157,2530 6.960931,44.284103,2530 6.960912,44.284095,2530 6.960881,44.284094,2530 6.960843,44.284084,2530 6.960846,44.284107,2530 6.960851,44.284089,2530 6.960845,44.284097,2530 6.960930,44.284100,2530 6.960908,44.284116,2530 6.960846,44.284121,2530 6.960873,44.284116,2530 6.960911,44.284149,2530 6.960919,44.284144,2530 6.960922,44.284107,2530 6.960885,44.284115,2530 6.960810,44.284109,2531 6.960823,44.284054,2530 6.960758,44.284026,2531 6.960874,44.284110,2530 6.960891,44.284116,2531 6.960905,44.284112,2531 6.960865,44.284108,2531 6.960900,44.284126,2531 6.960920,44.284129,2530 6.960934,44.284131,2531 6.960944,44.284106,2531 6.960926,44.284116,2531 6.960848,44.284074,2530 6.960883,44.284087,2530 6.960879,44.284093,2530 6.960800,44.284091,2531 6.960843,44.284107,2531 6.960811,44.284069,2531 6.960819,44.284087,2530 6.960819,44.284109,2530 6.960761,44.284072,2530 6.960702,44.284086,2528 6.960694,44.284074,2527 6.960690,44.284035,2525 6.960649,44.284014,2524 6.960628,44.283998,2523 6.960596,44.283993,2522 6.960520,44.283984,2520 6.960476,44.283967,2518 6.960372,44.283941,2517 6.960347,44.283923,2516 6.960370,44.283913,2515 6.960370,44.283916,2513 6.960328,44.283869,2512 6.960311,44.283876,2510 6.960272,44.283855,2508 6.960241,44.283839,2507 6.960183,44.283836,2505 6.960123,44.283837,2504 6.960014,44.283809,2503 6.959968,44.283796,2501 6.959938,44.283785,2500 6.959892,44.283783,2499 6.959849,44.283767,2498 6.959797,44.283767,2497 6.959777,44.283753,2496 6.959724,44.283757,2495 6.959675,44.283761,2493 6.959651,44.283756,2492 6.959657,44.283768,2491 6.959597,44.283799,2490 6.959521,44.283793,2489 6.959452,44.283732,2488 6.959403,44.283723,2486 6.959345,44.283766,2485 6.959258,44.283752,2483 6.959224,44.283721,2482 6.959199,44.283688,2481 6.959170,44.283718,2479 6.959050,44.283720,2477 6.958972,44.283685,2475 6.958939,44.283685,2473 6.958931,44.283667,2472 6.958934,44.283644,2471 6.958913,44.283643,2469 6.958885,44.283666,2468 6.958835,44.283686,2467 6.958852,44.283719,2465 6.958771,44.283720,2464 6.958663,44.283696,2462 6.958619,44.283681,2461 6.958576,44.283714,2460 6.958486,44.283739,2459 6.958446,44.283734,2458 6.958406,44.283713,2456 6.958338,44.283707,2455 6.958244,44.283663,2454 6.958098,44.283662,2454 6.957991,44.283598,2453 6.957914,44.283545,2452 6.957847,44.283522,2451 6.957808,44.283459,2450 6.957782,44.283402,2449 6.957730,44.283389,2448 6.957678,44.283276,2448 6.957584,44.283255,2447 6.957414,44.283152,2447 6.957299,44.283005,2448 6.957222,44.282860,2448 6.957109,44.282722,2448 6.957045,44.282679,2449 6.956998,44.282595,2450 6.956908,44.282498,2451 6.956883,44.282480,2452 6.956874,44.282455,2453 6.956896,44.282417,2454 6.956949,44.282343,2455 6.956913,44.282229,2456 6.956765,44.282196,2456 6.956656,44.282123,2455 6.956520,44.282067,2454 6.956413,44.282008,2453 6.956437,44.281983,2453 6.956546,44.281929,2452 6.956555,44.281916,2451 6.956539,44.281907,2450 6.956514,44.281878,2448 6.956538,44.281856,2446 6.956542,44.281823,2445 6.956533,44.281781,2443 6.956521,44.281744,2441 6.956472,44.281736,2439 6.956419,44.281732,2438 6.956376,44.281707,2436 6.956349,44.281696,2435 6.956342,44.281677,2433 6.956356,44.281626,2432 6.956329,44.281590,2430 6.956295,44.281565,2428 6.956259,44.281525,2427 6.956240,44.281484,2425 6.956213,44.281479,2424 6.956143,44.281458,2423 6.956071,44.281416,2421 6.956106,44.281405,2419 6.956079,44.281391,2418 6.956028,44.281366,2417 6.956033,44.281353,2416 6.955994,44.281345,2415 6.955970,44.281311,2413 6.955967,44.281300,2413 6.955923,44.281246,2411 6.955923,44.281213,2410 6.955924,44.281202,2409 6.955869,44.281184,2408 6.955845,44.281167,2406 6.955796,44.281162,2404 6.955812,44.281130,2403 6.955753,44.281107,2402 6.955690,44.281058,2401 6.955690,44.281058,2400 6.955613,44.281025,2399 6.955546,44.281030,2398 6.955462,44.280987,2397 6.955389,44.280952,2395 6.955329,44.280930,2394 6.955284,44.280903,2392 6.955251,44.280883,2391 6.955207,44.280863,2390 6.955153,44.280813,2388 6.955164,44.280793,2387 6.955137,44.280757,2386 6.955135,44.280717,2384 6.955104,44.280709,2382 6.955095,44.280707,2381 6.955052,44.280704,2380 6.955005,44.280666,2378 6.954977,44.280619,2376 6.954952,44.280590,2375 6.954868,44.280539,2374 6.954814,44.280553,2373 6.954705,44.280570,2372 6.954607,44.280597,2370 6.954497,44.280662,2368 6.954422,44.280681,2367 6.954379,44.280691,2366 6.954333,44.280709,2364 6.954207,44.280716,2363 6.954149,44.280684,2362 6.954069,44.280666,2361 6.954005,44.280681,2359 6.953923,44.280651,2357 6.953828,44.280619,2357 6.953736,44.280564,2355 6.953631,44.280512,2354 6.953525,44.280476,2352 6.953407,44.280456,2351 6.953330,44.280488,2349 6.953265,44.280519,2348 6.953167,44.280512,2347 6.953141,44.280543,2346 6.953080,44.280588,2345 6.952998,44.280638,2344 6.952930,44.280667,2343 6.952774,44.280694,2342 6.952687,44.280706,2340 6.952665,44.280724,2339 6.952639,44.280856,2338 6.952578,44.280924,2338 6.952433,44.280951,2337 6.952279,44.280988,2337 6.952061,44.281120,2336 6.951977,44.281199,2336 6.951821,44.281338,2335 6.951663,44.281469,2334 6.951524,44.281518,2334 6.951189,44.281579,2333 6.950988,44.281515,2333 6.950852,44.281447,2333 6.950648,44.281346,2332 6.950579,44.281218,2333 6.950582,44.281087,2332 6.950547,44.280998,2332 6.950420,44.280854,2331 6.950259,44.280757,2332 6.950073,44.280723,2331 6.950078,44.280732,2331 6.950073,44.280727,2330 6.950093,44.280682,2330 6.950081,44.280704,2330 6.950064,44.280722,2330 6.950086,44.280733,2330 6.950078,44.280709,2329 6.950087,44.280706,2329 6.950062,44.280722,2330 6.950071,44.280717,2329 6.950069,44.280724,2329 6.950061,44.280721,2329 6.950071,44.280698,2329 6.950068,44.280723,2329 6.950062,44.280748,2329 6.950077,44.280726,2329 6.950082,44.280699,2329 6.950092,44.280733,2329 6.950086,44.280715,2329 6.950074,44.280723,2329 6.950076,44.280686,2329 6.950121,44.280728,2329 6.950065,44.280734,2329 6.950073,44.280728,2329 6.950085,44.280731,2329 6.950060,44.280734,2330 6.950023,44.280721,2329 6.950005,44.280705,2328 6.950074,44.280724,2328 6.950081,44.280729,2327 6.950128,44.280734,2327 6.950109,44.280733,2327 6.950123,44.280717,2327 6.950117,44.280708,2328 6.950076,44.280740,2328 6.950124,44.280729,2328 6.950051,44.280720,2328 6.949878,44.280744,2328 6.949668,44.280779,2329 6.949412,44.280845,2329 6.949321,44.280850,2329 6.949079,44.280792,2329 6.948766,44.280685,2330 6.948613,44.280573,2330 6.948461,44.280448,2330 6.948388,44.280254,2330 6.948196,44.280227,2329 6.947996,44.280405,2329 6.947882,44.280509,2329 6.947591,44.280619,2329 6.947442,44.280650,2329 6.947028,44.280681,2330 6.946784,44.280650,2330 6.946637,44.280622,2331 6.946288,44.280526,2330 6.946055,44.280485,2330 6.945928,44.280469,2330 6.945690,44.280581,2330 6.945542,44.280681,2330 6.945215,44.280747,2331 6.944942,44.280788,2331 6.944756,44.280798,2331 6.944469,44.280700,2332 6.944310,44.280663,2332 6.944042,44.280612,2331 6.943784,44.280532,2331 6.943630,44.280486,2331 6.943344,44.280524,2330 6.943052,44.280510,2331 6.942778,44.280595,2331 6.942692,44.280609,2332 6.942480,44.280461,2331 6.942389,44.280455,2331 6.942139,44.280403,2331 6.941816,44.280226,2331 6.941619,44.280106,2331 6.941394,44.279999,2331 6.941102,44.279906,2331 6.940868,44.279804,2332 6.940667,44.279719,2332 6.940415,44.279777,2332 6.940213,44.279764,2332 6.940065,44.279741,2332 6.939867,44.279598,2332 6.939699,44.279480,2332 6.939570,44.279341,2333 6.939420,44.279269,2333 6.939164,44.279190,2333 6.939033,44.279014,2333 6.938873,44.278864,2333 6.938741,44.278659,2333 6.938518,44.278492,2333 6.938319,44.278392,2333 6.938088,44.278320,2333 6.937794,44.278252,2333 6.937618,44.278212,2333 6.937356,44.278124,2333 6.937177,44.278243,2333 6.937032,44.278429,2333 6.936829,44.278598,2333 6.936686,44.278754,2333 6.936614,44.278845,2333 6.936548,44.279078,2332 6.936378,44.279270,2331 6.936338,44.279450,2332 6.936431,44.279632,2332 6.936563,44.279846,2332 6.936619,44.279974,2332 6.936721,44.280106,2331 6.936869,44.280301,2331 6.936981,44.280559,2331 6.937017,44.280841,2331 6.936994,44.280929,2331 6.936937,44.281111,2332 6.936775,44.281286,2332 6.936695,44.281455,2331 6.936869,44.281656,2331 6.937008,44.281763,2331 6.937136,44.281942,2331 6.937100,44.282148,2332 6.937078,44.282226,2332 6.937097,44.282384,2332 6.937112,44.282562,2332 6.937160,44.282617,2332 6.937392,44.282797,2332 6.937560,44.282998,2332 6.937591,44.283105,2332 6.937786,44.283302,2333 6.938039,44.283432,2333 6.938025,44.283464,2333 6.937954,44.283710,2332 6.937951,44.283913,2332 6.937992,44.284152,2332 6.938200,44.284273,2332 6.938451,44.284433,2332 6.938679,44.284582,2333 6.938559,44.284743,2333 6.938486,44.284863,2333 6.938402,44.285060,2333 6.938380,44.285178,2333 6.938595,44.285277,2333 6.938721,44.285506,2333 6.938984,44.285587,2333 6.939162,44.285670,2333 6.939228,44.285877,2333 6.939329,44.285996,2333 6.939426,44.286165,2333 6.939415,44.286399,2333 6.939596,44.286449,2334 6.939584,44.286473,2334 6.939573,44.286693,2334 6.939668,44.286795,2334 6.939676,44.287023,2335 6.939658,44.287125,2335 6.939656,44.287311,2335 6.939612,44.287582,2335 6.939365,44.287691,2335 6.939187,44.287831,2335 6.939111,44.287923,2335 6.939023,44.288040,2335 6.939009,44.288037,2334 6.938830,44.288236,2334 6.938744,44.288478,2335 6.938724,44.288645,2335 6.938651,44.288854,2334 6.938787,44.288977,2334 6.938885,44.289066,2334 6.938642,44.289255,2334 6.938552,44.289480,2333 6.938388,44.289674,2334 6.938258,44.289837,2333 6.938067,44.289978,2333 6.937889,44.290118,2334 6.937632,44.290238,2333 6.937463,44.290379,2334 6.937333,44.290516,2333 6.937216,44.290610,2334 6.937099,44.290709,2333 6.937014,44.290900,2333 6.936915,44.290970,2333 6.936826,44.291037,2333 6.936585,44.291119,2333 6.936340,44.291193,2333 6.936294,44.291205,2333 6.936189,44.291233,2333 6.935962,44.291317,2333 6.935646,44.291403,2333 6.935267,44.291456,2333 6.934900,44.291485,2333 6.934669,44.291436,2333 6.934481,44.291394,2333 6.934153,44.291418,2333 6.933960,44.291360,2332 6.933773,44.291338,2332 6.933532,44.291250,2331 6.933497,44.291172,2331 6.933301,44.291200,2330 6.933157,44.291240,2330 6.932941,44.291218,2329 6.932871,44.291195,2329 6.932597,44.291218,2328 6.932414,44.291385,2327 6.932506,44.291494,2327 6.932649,44.291658,2327 6.932731,44.291915,2327 6.932670,44.292158,2327 6.932622,44.292393,2327 6.932349,44.292522,2327 6.932149,44.292664,2327 6.932147,44.292834,2327 6.932072,44.293051,2327 6.931993,44.293331,2328 6.931866,44.293494,2328 6.931790,44.293536,2329 6.931821,44.293609,2329 6.931766,44.293707,2329 6.931659,44.293802,2330 6.931625,44.293888,2330 6.931641,44.293920,2330 6.931645,44.293937,2330 6.931620,44.293903,2330 6.931703,44.293970,2330 6.931688,44.293971,2331 6.931720,44.293986,2331 6.931763,44.293999,2332 6.931794,44.294011,2332 6.931814,44.294042,2332 6.931775,44.294078,2333 6.931806,44.294096,2335 6.931858,44.294127,2336 6.931897,44.294160,2338 6.931917,44.294200,2340 6.931944,44.294214,2341 6.931979,44.294242,2342 6.932034,44.294258,2343 6.932113,44.294305,2345 6.932114,44.294329,2346 6.932101,44.294367,2348 6.932083,44.294383,2349 6.932078,44.294381,2349 6.932015,44.294391,2348 6.931921,44.294402,2347 6.931861,44.294454,2346 6.931839,44.294468,2345 6.931812,44.294498,2343 6.931770,44.294577,2342 6.931694,44.294620,2344 6.931683,44.294622,2345 6.931631,44.294647,2345 6.931567,44.294671,2344 6.931509,44.294725,2345 6.931509,44.294784,2346 6.931449,44.294836,2347 6.931366,44.294964,2346 6.931280,44.295001,2346 6.931182,44.294999,2345 6.931108,44.295001,2344 6.931027,44.295040,2343 6.930916,44.295041,2342 6.930834,44.295015,2341 6.930744,44.294978,2341 6.930752,44.294945,2341 6.930696,44.294935,2340 6.930608,44.294877,2339 6.930550,44.294842,2338 6.930491,44.294846,2337 6.930406,44.294867,2335 6.930371,44.294877,2334 6.930264,44.294903,2333 6.930081,44.294931,2332 6.930018,44.294984,2331 6.929993,44.295002,2332 6.930024,44.295017,2334 6.930060,44.295055,2335 6.930085,44.295083,2337 6.930110,44.295127,2337 6.930168,44.295188,2337 6.930283,44.295280,2338 6.930296,44.295298,2338 6.930299,44.295330,2339 6.930316,44.295412,2340 6.930327,44.295488,2341 6.930398,44.295544,2341 6.930386,44.295517,2341 6.930344,44.295521,2341 6.930363,44.295577,2342 6.930395,44.295540,2342 6.930383,44.295559,2343 6.930359,44.295545,2343 6.930376,44.295546,2343 6.930388,44.295561,2343 6.930374,44.295575,2342 6.930441,44.295525,2342 6.930409,44.295520,2342 6.930391,44.295529,2342 6.930404,44.295535,2343 6.930383,44.295559,2342 6.930376,44.295561,2341 6.930365,44.295568,2342 6.930397,44.295562,2342 6.930384,44.295564,2342 6.930385,44.295567,2342 6.930372,44.295584,2343 6.930424,44.295680,2344 6.930483,44.295741,2345 6.930511,44.295793,2346 6.930493,44.295854,2347 6.930443,44.295894,2349 6.930410,44.295916,2349 6.930370,44.295954,2348 6.930339,44.295977,2347 6.930265,44.296021,2348 6.930239,44.296169,2349 6.930243,44.296241,2351 6.930239,44.296280,2353 6.930220,44.296302,2354 6.930236,44.296307,2355 6.930248,44.296344,2357 6.930253,44.296366,2358 6.930256,44.296386,2359 6.930289,44.296383,2360 6.930304,44.296387,2360 6.930313,44.296395,2361 6.930333,44.296425,2361 6.930286,44.296437,2363 6.930272,44.296464,2364 6.930268,44.296490,2366 6.930263,44.296576,2368 6.930216,44.296571,2368 6.930262,44.296557,2367 6.930256,44.296563,2367 6.930308,44.296551,2367 6.930336,44.296545,2367 6.930270,44.296655,2367 6.930259,44.296734,2369 6.930213,44.296766,2370 6.930181,44.296750,2371 6.930134,44.296777,2372 6.930083,44.296827,2374 6.930036,44.296824,2375 6.929990,44.296839,2377 6.929962,44.296878,2378 6.929954,44.296905,2379 6.929930,44.296916,2380 6.929913,44.296949,2381 6.929892,44.296998,2383 6.929869,44.297028,2384 6.929840,44.297057,2385 6.929822,44.297091,2386 6.929777,44.297104,2387 6.929751,44.297113,2387 6.929562,44.297230,2387 6.929488,44.297273,2388 6.929397,44.297340,2389 6.929263,44.297412,2390 6.929213,44.297465,2391 6.929131,44.297497,2393 6.929029,44.297534,2394 6.929003,44.297562,2395 6.928972,44.297597,2395 6.928877,44.297663,2396 6.928806,44.297653,2397 6.928702,44.297629,2400 6.928687,44.297615,2401 6.928630,44.297594,2403 6.928631,44.297634,2404 6.928630,44.297703,2405 6.928635,44.297725,2405 6.928652,44.297768,2406 6.928682,44.297809,2407 6.928701,44.297832,2408 6.928699,44.297845,2409 6.928725,44.297852,2411 6.928745,44.297883,2413 6.928755,44.297902,2413 6.928763,44.297916,2414 6.928780,44.297957,2415 6.928816,44.297997,2417 6.928850,44.298026,2418 6.928864,44.298058,2420 6.928912,44.298090,2421 6.928875,44.298083,2423 6.928851,44.298079,2423 6.928756,44.298081,2425 6.928736,44.298065,2426 6.928699,44.298074,2427 6.928635,44.298076,2429 6.928568,44.298076,2430 6.928561,44.298076,2431 6.928522,44.298068,2433 6.928491,44.298066,2434 6.928463,44.298063,2435 6.928424,44.298055,2436 6.928432,44.298069,2437 6.928408,44.298056,2438 6.928384,44.298025,2439 6.928368,44.298008,2440 6.928302,44.297968,2441 6.928286,44.297974,2442 6.928275,44.298004,2443 6.928292,44.298043,2444 6.928290,44.298084,2446 6.928292,44.298126,2447 6.928290,44.298129,2448 6.928274,44.298153,2450 6.928277,44.298176,2451 6.928289,44.298249,2452 6.928283,44.298279,2453 6.928266,44.298318,2454 6.928276,44.298352,2455 6.928249,44.298385,2456 6.928214,44.298366,2457 6.928194,44.298339,2459 6.928144,44.298310,2460 6.928115,44.298280,2462 6.928054,44.298252,2463 6.928019,44.298264,2464 6.928043,44.298290,2465 6.928065,44.298350,2466 6.928083,44.298434,2467 6.928125,44.298517,2468 6.928160,44.298582,2469 6.928195,44.298646,2471 6.928244,44.298686,2472 6.928256,44.298704,2473 6.928252,44.298698,2473 6.928246,44.298699,2473 6.928236,44.298700,2474 6.928243,44.298715,2474 6.928275,44.298718,2474 6.928264,44.298712,2474 6.928275,44.298689,2474 6.928263,44.298704,2474 6.928284,44.298701,2475 6.928259,44.298685,2475 6.928226,44.298720,2474 6.928210,44.298726,2474 6.928254,44.298690,2474 6.928257,44.298706,2474 6.928305,44.298758,2476 6.928329,44.298766,2476 6.928327,44.298813,2478 6.928269,44.298792,2479 6.928258,44.298783,2480 6.928199,44.298753,2480 6.928136,44.298717,2481 6.928087,44.298710,2483 6.928027,44.298701,2484 6.927983,44.298702,2485 6.927893,44.298663,2486 6.927871,44.298639,2488 6.927805,44.298590,2489 6.927756,44.298560,2490 6.927701,44.298529,2492 6.927632,44.298504,2493 6.927582,44.298487,2494 6.927534,44.298505,2496 6.927577,44.298572,2497 6.927587,44.298622,2498 6.927606,44.298650,2499 6.927611,44.298700,2500 6.927621,44.298738,2501 6.927628,44.298746,2501 6.927619,44.298730,2502 6.927610,44.298726,2503 6.927582,44.298720,2504 6.927528,44.298712,2505 6.927450,44.298691,2506 6.927410,44.298670,2507 6.927353,44.298653,2509 6.927311,44.298655,2510 6.927307,44.298708,2512 6.927321,44.298723,2513 6.927344,44.298734,2514 6.927355,44.298767,2515 6.927365,44.298785,2516 6.927273,44.298774,2517 6.927190,44.298749,2517 6.927120,44.298730,2518 6.927108,44.298746,2519 6.927142,44.298781,2520 6.927179,44.298806,2521 6.927206,44.298842,2522 6.927219,44.298884,2523 6.927270,44.298944,2525 6.927346,44.298971,2526 6.927408,44.298961,2524 6.927491,44.298983,2523 6.927530,44.298999,2523 6.927542,44.299023,2522 6.927550,44.299060,2520 6.927578,44.299097,2519 6.927626,44.299169,2517 6.927639,44.299246,2516 6.927682,44.299305,2516 6.927692,44.299401,2515 6.927686,44.299502,2513 6.927662,44.299700,2513 6.927638,44.299757,2513 6.927621,44.299753,2512 6.927607,44.299759,2512 6.927583,44.299778,2511 6.927587,44.299783,2510 6.927606,44.299816,2510 6.927608,44.299805,2511 6.927624,44.299791,2511 6.927625,44.299774,2511 6.927627,44.299772,2511 6.927634,44.299804,2512 6.927634,44.299806,2512 6.927623,44.299797,2512 6.927601,44.299781,2513 6.927554,44.299781,2513 6.927608,44.299785,2512 6.927649,44.299796,2512 6.927638,44.299804,2512 6.927624,44.299797,2511 6.927613,44.299795,2512 6.927578,44.299762,2512 6.927577,44.299770,2512 6.927576,44.299742,2511 6.927586,44.299737,2512 6.927580,44.299741,2511 6.927574,44.299763,2511 6.927605,44.299768,2511 6.927592,44.299781,2510 6.927592,44.299800,2510 6.927617,44.299783,2510 6.927647,44.299779,2510 6.927613,44.299804,2511 6.927604,44.299781,2511 6.927581,44.299765,2510 6.927577,44.299758,2510 6.927577,44.299760,2510 6.927624,44.299758,2510 6.927573,44.299772,2510 6.927637,44.299779,2511 6.927650,44.299759,2511 6.927656,44.299768,2511 6.927633,44.299751,2511 6.927697,44.299800,2511 6.927675,44.299764,2512 6.927650,44.299755,2512 6.927662,44.299784,2513 6.927696,44.299841,2513 6.927688,44.299874,2511 6.927613,44.299957,2510 6.927582,44.300022,2509 6.927581,44.300117,2508 6.927598,44.300196,2507 6.927593,44.300282,2506 6.927571,44.300365,2505 6.927557,44.300430,2504 6.927542,44.300473,2503 6.927567,44.300621,2502 6.927634,44.300674,2500 6.927630,44.300709,2499 6.927608,44.300761,2498 6.927596,44.300858,2496 6.927574,44.300960,2496 6.927551,44.301030,2495 6.927595,44.301190,2494 6.927632,44.301194,2494 6.927743,44.301164,2492 6.927814,44.301103,2491 6.927917,44.300988,2490 6.927937,44.300997,2489 6.927954,44.300994,2489 6.928020,44.300964,2488 6.928064,44.300942,2486 6.928106,44.300926,2484 6.928149,44.300914,2483 6.928193,44.300879,2482 6.928239,44.300816,2480 6.928290,44.300781,2479 6.928324,44.300751,2477 6.928368,44.300758,2476 6.928373,44.300837,2474 6.928401,44.300797,2473 6.928448,44.300805,2472 6.928462,44.300863,2471 6.928480,44.300888,2469 6.928532,44.300876,2468 6.928579,44.300857,2466 6.928641,44.300861,2465 6.928671,44.300873,2464 6.928679,44.300868,2463 6.928699,44.300862,2462 6.928761,44.300851,2460 6.928802,44.300849,2459 6.928840,44.300863,2457 6.928852,44.300877,2456 6.928829,44.300923,2455 6.928807,44.300955,2454 6.928794,44.301022,2452 6.928785,44.301072,2451 6.928802,44.301083,2450 6.928789,44.301129,2449 6.928772,44.301180,2448 6.928760,44.301214,2447 6.928734,44.301285,2445 6.928718,44.301352,2443 6.928724,44.301385,2442 6.928736,44.301469,2441 6.928774,44.301488,2440 6.928790,44.301530,2439 6.928800,44.301691,2439 6.928800,44.301778,2438 6.928793,44.301843,2436 6.928761,44.301926,2434 6.928716,44.302002,2433 6.928708,44.302050,2432 6.928721,44.302105,2431 6.928664,44.302167,2429 6.928619,44.302235,2429 6.928584,44.302274,2428 6.928566,44.302282,2428 6.928558,44.302337,2426 6.928496,44.302388,2425 6.928422,44.302495,2425 6.928378,44.302570,2425 6.928333,44.302685,2427 6.928336,44.302740,2428 6.928373,44.302898,2427 6.928370,44.303025,2426 6.928392,44.303080,2427 6.928388,44.303121,2425 6.928370,44.303196,2424 6.928401,44.303247,2423 6.928456,44.303298,2421 6.928455,44.303329,2419 6.928474,44.303422,2419 6.928548,44.303537,2418 6.928602,44.303544,2418 6.928685,44.303579,2418 6.928661,44.303564,2418 6.928656,44.303654,2417 6.928631,44.303701,2417 6.928626,44.303709,2417 6.928609,44.303747,2417 6.928628,44.303772,2417 6.928601,44.303921,2416 6.928614,44.303988,2415 6.928609,44.304043,2414 6.928544,44.304073,2413 6.928523,44.304107,2412 6.928524,44.304141,2411 6.928506,44.304199,2409 6.928479,44.304251,2408 6.928445,44.304333,2407 6.928435,44.304389,2406 6.928414,44.304462,2405 6.928404,44.304493,2404 6.928410,44.304557,2402 6.928348,44.304569,2401 6.928335,44.304595,2400 6.928351,44.304639,2399 6.928304,44.304667,2397 6.928264,44.304686,2396 6.928250,44.304715,2395 6.928273,44.304785,2393 6.928253,44.304899,2395 6.928219,44.304973,2396 6.928154,44.305063,2394 6.928181,44.305145,2393 6.928184,44.305193,2392 6.928216,44.305229,2391 6.928260,44.305246,2389 6.928272,44.305254,2388 6.928300,44.305282,2387 6.928316,44.305288,2386 6.928338,44.305306,2384 6.928330,44.305313,2383 6.928296,44.305325,2382 6.928316,44.305343,2381 6.928359,44.305372,2379 6.928406,44.305375,2378 6.928398,44.305386,2377 6.928431,44.305391,2375 6.928430,44.305420,2374 6.928468,44.305483,2372 6.928520,44.305523,2371 6.928516,44.305524,2370 6.928614,44.305599,2368 6.928639,44.305620,2367 6.928629,44.305650,2366 6.928608,44.305700,2364 6.928599,44.305710,2363 6.928576,44.305743,2363 6.928557,44.305785,2362 6.928514,44.305844,2360 6.928511,44.305848,2359 6.928494,44.305868,2358 6.928527,44.305880,2357 6.928542,44.305925,2356 6.928510,44.305968,2354 6.928484,44.306007,2353 6.928473,44.306050,2352 6.928476,44.306082,2350 6.928499,44.306107,2349 6.928555,44.306099,2349 6.928581,44.306111,2348 6.928570,44.306114,2347 6.928573,44.306107,2346 6.928558,44.306116,2345 6.928601,44.306137,2343 6.928603,44.306149,2342 6.928587,44.306188,2341 6.928596,44.306181,2340 6.928617,44.306224,2339 6.928584,44.306271,2338 6.928554,44.306256,2337 6.928543,44.306257,2337 6.928582,44.306262,2337 6.928537,44.306290,2337 6.928529,44.306295,2335 6.928527,44.306321,2334 6.928469,44.306336,2332 6.928428,44.306323,2331 6.928446,44.306331,2330 6.928497,44.306388,2329 6.928543,44.306430,2328 6.928551,44.306449,2327 6.928507,44.306467,2325 6.928425,44.306478,2324 6.928346,44.306485,2322 6.928300,44.306496,2321 6.928360,44.306524,2320 6.928371,44.306560,2319 6.928318,44.306593,2317 6.928289,44.306585,2316 6.928314,44.306614,2315 6.928248,44.306631,2314 6.928239,44.306648,2312 6.928261,44.306669,2312 6.928299,44.306717,2311 6.928364,44.306767,2310 6.928382,44.306781,2310 6.928405,44.306815,2309 6.928400,44.306864,2308 6.928393,44.306852,2307 6.928376,44.306884,2307 6.928368,44.306926,2307 6.928391,44.306987,2306 6.928484,44.307096,2305 6.928468,44.307135,2304 6.928460,44.307157,2303 6.928489,44.307201,2302 6.928463,44.307233,2302 6.928452,44.307237,2302 6.928489,44.307259,2303 6.928515,44.307288,2304 6.928478,44.307327,2305 6.928435,44.307374,2305 6.928411,44.307396,2305 6.928304,44.307510,2304 6.928183,44.307678,2305 6.928119,44.307739,2306 6.928056,44.307765,2307 6.928012,44.307864,2307 6.927947,44.307976,2307 6.927912,44.308048,2307 6.927912,44.308111,2306 6.927861,44.308132,2305 6.927822,44.308147,2303 6.927756,44.308173,2302 6.927663,44.308208,2301 6.927627,44.308305,2302 6.927592,44.308345,2301 6.927655,44.308431,2300 6.927626,44.308509,2298 6.927614,44.308535,2297 6.927546,44.308584,2295 6.927473,44.308653,2294 6.927495,44.308672,2294 6.927548,44.308729,2294 6.927622,44.308722,2294 6.927685,44.308759,2294 6.927687,44.308750,2294 6.927807,44.308796,2294 6.928008,44.308828,2295 6.928057,44.308820,2296 6.928171,44.308800,2296 6.928268,44.308814,2297 6.928400,44.308822,2296 6.928491,44.308866,2297 6.928504,44.308976,2296 6.928567,44.309021,2296 6.928634,44.309102,2295 6.928734,44.309150,2295 6.928884,44.309225,2295 6.928949,44.309259,2294 6.928999,44.309258,2294 6.929115,44.309250,2295 6.929143,44.309240,2295 6.929333,44.309199,2296 6.929437,44.309178,2296 6.929512,44.309153,2297 6.929562,44.309134,2298 6.929609,44.309105,2299 6.929667,44.309076,2300 6.929684,44.309073,2301 6.929819,44.309059,2302 6.929828,44.309058,2303 6.929774,44.309098,2304 6.929733,44.309154,2304 6.929689,44.309187,2305 6.929649,44.309234,2305 6.929590,44.309272,2306 6.929501,44.309312,2308 6.929473,44.309335,2309 6.929466,44.309389,2310 6.929445,44.309434,2309 6.929420,44.309454,2308 6.929394,44.309465,2308 6.929374,44.309444,2309 6.929355,44.309486,2309 6.929367,44.309479,2309 6.929382,44.309500,2310 6.929368,44.309510,2311 6.929285,44.309555,2311 6.929279,44.309561,2311 6.929274,44.309572,2311 6.929261,44.309575,2311 6.929296,44.309549,2311 6.929271,44.309582,2312 6.929264,44.309600,2313 6.929236,44.309625,2314 6.929220,44.309627,2314 6.929171,44.309637,2315 6.929198,44.309649,2316 6.929202,44.309617,2316 6.929206,44.309608,2316 6.929224,44.309604,2316 6.929186,44.309625,2316 6.929182,44.309623,2316 6.929133,44.309626,2317 6.929139,44.309635,2317 6.929141,44.309641,2317 6.929151,44.309637,2317 6.929217,44.309661,2317 6.929267,44.309687,2318 6.929260,44.309724,2319 6.929254,44.309743,2320 6.929247,44.309718,2320 6.929254,44.309718,2320 6.929250,44.309763,2322 6.929266,44.309738,2321 6.929282,44.309740,2320 6.929307,44.309721,2320 6.929311,44.309727,2321 6.929263,44.309755,2320 6.929325,44.309787,2318 6.929416,44.309815,2317 6.929522,44.309805,2316 6.929593,44.309832,2316 6.929677,44.309832,2314 6.929683,44.309817,2314 6.929699,44.309827,2314 6.929692,44.309837,2315 6.929692,44.309845,2314 6.929703,44.309825,2313 6.929758,44.309787,2312 6.929744,44.309849,2310 6.929726,44.309846,2310 6.929751,44.309912,2309 6.929829,44.309959,2310 6.929839,44.309936,2310 6.929976,44.309989,2310 6.930091,44.309980,2312 6.930167,44.309973,2313 6.930211,44.309947,2314 6.930223,44.309924,2314 6.930290,44.309901,2313 6.930384,44.309888,2313 6.930302,44.309829,2313 6.930301,44.309778,2312 6.930272,44.309763,2311 6.930336,44.309824,2312 6.930363,44.309850,2312 6.930464,44.309896,2312 6.930323,44.309803,2312 6.930286,44.309771,2310 6.930294,44.309753,2310 6.930441,44.309649,2310 6.930477,44.309657,2311 6.930459,44.309643,2311 6.930423,44.309662,2310 6.930466,44.309653,2310 6.930522,44.309626,2310 6.930470,44.309641,2310 6.930451,44.309650,2310 6.930461,44.309660,2309 6.930453,44.309666,2310 6.930443,44.309669,2309 6.930430,44.309673,2309 6.930451,44.309666,2309 6.930418,44.309686,2309 6.930403,44.309696,2309 6.930333,44.309734,2310 6.930296,44.309780,2311 6.930333,44.309820,2312 6.930365,44.309833,2312 6.930441,44.309820,2312 6.930435,44.309826,2312 6.930358,44.309886,2312 6.930382,44.309924,2312 6.930370,44.309980,2313 6.930425,44.310020,2314 6.930440,44.310042,2315 6.930361,44.310072,2315 6.930393,44.310098,2316 6.930406,44.310158,2317 6.930416,44.310188,2317 6.930424,44.310181,2316 6.930423,44.310190,2315 6.930383,44.310213,2314 6.930350,44.310246,2313 6.930310,44.310321,2314 6.930295,44.310343,2315 6.930261,44.310351,2317 6.930251,44.310382,2318 6.930210,44.310401,2319 6.930232,44.310470,2320 6.930241,44.310507,2320 6.930268,44.310573,2319 6.930201,44.310661,2320 6.930154,44.310766,2318 6.930188,44.310811,2316 6.930290,44.310938,2316 6.930306,44.311050,2315 6.930317,44.311217,2315 6.930385,44.311383,2316 6.930423,44.311418,2317 6.930428,44.311501,2318 6.930437,44.311584,2319 6.930469,44.311626,2320 6.930519,44.311671,2321 6.930581,44.311725,2322 6.930677,44.311792,2323 6.930606,44.311767,2324 6.930521,44.311743,2325 6.930562,44.311808,2327 6.930595,44.311843,2329 6.930650,44.311878,2330 6.930782,44.311889,2331 6.930804,44.311973,2331 6.930853,44.312029,2328 6.930904,44.312040,2327 6.930960,44.312063,2326 6.931034,44.312077,2325 6.931101,44.312099,2323 6.931161,44.312123,2322 6.931225,44.312124,2321 6.931308,44.312140,2320 6.931383,44.312150,2318 6.931448,44.312165,2316 6.931506,44.312185,2315 6.931585,44.312209,2314 6.931809,44.312259,2314 6.931896,44.312262,2315 6.931929,44.312260,2316 6.932044,44.312216,2314 6.932165,44.312147,2314 6.932301,44.312071,2314 6.932450,44.311992,2313 6.932567,44.311971,2313 6.932749,44.311920,2314 6.932963,44.311877,2314 6.933146,44.311824,2315 6.933262,44.311806,2316 6.933366,44.311811,2316 6.933516,44.311830,2317 6.933582,44.311837,2318 6.933669,44.311854,2319 6.933744,44.311876,2320 6.933843,44.311909,2321 6.933915,44.311963,2323 6.933946,44.311962,2324 6.933955,44.311939,2325 6.933984,44.311940,2326 6.934022,44.311949,2327 6.934057,44.311945,2328 6.934100,44.311955,2330 6.934285,44.311956,2331 6.934348,44.311953,2331 6.934409,44.311939,2333 6.934470,44.311960,2334 6.934550,44.311956,2334 6.934630,44.311952,2332 6.934687,44.311971,2331 6.934788,44.312007,2331 6.934927,44.312103,2331 6.935011,44.312236,2331 6.935196,44.312336,2331 6.935263,44.312458,2331 6.935299,44.312632,2332 6.935339,44.312709,2332 6.935330,44.312822,2333 6.935306,44.312908,2333 6.935280,44.313043,2333 6.935283,44.313221,2333 6.935359,44.313325,2334 6.935386,44.313354,2335 6.935345,44.313417,2337 6.935313,44.313472,2338 6.935220,44.313591,2338 6.935111,44.313665,2338 6.935075,44.313649,2337 6.934911,44.313699,2337 6.934835,44.313712,2336 6.934764,44.313737,2336 6.934702,44.313716,2337 6.934696,44.313726,2338 6.934669,44.313803,2340 6.934484,44.313853,2341 6.934451,44.313861,2341 6.934399,44.313906,2343 6.934368,44.313972,2343 6.934309,44.314050,2342 6.934300,44.314122,2340 6.934271,44.314217,2337 6.934253,44.314328,2337 6.934258,44.314407,2336 6.934335,44.314495,2336 6.934389,44.314515,2335 6.934474,44.314608,2335 6.934551,44.314774,2335 6.934596,44.314928,2335 6.934702,44.315043,2336 6.934886,44.315139,2335 6.935078,44.315167,2335 6.935288,44.315182,2335 6.935419,44.315282,2334 6.935623,44.315418,2334 6.935712,44.315473,2334 6.935834,44.315625,2336 6.935909,44.315709,2336 6.936038,44.315803,2336 6.936107,44.315886,2335 6.936193,44.315948,2337 6.936247,44.315995,2335 6.936325,44.316093,2335 6.936497,44.316181,2335 6.936616,44.316231,2335 6.936730,44.316284,2334 6.936908,44.316346,2334 6.937123,44.316407,2334 6.937238,44.316458,2334 6.937442,44.316521,2335 6.937595,44.316519,2335 6.937768,44.316461,2335 6.937766,44.316468,2335 6.937785,44.316475,2335 6.937757,44.316491,2334 6.937729,44.316465,2335 6.937715,44.316481,2336 6.937783,44.316455,2335 6.937749,44.316473,2337 6.937778,44.316479,2336 6.937761,44.316467,2336 6.937766,44.316472,2336 6.937746,44.316468,2337 6.937716,44.316461,2336 6.937723,44.316465,2336 6.937748,44.316467,2336 6.937741,44.316478,2336 6.937739,44.316469,2336 6.937734,44.316449,2336 6.937746,44.316466,2336 6.937768,44.316506,2334 6.937767,44.316526,2334 6.937766,44.316530,2335 6.937782,44.316520,2335 6.937776,44.316533,2335 6.937773,44.316567,2335 6.937812,44.316614,2337 6.937869,44.316663,2337 6.937905,44.316668,2338 6.938025,44.316665,2339 6.938083,44.316684,2340 6.938243,44.316755,2341 6.938404,44.316771,2342 6.938528,44.316793,2343 6.938741,44.316855,2343 6.938921,44.316917,2344 6.939155,44.317022,2345 6.939283,44.317053,2345 6.939506,44.317065,2346 6.939739,44.317130,2347 6.939866,44.317210,2347 6.939962,44.317255,2348 6.940031,44.317267,2350 6.940122,44.317302,2351 6.940298,44.317339,2352 6.940478,44.317324,2353 6.940528,44.317316,2354 6.940596,44.317302,2355 6.940674,44.317327,2356 6.940701,44.317314,2357 6.940768,44.317308,2358 6.940805,44.317303,2359 6.940833,44.317293,2360 6.940910,44.317283,2362 6.940937,44.317284,2362 6.940965,44.317283,2362 6.941025,44.317270,2361 6.941137,44.317245,2361 6.941211,44.317241,2362 6.941234,44.317231,2363 6.941249,44.317190,2364 6.941238,44.317166,2365 6.941353,44.317146,2367 6.941395,44.317078,2369 6.941433,44.317041,2369 6.941489,44.317027,2371 6.941530,44.317029,2372 6.941547,44.316996,2373 6.941624,44.316946,2374 6.941701,44.316904,2375 6.941757,44.316849,2376 6.941840,44.316770,2376 6.941912,44.316743,2377 6.941919,44.316675,2377 6.941948,44.316666,2378 6.942020,44.316719,2378 6.941943,44.316679,2377 6.941998,44.316630,2377 6.942009,44.316619,2376 6.942002,44.316619,2376 6.941974,44.316611,2376 6.941998,44.316631,2376 6.942008,44.316641,2376 6.942014,44.316632,2376 6.942032,44.316699,2376 6.942005,44.316729,2376 6.942034,44.316706,2376 6.941986,44.316687,2376 6.941830,44.316549,2376 6.941636,44.316324,2376 6.941598,44.316293,2376 6.941578,44.316366,2376 6.941859,44.316646,2375 6.942070,44.316771,2374 6.941989,44.316632,2374 6.941990,44.316626,2374 6.942011,44.316625,2374 6.941966,44.316605,2373 6.941937,44.316596,2373 6.941991,44.316620,2373 6.941989,44.316622,2372 6.941982,44.316619,2372 6.941990,44.316621,2372 6.941968,44.316600,2373 6.941966,44.316618,2373 6.941965,44.316617,2373 6.941978,44.316619,2373 6.941969,44.316602,2373 6.941968,44.316645,2373 6.942000,44.316654,2373 6.941998,44.316653,2373 6.941945,44.316610,2373 6.941998,44.316605,2373 6.941985,44.316627,2373 6.941969,44.316632,2374 6.941958,44.316630,2374 6.942004,44.316626,2373 6.941976,44.316616,2373 6.941985,44.316614,2373 6.941998,44.316596,2373 6.941983,44.316646,2372 6.941984,44.316646,2373 6.941982,44.316623,2373 6.941958,44.316636,2373 6.941978,44.316620,2373 6.941976,44.316612,2373 6.941987,44.316598,2374 6.942006,44.316630,2374 6.941969,44.316630,2373 6.941979,44.316603,2373 6.941972,44.316609,2373 6.941966,44.316617,2373 6.941985,44.316616,2373 6.941981,44.316636,2373 6.941972,44.316626,2373 6.941984,44.316635,2373 6.941991,44.316628,2373 6.941983,44.316623,2374 6.941960,44.316605,2374 6.941979,44.316603,2374 6.941971,44.316618,2374 6.941951,44.316630,2374 6.942000,44.316624,2374 6.941976,44.316620,2374 6.941911,44.316619,2374 6.941966,44.316633,2374 6.941977,44.316620,2374 6.941971,44.316618,2374 6.941961,44.316634,2374 6.941959,44.316617,2374 6.941987,44.316640,2374 6.941998,44.316640,2374 6.941976,44.316635,2374 6.941988,44.316617,2373 6.941991,44.316609,2373 6.941981,44.316629,2374 6.941979,44.316632,2374 6.941985,44.316626,2374 6.941989,44.316616,2373 6.941991,44.316631,2373 6.941980,44.316633,2372 6.941964,44.316606,2373 6.941963,44.316617,2373 6.941941,44.316596,2373 6.941936,44.316612,2373 6.941934,44.316606,2373 6.941943,44.316616,2373 6.941982,44.316605,2373 6.941974,44.316617,2373 6.941973,44.316622,2373 6.941972,44.316624,2373 6.941989,44.316628,2373 6.941989,44.316611,2373 6.941979,44.316608,2373 6.941962,44.316627,2372 6.941980,44.316621,2372 6.941973,44.316616,2372 6.941958,44.316624,2372 6.941977,44.316621,2372 6.941991,44.316630,2372 6.941954,44.316603,2373 6.941956,44.316632,2373 6.941985,44.316623,2374 6.941976,44.316628,2374 6.941979,44.316619,2374 6.941965,44.316585,2374 6.941997,44.316630,2373 6.941983,44.316632,2373 6.941998,44.316632,2373 6.941991,44.316626,2372 6.941962,44.316618,2374 6.941979,44.316618,2375 6.941959,44.316610,2376 6.941968,44.316596,2377 6.941977,44.316622,2378 6.941986,44.316613,2379 6.942000,44.316609,2379 6.941979,44.316604,2380 6.941974,44.316587,2380 6.941981,44.316598,2381 6.941982,44.316619,2381 6.941988,44.316629,2381 6.941971,44.316631,2381 6.941939,44.316621,2381 6.941964,44.316583,2381 6.941961,44.316583,2381 6.941944,44.316577,2382 6.941966,44.316604,2382 6.942002,44.316599,2382 6.942000,44.316591,2382 6.941950,44.316603,2383 6.941964,44.316595,2382 6.941978,44.316586,2382 6.941948,44.316570,2382 6.941967,44.316620,2381 6.941964,44.316599,2381 6.941961,44.316580,2381 6.941966,44.316570,2381 6.941942,44.316587,2381 6.941956,44.316590,2381 6.941979,44.316594,2381 6.941963,44.316568,2380 6.942003,44.316583,2381 6.942015,44.316629,2381 6.942002,44.316618,2381 6.941944,44.316590,2381 6.941972,44.316598,2380 6.941979,44.316609,2380 6.941996,44.316600,2380 6.941952,44.316593,2380 6.941936,44.316593,2380 6.941984,44.316571,2380 6.941983,44.316598,2380 6.941939,44.316588,2380 6.941888,44.316576,2379 6.941893,44.316576,2379 6.941889,44.316580,2379 6.941909,44.316596,2379 6.941965,44.316622,2379 6.941947,44.316610,2379 6.941953,44.316607,2379 6.941965,44.316606,2380 6.941974,44.316606,2380 6.941960,44.316613,2379 6.941949,44.316638,2379 6.941956,44.316646,2379 6.941922,44.316660,2379 6.941940,44.316609,2379 6.941971,44.316601,2378 6.941996,44.316601,2379 6.941935,44.316580,2379 6.941952,44.316546,2378 6.941916,44.316588,2378 6.941970,44.316600,2378 6.941957,44.316617,2378 6.941952,44.316615,2378 6.941949,44.316615,2378 6.941966,44.316595,2377 6.941952,44.316603,2377 6.941959,44.316616,2378 6.941969,44.316611,2377 6.941975,44.316583,2377 6.941970,44.316582,2377 6.941940,44.316600,2377 6.941961,44.316611,2377 6.941979,44.316593,2376 6.941997,44.316584,2376 6.941968,44.316616,2376 6.941981,44.316628,2376 6.941992,44.316608,2376 6.941979,44.316600,2376 6.941979,44.316618,2376 6.941997,44.316625,2376 6.942013,44.316656,2376 6.941979,44.316689,2377 6.941970,44.316753,2377 6.941917,44.316816,2377 6.941937,44.316811,2377 6.942000,44.316764,2377 6.942046,44.316726,2377 6.942027,44.316639,2377 6.942064,44.316733,2377 6.942065,44.316853,2377 6.942064,44.316887,2377 6.942052,44.316935,2377 6.941997,44.316658,2376 6.942000,44.316620,2376 6.941929,44.316609,2375 6.941946,44.316613,2375 6.941951,44.316611,2375 6.941887,44.316592,2374 6.941927,44.316578,2374 6.941938,44.316644,2375 6.941941,44.316610,2375 6.941950,44.316596,2374 6.941936,44.316596,2374 6.941941,44.316596,2374 6.941950,44.316588,2374 6.941950,44.316587,2374 6.941950,44.316587,2373 6.941940,44.316606,2373 6.941929,44.316588,2373 6.941932,44.316591,2373 6.941918,44.316575,2373 6.941933,44.316593,2373 6.941960,44.316603,2373 6.941993,44.316637,2373 6.941953,44.316603,2373 6.941909,44.316610,2373 6.941917,44.316585,2373 6.941940,44.316582,2373 6.941933,44.316589,2374 6.941936,44.316605,2374 6.941911,44.316611,2374 6.941984,44.316668,2374 6.942024,44.316745,2375 6.941934,44.316612,2375 6.941943,44.316640,2374 6.941938,44.316701,2375 6.941992,44.316620,2374 6.941998,44.316622,2374 6.941979,44.316615,2373 6.941975,44.316608,2373 6.941980,44.316646,2373 6.941963,44.316663,2373 6.941933,44.316662,2373 6.941867,44.316634,2373 6.941929,44.316622,2373 6.941924,44.316629,2373 6.941990,44.316577,2373 6.941918,44.316622,2374 6.941951,44.316632,2374 6.941961,44.316629,2374 6.941983,44.316640,2373 6.941952,44.316629,2373 6.941936,44.316663,2373 6.941961,44.316603,2373 6.941981,44.316624,2373 6.941965,44.316613,2373 6.941979,44.316603,2373 6.941956,44.316594,2373 6.941951,44.316575,2373 6.941937,44.316562,2373 6.941939,44.316580,2373 6.941962,44.316602,2373 6.941971,44.316605,2373 6.941963,44.316612,2373 6.941951,44.316612,2373 6.942000,44.316635,2373 6.941933,44.316585,2373 6.941971,44.316589,2373 6.941967,44.316605,2373 6.941930,44.316609,2373 6.941967,44.316635,2373 6.941961,44.316625,2373 6.941967,44.316602,2373 6.941976,44.316641,2373 6.941991,44.316672,2373 6.941975,44.316624,2373 6.941963,44.316643,2373 6.941955,44.316631,2373 6.941966,44.316632,2373 6.941946,44.316610,2373 6.941984,44.316656,2373 6.942006,44.316641,2373 6.941935,44.316593,2373 6.941934,44.316598,2373 6.941940,44.316623,2373 6.941955,44.316623,2373 6.941966,44.316605,2373</coordinates></LineString></Placemark></Document></kml>