<?xml version="1.0" encoding="UTF-8"?>
<kml xmlns="http://www.opengis.net/kml/2.2"><Document><name>Alta Linea Continua – Stage 17: Bivacco Barenghi to Refuge du Chambeyron</name><Style id="l"><LineStyle><color>ff2b30c4</color><width>4</width></LineStyle></Style><Placemark><name>Alta Linea Continua – Stage 17: Bivacco Barenghi to Refuge du Chambeyron</name><styleUrl>#l</styleUrl><LineString><tessellate>1</tessellate><altitudeMode>clampToGround</altitudeMode><coordinates>6.864527,44.529542,2825 6.864514,44.529582,2825 6.864446,44.529621,2826 6.864445,44.529672,2827 6.864428,44.529693,2829 6.864351,44.529733,2829 6.864237,44.529842,2830 6.864197,44.529871,2830 6.864171,44.530002,2830 6.864203,44.530217,2830 6.864211,44.530232,2830 6.864201,44.530222,2830 6.864190,44.530265,2830 6.864231,44.530233,2830 6.864285,44.530230,2830 6.864422,44.530208,2829 6.864407,44.530208,2829 6.864430,44.530180,2828 6.864441,44.530191,2828 6.864451,44.530185,2828 6.864456,44.530183,2828 6.864383,44.530184,2828 6.864443,44.530198,2828 6.864490,44.530205,2828 6.864425,44.530190,2828 6.864448,44.530197,2829 6.864400,44.530187,2828 6.864277,44.530247,2829 6.864206,44.530224,2830 6.864214,44.530215,2830 6.864271,44.530238,2830 6.864273,44.530242,2830 6.864231,44.530232,2830 6.864294,44.530204,2830 6.864261,44.530242,2830 6.864277,44.530276,2830 6.864209,44.530265,2830 6.864271,44.530264,2830 6.864189,44.530254,2830 6.864197,44.530229,2830 6.864270,44.530238,2831 6.864236,44.530223,2830 6.864290,44.530254,2830 6.864252,44.530338,2831 6.864264,44.530367,2832 6.864252,44.530448,2832 6.864271,44.530559,2832 6.864251,44.530684,2831 6.864270,44.530795,2832 6.864205,44.530944,2831 6.864164,44.531008,2832 6.864114,44.531058,2831 6.864119,44.531171,2830 6.864126,44.531263,2832 6.864101,44.531368,2831 6.864124,44.531407,2831 6.864122,44.531501,2831 6.864143,44.531541,2830 6.864037,44.531604,2831 6.864008,44.531646,2832 6.864044,44.531723,2832 6.864004,44.531784,2834 6.863946,44.531838,2834 6.863928,44.531860,2835 6.863857,44.531928,2835 6.863857,44.531928,2835 6.863834,44.531927,2835 6.863780,44.531929,2836 6.863760,44.531937,2836 6.863690,44.531942,2836 6.863465,44.531973,2836 6.863282,44.532026,2836 6.863137,44.532036,2837 6.863003,44.532046,2837 6.862919,44.532075,2838 6.862753,44.532097,2839 6.862677,44.532124,2841 6.862649,44.532156,2842 6.862605,44.532150,2843 6.862507,44.532149,2844 6.862412,44.532165,2845 6.862384,44.532173,2845 6.862258,44.532197,2845 6.862156,44.532252,2846 6.861932,44.532245,2847 6.861772,44.532301,2847 6.861700,44.532330,2848 6.861632,44.532331,2848 6.861551,44.532363,2849 6.861489,44.532393,2850 6.861428,44.532396,2851 6.861383,44.532412,2852 6.861331,44.532441,2853 6.861290,44.532472,2854 6.861255,44.532505,2855 6.861232,44.532511,2856 6.861204,44.532515,2857 6.861110,44.532514,2859 6.861007,44.532535,2860 6.860949,44.532567,2861 6.860892,44.532578,2863 6.860837,44.532587,2865 6.860792,44.532599,2865 6.860774,44.532610,2866 6.860707,44.532605,2868 6.860681,44.532609,2868 6.860654,44.532605,2868 6.860577,44.532598,2868 6.860609,44.532597,2868 6.860639,44.532608,2868 6.860613,44.532614,2869 6.860598,44.532623,2869 6.860582,44.532622,2870 6.860491,44.532648,2872 6.860451,44.532646,2873 6.860427,44.532641,2874 6.860409,44.532645,2875 6.860381,44.532664,2876 6.860351,44.532684,2878 6.860366,44.532709,2879 6.860350,44.532730,2880 6.860317,44.532731,2880 6.860282,44.532731,2882 6.860252,44.532741,2883 6.860238,44.532754,2884 6.860222,44.532740,2884 6.860215,44.532736,2885 6.860171,44.532767,2886 6.860165,44.532780,2887 6.860156,44.532797,2889 6.860164,44.532812,2890 6.860144,44.532828,2891 6.860124,44.532830,2891 6.860102,44.532845,2892 6.860086,44.532852,2893 6.860064,44.532893,2895 6.860058,44.532904,2896 6.860064,44.532926,2897 6.860034,44.532931,2898 6.859983,44.532938,2899 6.859942,44.532951,2900 6.859931,44.532948,2902 6.859873,44.532953,2903 6.859856,44.532965,2904 6.859850,44.532983,2905 6.859874,44.533012,2906 6.859846,44.533030,2907 6.859819,44.533061,2908 6.859790,44.533063,2910 6.859788,44.533072,2910 6.859802,44.533111,2911 6.859757,44.533095,2912 6.859714,44.533081,2913 6.859705,44.533081,2914 6.859641,44.533080,2916 6.859610,44.533075,2917 6.859538,44.533077,2919 6.859531,44.533085,2920 6.859528,44.533110,2921 6.859511,44.533148,2922 6.859536,44.533175,2922 6.859515,44.533187,2923 6.859503,44.533165,2924 6.859479,44.533169,2926 6.859455,44.533189,2927 6.859433,44.533212,2929 6.859366,44.533196,2930 6.859262,44.533164,2932 6.859263,44.533169,2932 6.859230,44.533202,2932 6.859104,44.533174,2933 6.859029,44.533170,2934 6.858993,44.533167,2934 6.858924,44.533148,2934 6.858829,44.533105,2934 6.858742,44.533074,2935 6.858755,44.533066,2936 6.858711,44.533058,2937 6.858656,44.533053,2938 6.858574,44.533014,2938 6.858513,44.532991,2939 6.858524,44.533033,2939 6.858526,44.533040,2940 6.858475,44.533028,2941 6.858497,44.533033,2943 6.858491,44.533034,2945 6.858430,44.533029,2945 6.858402,44.533036,2946 6.858410,44.532987,2947 6.858287,44.532977,2948 6.858283,44.532963,2948 6.858210,44.532958,2948 6.858153,44.532926,2948 6.858128,44.532907,2947 6.858078,44.532878,2946 6.858042,44.532856,2947 6.858066,44.532899,2947 6.858138,44.532925,2947 6.858145,44.532904,2947 6.858122,44.532914,2948 6.858108,44.532919,2948 6.858104,44.532911,2949 6.858117,44.532935,2948 6.858111,44.532916,2948 6.858063,44.532964,2948 6.858119,44.532929,2948 6.858106,44.532949,2949 6.858089,44.532945,2949 6.858134,44.532951,2948 6.858117,44.532950,2948 6.858144,44.532968,2948 6.858131,44.532946,2948 6.858086,44.532946,2948 6.858111,44.532933,2948 6.858120,44.532933,2948 6.858146,44.532994,2948 6.858140,44.532915,2948 6.858094,44.532963,2949 6.858078,44.532948,2949 6.858090,44.532938,2949 6.858051,44.532926,2949 6.858092,44.532943,2949 6.858101,44.532925,2949 6.858127,44.532933,2949 6.858155,44.532936,2949 6.858144,44.532943,2949 6.858091,44.532969,2949 6.858082,44.532994,2949 6.858053,44.532980,2949 6.858055,44.532937,2949 6.858094,44.532957,2949 6.858100,44.532939,2950 6.858082,44.532964,2950 6.858075,44.532936,2950 6.858061,44.532943,2950 6.858118,44.532955,2950 6.858063,44.532946,2950 6.858081,44.532983,2949 6.858081,44.532988,2949 6.858078,44.532978,2949 6.858078,44.532957,2949 6.858110,44.532919,2949 6.858110,44.532929,2949 6.858187,44.532897,2950 6.858192,44.532884,2950 6.858198,44.532869,2950 6.858134,44.532934,2951 6.858070,44.532996,2949 6.858096,44.532996,2949 6.858099,44.532993,2949 6.858102,44.532991,2949 6.858059,44.532953,2949 6.858085,44.532953,2949 6.858120,44.532932,2949 6.858071,44.532945,2949 6.858053,44.532990,2949 6.858087,44.532973,2949 6.858128,44.532907,2949 6.858002,44.532980,2949 6.858024,44.532981,2949 6.858023,44.532985,2949 6.857982,44.532943,2949 6.858036,44.532952,2949 6.858066,44.532984,2949 6.858116,44.532913,2949 6.858105,44.532895,2949 6.858079,44.532869,2949 6.858073,44.532878,2949 6.858082,44.532894,2949 6.858054,44.532876,2948 6.858064,44.532931,2948 6.858040,44.532988,2949 6.858064,44.532966,2949 6.858110,44.532943,2950 6.858058,44.532975,2951 6.858066,44.532968,2950 6.858092,44.532928,2949 6.858096,44.532894,2948 6.858005,44.532863,2949 6.857939,44.532848,2950 6.857903,44.532855,2950 6.857903,44.532863,2950 6.857903,44.532857,2950 6.857908,44.532854,2951 6.857921,44.532853,2951 6.857949,44.532833,2951 6.857904,44.532809,2951 6.857874,44.532788,2952 6.857789,44.532724,2953 6.857772,44.532735,2954 6.857723,44.532718,2955 6.857641,44.532674,2956 6.857665,44.532686,2956 6.857669,44.532681,2956 6.857601,44.532642,2955 6.857638,44.532640,2955 6.857644,44.532625,2954 6.857651,44.532614,2953 6.857619,44.532546,2955 6.857621,44.532540,2955 6.857629,44.532473,2956 6.857618,44.532456,2957 6.857604,44.532431,2958 6.857584,44.532392,2960 6.857568,44.532384,2961 6.857544,44.532376,2961 6.857510,44.532338,2963 6.857479,44.532301,2964 6.857488,44.532279,2965 6.857489,44.532270,2965 6.857463,44.532251,2967 6.857416,44.532207,2968 6.857451,44.532157,2968 6.857491,44.532107,2968 6.857495,44.532095,2969 6.857456,44.532049,2969 6.857475,44.532015,2970 6.857446,44.531981,2971 6.857421,44.531960,2971 6.857428,44.531901,2971 6.857434,44.531913,2971 6.857460,44.531847,2971 6.857414,44.531846,2971 6.857430,44.531883,2971 6.857413,44.531889,2971 6.857422,44.531895,2971 6.857368,44.531919,2972 6.857336,44.531919,2973 6.857353,44.531939,2974 6.857322,44.531951,2976 6.857291,44.531985,2976 6.857277,44.532004,2977 6.857257,44.531998,2978 6.857240,44.531970,2978 6.857231,44.531970,2978 6.857238,44.532002,2979 6.857192,44.531994,2980 6.857201,44.532002,2981 6.857229,44.532007,2981 6.857183,44.532003,2982 6.857197,44.531988,2982 6.857225,44.531914,2983 6.857228,44.531923,2983 6.857183,44.531962,2984 6.857169,44.531964,2985 6.857157,44.531942,2986 6.857089,44.531941,2987 6.857115,44.531966,2987 6.857112,44.531929,2988 6.857068,44.531921,2989 6.857093,44.531917,2990 6.857073,44.531924,2991 6.857095,44.531935,2992 6.857075,44.531926,2993 6.857036,44.531909,2994 6.857043,44.531909,2994 6.857027,44.531914,2995 6.857016,44.531941,2996 6.857036,44.531904,2996 6.857024,44.531901,2996 6.857035,44.531906,2997 6.856981,44.531887,2998 6.856985,44.531903,2999 6.857019,44.531884,2999 6.856985,44.531869,3000 6.856979,44.531860,3001 6.857010,44.531828,3001 6.856992,44.531830,3002 6.856987,44.531797,3002 6.856975,44.531798,3003 6.857007,44.531747,3002 6.856963,44.531700,3002 6.856926,44.531676,3002 6.856928,44.531692,3002 6.856920,44.531662,3002 6.856923,44.531695,3002 6.856936,44.531675,3002 6.856915,44.531696,3002 6.856874,44.531659,3003 6.856884,44.531675,3003 6.856912,44.531657,3003 6.856927,44.531652,3002 6.856894,44.531656,3002 6.856886,44.531643,3002 6.856861,44.531610,3002 6.856867,44.531629,3002 6.856857,44.531605,3002 6.856852,44.531581,3002 6.856895,44.531563,3002 6.856880,44.531532,3002 6.856919,44.531497,3002 6.856934,44.531489,3002 6.856891,44.531499,3003 6.856822,44.531498,3003 6.856851,44.531590,3004 6.856839,44.531550,3005 6.856805,44.531506,3005 6.856831,44.531531,3006 6.856827,44.531550,3007 6.856835,44.531541,3008 6.856816,44.531554,3008 6.856895,44.531611,3009 6.856860,44.531555,3009 6.856819,44.531588,3009 6.856837,44.531607,3009 6.856836,44.531629,3009 6.856835,44.531648,3010 6.856813,44.531630,3011 6.856805,44.531602,3011 6.856773,44.531608,3012 6.856778,44.531620,3013 6.856732,44.531608,3014 6.856730,44.531578,3014 6.856738,44.531616,3015 6.856727,44.531622,3016 6.856684,44.531600,3016 6.856683,44.531597,3017 6.856660,44.531576,3017 6.856642,44.531570,3018 6.856630,44.531557,3018 6.856631,44.531545,3019 6.856617,44.531538,3019 6.856618,44.531551,3020 6.856592,44.531523,3021 6.856569,44.531529,3022 6.856590,44.531558,3023 6.856561,44.531528,3023 6.856573,44.531552,3024 6.856542,44.531547,3025 6.856519,44.531556,3026 6.856531,44.531541,3027 6.856526,44.531536,3027 6.856499,44.531534,3029 6.856487,44.531511,3030 6.856517,44.531492,3030 6.856536,44.531494,3032 6.856480,44.531491,3032 6.856472,44.531474,3033 6.856506,44.531456,3034 6.856448,44.531475,3035 6.856511,44.531449,3035 6.856448,44.531441,3036 6.856400,44.531447,3037 6.856391,44.531467,3038 6.856384,44.531447,3040 6.856378,44.531447,3040 6.856384,44.531438,3041 6.856374,44.531454,3042 6.856363,44.531449,3043 6.856380,44.531417,3043 6.856409,44.531405,3044 6.856347,44.531399,3046 6.856306,44.531393,3046 6.856318,44.531384,3048 6.856330,44.531380,3048 6.856333,44.531361,3050 6.856333,44.531342,3051 6.856335,44.531327,3052 6.856339,44.531324,3053 6.856348,44.531305,3054 6.856342,44.531301,3055 6.856340,44.531293,3056 6.856367,44.531272,3057 6.856367,44.531276,3057 6.856356,44.531273,3057 6.856372,44.531279,3058 6.856384,44.531251,3058 6.856348,44.531261,3059 6.856337,44.531256,3060 6.856322,44.531225,3061 6.856332,44.531219,3063 6.856346,44.531192,3065 6.856360,44.531170,3065 6.856316,44.531202,3066 6.856364,44.531203,3066 6.856375,44.531218,3066 6.856377,44.531206,3066 6.856384,44.531199,3067 6.856388,44.531192,3067 6.856325,44.531198,3068 6.856269,44.531198,3068 6.856318,44.531213,3068 6.856365,44.531176,3069 6.856426,44.531247,3069 6.856365,44.531243,3069 6.856325,44.531222,3069 6.856295,44.531185,3069 6.856312,44.531200,3069 6.856340,44.531256,3069 6.856323,44.531140,3069 6.856381,44.531156,3069 6.856351,44.531121,3070 6.856311,44.531177,3069 6.856311,44.531199,3069 6.856349,44.531194,3069 6.856347,44.531204,3070 6.856374,44.531197,3069 6.856304,44.531188,3069 6.856397,44.531153,3069 6.856318,44.531209,3070 6.856318,44.531223,3070 6.856348,44.531202,3070 6.856301,44.531246,3070 6.856315,44.531199,3071 6.856345,44.531186,3070 6.856326,44.531203,3071 6.856324,44.531201,3071 6.856272,44.531256,3071 6.856316,44.531228,3072 6.856305,44.531228,3072 6.856306,44.531217,3072 6.856330,44.531200,3072 6.856255,44.531239,3073 6.856251,44.531249,3073 6.856312,44.531194,3073 6.856275,44.531240,3072 6.856313,44.531202,3074 6.856317,44.531196,3073 6.856311,44.531206,3073 6.856316,44.531195,3073 6.856322,44.531214,3073 6.856323,44.531245,3071 6.856310,44.531270,3071 6.856302,44.531249,3071 6.856298,44.531245,3071 6.856315,44.531259,3071 6.856331,44.531265,3070 6.856331,44.531266,3070 6.856332,44.531267,3069 6.856334,44.531278,3069 6.856312,44.531271,3069 6.856322,44.531294,3067 6.856320,44.531297,3067 6.856302,44.531286,3067 6.856349,44.531316,3067 6.856319,44.531303,3068 6.856316,44.531300,3069 6.856356,44.531285,3069 6.856387,44.531294,3069 6.856333,44.531285,3069 6.856306,44.531279,3067 6.856295,44.531298,3067 6.856360,44.531314,3067 6.856292,44.531325,3068 6.856337,44.531325,3068 6.856346,44.531331,3068 6.856318,44.531282,3069 6.856358,44.531300,3069 6.856380,44.531314,3069 6.856350,44.531307,3069 6.856297,44.531279,3069 6.856398,44.531261,3070 6.856389,44.531224,3070 6.856371,44.531265,3070 6.856313,44.531280,3070 6.856322,44.531280,3071 6.856298,44.531266,3070 6.856373,44.531295,3070 6.856362,44.531275,3070 6.856354,44.531247,3070 6.856286,44.531216,3069 6.856264,44.531177,3069 6.856304,44.531179,3069 6.856299,44.531212,3069 6.856292,44.531206,3070 6.856263,44.531194,3069 6.856200,44.531152,3069 6.856146,44.531158,3070 6.856165,44.531210,3070 6.856194,44.531260,3070 6.856213,44.531268,3070 6.856296,44.531283,3071 6.856322,44.531268,3071 6.856345,44.531270,3071 6.856348,44.531254,3071 6.856357,44.531244,3072 6.856318,44.531291,3072 6.856300,44.531271,3072 6.856310,44.531238,3072 6.856327,44.531253,3072 6.856322,44.531257,3071 6.856327,44.531283,3070 6.856357,44.531271,3069 6.856363,44.531306,3068 6.856317,44.531315,3068 6.856361,44.531303,3067 6.856349,44.531318,3067 6.856346,44.531324,3066 6.856360,44.531325,3066 6.856402,44.531327,3065 6.856405,44.531331,3064 6.856378,44.531384,3064 6.856362,44.531387,3064 6.856420,44.531380,3063 6.856406,44.531380,3063 6.856408,44.531397,3062 6.856371,44.531391,3061 6.856359,44.531399,3060 6.856369,44.531414,3059 6.856381,44.531376,3058 6.856464,44.531351,3058 6.856427,44.531365,3057 6.856415,44.531444,3057 6.856424,44.531422,3056 6.856435,44.531445,3056 6.856444,44.531449,3056 6.856464,44.531486,3055 6.856459,44.531476,3055 6.856445,44.531425,3054 6.856451,44.531459,3053 6.856442,44.531498,3052 6.856441,44.531514,3050 6.856451,44.531547,3048 6.856419,44.531554,3048 6.856399,44.531547,3048 6.856466,44.531598,3048 6.856522,44.531659,3048 6.856536,44.531724,3047 6.856546,44.531654,3047 6.856582,44.531668,3047 6.856592,44.531700,3045 6.856589,44.531711,3045 6.856574,44.531712,3044 6.856628,44.531711,3043 6.856641,44.531756,3042 6.856623,44.531757,3041 6.856631,44.531738,3040 6.856626,44.531762,3039 6.856646,44.531780,3037 6.856701,44.531772,3036 6.856731,44.531819,3035 6.856761,44.531845,3034 6.856689,44.531785,3033 6.856768,44.531824,3032 6.856747,44.531852,3031 6.856675,44.531853,3030 6.856648,44.531861,3030 6.856797,44.531891,3029 6.856826,44.531881,3028 6.856892,44.531914,3027 6.856835,44.531910,3026 6.856851,44.531893,3026 6.856892,44.531851,3026 6.856847,44.531867,3026 6.856781,44.531864,3025 6.856749,44.531907,3024 6.856782,44.531925,3023 6.856780,44.531902,3023 6.856925,44.532002,3023 6.856907,44.531996,3023 6.856871,44.531992,3023 6.856882,44.531952,3023 6.856852,44.531936,3022 6.856815,44.531921,3021 6.856796,44.531949,3020 6.856828,44.532013,3019 6.856778,44.531996,3019 6.856784,44.532032,3017 6.856863,44.532054,3016 6.856842,44.532034,3016 6.856829,44.532052,3015 6.856902,44.532065,3015 6.856816,44.532095,3014 6.856878,44.532035,3014 6.856828,44.532007,3014 6.856909,44.532140,3013 6.856920,44.532142,3013 6.856849,44.532093,3013 6.856914,44.532103,3013 6.856963,44.532131,3013 6.856948,44.532140,3013 6.856937,44.532128,3013 6.856965,44.532148,3013 6.856916,44.532143,3012 6.856948,44.532168,3011 6.856988,44.532176,3012 6.856917,44.532144,3012 6.856902,44.532164,3011 6.856947,44.532131,3012 6.856883,44.532138,3011 6.856837,44.532142,3011 6.856905,44.532179,3009 6.856964,44.532200,3008 6.856896,44.532201,3008 6.856942,44.532232,3007 6.856971,44.532231,3006 6.856984,44.532196,3006 6.857003,44.532232,3005 6.857026,44.532263,3004 6.857034,44.532286,3002 6.857092,44.532340,3001 6.857171,44.532357,3001 6.857174,44.532344,3001 6.857049,44.532384,3001 6.857016,44.532403,3001 6.857067,44.532410,3001 6.857067,44.532400,3001 6.857048,44.532380,3001 6.857089,44.532388,3001 6.857021,44.532360,3001 6.857013,44.532388,3001 6.856975,44.532456,3001 6.857003,44.532430,3001 6.857124,44.532430,3001 6.857136,44.532402,3001 6.857161,44.532384,3001 6.857202,44.532359,3001 6.857123,44.532331,3001 6.857119,44.532380,3001 6.857215,44.532390,3001 6.857196,44.532331,3001 6.857188,44.532354,3001 6.857169,44.532394,3001 6.857129,44.532421,3000 6.857130,44.532412,2999 6.857137,44.532391,2999 6.857149,44.532435,2998 6.857191,44.532471,2997 6.857184,44.532466,2997 6.857211,44.532467,2997 6.857145,44.532484,2996 6.857132,44.532510,2995 6.857185,44.532530,2993 6.857211,44.532528,2992 6.857222,44.532514,2992 6.857196,44.532522,2992 6.857215,44.532511,2992 6.857206,44.532531,2992 6.857211,44.532519,2992 6.857216,44.532540,2992 6.857223,44.532552,2992 6.857218,44.532553,2992 6.857237,44.532535,2992 6.857274,44.532602,2991 6.857238,44.532655,2990 6.857250,44.532656,2989 6.857289,44.532684,2988 6.857373,44.532703,2987 6.857416,44.532755,2988 6.857455,44.532791,2989 6.857429,44.532803,2989 6.857491,44.532817,2988 6.857533,44.532831,2988 6.857588,44.532836,2987 6.857581,44.532841,2987 6.857587,44.532856,2987 6.857624,44.532877,2987 6.857623,44.532875,2987 6.857649,44.532875,2985 6.857650,44.532833,2984 6.857622,44.532793,2982 6.857667,44.532789,2981 6.857670,44.532769,2980 6.857650,44.532780,2979 6.857692,44.532763,2979 6.857685,44.532779,2978 6.857749,44.532737,2978 6.857676,44.532770,2976 6.857716,44.532831,2976 6.857773,44.532804,2976 6.857787,44.532788,2976 6.857799,44.532775,2975 6.857867,44.532750,2974 6.857875,44.532763,2973 6.857926,44.532843,2972 6.857986,44.532851,2972 6.858078,44.532901,2971 6.858095,44.532882,2972 6.858076,44.532919,2972 6.858077,44.532900,2972 6.858107,44.532940,2972 6.858040,44.532932,2971 6.858025,44.532932,2971 6.858086,44.532946,2970 6.858113,44.532963,2970 6.858058,44.532935,2970 6.858011,44.532915,2970 6.857995,44.532919,2970 6.858045,44.532921,2970 6.858090,44.532924,2969 6.858060,44.532891,2969 6.858130,44.532912,2969 6.858081,44.532919,2968 6.858081,44.532939,2968 6.858042,44.532919,2968 6.858078,44.532944,2967 6.858057,44.532943,2967 6.858054,44.532944,2967 6.858037,44.532917,2966 6.858040,44.532938,2966 6.858060,44.532937,2966 6.858082,44.532931,2966 6.858070,44.532928,2965 6.858081,44.532933,2966 6.858087,44.532940,2966 6.858085,44.532928,2965 6.858076,44.532932,2964 6.858063,44.532944,2963 6.858081,44.532937,2963 6.858120,44.532935,2963 6.858100,44.532924,2963 6.858025,44.532916,2962 6.858051,44.532897,2962 6.858101,44.532902,2961 6.858141,44.532900,2961 6.858086,44.532923,2961 6.858047,44.532902,2960 6.858094,44.532898,2960 6.858084,44.532917,2960 6.857994,44.532960,2956 6.858133,44.532977,2956 6.858191,44.532986,2956 6.858189,44.532995,2956 6.858086,44.532968,2956 6.858093,44.532973,2957 6.858094,44.532982,2957 6.858031,44.532998,2957 6.858016,44.533014,2958 6.858000,44.533022,2959 6.857982,44.533008,2960 6.857972,44.533008,2960 6.857869,44.532972,2961 6.857822,44.532949,2962 6.857786,44.532947,2963 6.857785,44.532926,2964 6.857786,44.532940,2964 6.857773,44.532976,2965 6.857690,44.532959,2966 6.857680,44.532958,2967 6.857673,44.532968,2969 6.857696,44.532984,2970 6.857773,44.533034,2970 6.857709,44.533094,2972 6.857689,44.533130,2973 6.857754,44.533125,2974 6.857774,44.533149,2976 6.857735,44.533178,2977 6.857711,44.533204,2979 6.857712,44.533228,2980 6.857728,44.533246,2982 6.857789,44.533291,2982 6.857826,44.533329,2982 6.857825,44.533461,2981 6.857815,44.533505,2982 6.857764,44.533534,2984 6.857775,44.533593,2985 6.857769,44.533615,2985 6.857786,44.533645,2986 6.857809,44.533645,2987 6.857766,44.533669,2988 6.857721,44.533709,2989 6.857676,44.533735,2990 6.857643,44.533762,2990 6.857608,44.533789,2991 6.857612,44.533825,2992 6.857578,44.533887,2991 6.857561,44.533906,2990 6.857479,44.533922,2989 6.857439,44.533923,2988 6.857470,44.533948,2988 6.857657,44.534003,2988 6.857673,44.534005,2987 6.857782,44.534026,2985 6.857797,44.534039,2985 6.857799,44.534041,2983 6.857845,44.534035,2982 6.857889,44.534054,2981 6.857943,44.534158,2979 6.857936,44.534161,2979 6.857916,44.534197,2978 6.857910,44.534212,2977 6.857910,44.534241,2976 6.857909,44.534264,2975 6.857878,44.534317,2973 6.857887,44.534362,2972 6.857878,44.534432,2971 6.857871,44.534419,2971 6.857851,44.534424,2971 6.857871,44.534443,2970 6.857859,44.534453,2969 6.857862,44.534464,2968 6.857844,44.534471,2967 6.857819,44.534473,2966 6.857799,44.534473,2964 6.857763,44.534472,2963 6.857757,44.534463,2962 6.857754,44.534447,2962 6.857733,44.534456,2961 6.857730,44.534479,2960 6.857718,44.534489,2960 6.857700,44.534492,2959 6.857696,44.534458,2958 6.857669,44.534470,2957 6.857657,44.534487,2956 6.857628,44.534475,2955 6.857620,44.534478,2954 6.857583,44.534463,2953 6.857539,44.534451,2952 6.857541,44.534445,2950 6.857569,44.534466,2949 6.857523,44.534460,2949 6.857511,44.534468,2948 6.857509,44.534481,2947 6.857481,44.534477,2946 6.857464,44.534481,2945 6.857460,44.534462,2945 6.857443,44.534485,2944 6.857429,44.534502,2943 6.857413,44.534487,2942 6.857390,44.534472,2941 6.857384,44.534475,2940 6.857396,44.534477,2939 6.857355,44.534472,2939 6.857338,44.534454,2938 6.857394,44.534450,2938 6.857325,44.534463,2938 6.857309,44.534475,2937 6.857293,44.534483,2937 6.857274,44.534484,2936 6.857259,44.534492,2935 6.857261,44.534502,2934 6.857283,44.534517,2933 6.857294,44.534523,2932 6.857293,44.534528,2932 6.857290,44.534532,2932 6.857255,44.534532,2932 6.857241,44.534550,2931 6.857240,44.534573,2931 6.857197,44.534557,2930 6.857202,44.534555,2930 6.857182,44.534565,2929 6.857174,44.534587,2928 6.857177,44.534590,2927 6.857176,44.534612,2926 6.857175,44.534614,2925 6.857183,44.534620,2924 6.857198,44.534640,2923 6.857207,44.534651,2923 6.857212,44.534642,2922 6.857221,44.534649,2921 6.857254,44.534696,2920 6.857247,44.534693,2919 6.857231,44.534725,2918 6.857228,44.534690,2917 6.857217,44.534746,2917 6.857211,44.534756,2917 6.857194,44.534766,2916 6.857181,44.534777,2914 6.857188,44.534768,2913 6.857177,44.534771,2913 6.857169,44.534792,2912 6.857165,44.534796,2912 6.857155,44.534811,2911 6.857142,44.534821,2909 6.857122,44.534868,2908 6.857119,44.534877,2907 6.857132,44.534862,2906 6.857142,44.534847,2905 6.857136,44.534875,2904 6.857125,44.534872,2903 6.857107,44.534910,2902 6.857080,44.534925,2902 6.857044,44.534926,2900 6.857063,44.534927,2899 6.857052,44.534948,2898 6.857027,44.534947,2896 6.857024,44.534967,2895 6.857018,44.534991,2894 6.856973,44.534979,2893 6.856970,44.535004,2892 6.856949,44.535045,2891 6.856970,44.535071,2890 6.857007,44.535099,2888 6.857010,44.535116,2888 6.857015,44.535130,2887 6.857022,44.535142,2887 6.857058,44.535146,2886 6.857027,44.535149,2886 6.856964,44.535166,2885 6.856881,44.535169,2884 6.856809,44.535155,2883 6.856717,44.535159,2882 6.856667,44.535151,2880 6.856712,44.535185,2879 6.856727,44.535243,2877 6.856719,44.535284,2875 6.856679,44.535310,2874 6.856645,44.535350,2872 6.856614,44.535363,2871 6.856525,44.535387,2870 6.856511,44.535410,2869 6.856491,44.535453,2867 6.856458,44.535472,2867 6.856450,44.535478,2866 6.856456,44.535517,2864 6.856430,44.535543,2863 6.856420,44.535570,2862 6.856440,44.535600,2863 6.856442,44.535596,2862 6.856409,44.535536,2862 6.856437,44.535543,2862 6.856441,44.535534,2862 6.856428,44.535601,2861 6.856475,44.535693,2860 6.856484,44.535762,2858 6.856533,44.535818,2857 6.856520,44.535853,2856 6.856560,44.535876,2854 6.856568,44.535949,2854 6.856518,44.535981,2852 6.856468,44.536019,2850 6.856493,44.536049,2850 6.856620,44.536119,2849 6.856666,44.536188,2848 6.856716,44.536233,2846 6.856738,44.536267,2846 6.856753,44.536322,2845 6.856788,44.536388,2844 6.856810,44.536452,2843 6.856791,44.536536,2842 6.856748,44.536682,2842 6.856744,44.536791,2843 6.856733,44.536813,2844 6.856718,44.536793,2844 6.856703,44.536779,2844 6.856794,44.536862,2844 6.856696,44.536839,2844 6.856676,44.536819,2843 6.856730,44.536844,2843 6.856672,44.536856,2842 6.856553,44.536874,2841 6.856373,44.536890,2840 6.856238,44.536846,2839 6.856113,44.536806,2838 6.855935,44.536799,2837 6.855835,44.536847,2837 6.855653,44.536879,2836 6.855580,44.536872,2836 6.855470,44.536831,2836 6.855433,44.536852,2835 6.855351,44.536897,2833 6.855291,44.536924,2832 6.855251,44.536923,2830 6.855187,44.536935,2828 6.855096,44.536936,2827 6.854999,44.536948,2826 6.854798,44.536949,2824 6.854726,44.536974,2822 6.854651,44.536955,2821 6.854605,44.536946,2820 6.854498,44.536915,2818 6.854441,44.536898,2817 6.854376,44.536911,2816 6.854382,44.536945,2815 6.854372,44.537021,2814 6.854278,44.537079,2813 6.854159,44.537121,2812 6.854112,44.537150,2811 6.854005,44.537197,2810 6.853890,44.537248,2808 6.853808,44.537265,2807 6.853742,44.537282,2805 6.853653,44.537292,2803 6.853516,44.537256,2803 6.853432,44.537249,2803 6.853393,44.537253,2803 6.853382,44.537249,2804 6.853345,44.537295,2804 6.853200,44.537405,2806 6.853133,44.537484,2807 6.853108,44.537491,2808 6.853043,44.537478,2809 6.853023,44.537501,2810 6.853002,44.537540,2811 6.852961,44.537563,2812 6.852913,44.537579,2813 6.852853,44.537613,2815 6.852699,44.537628,2817 6.852584,44.537597,2818 6.852397,44.537585,2817 6.852271,44.537577,2815 6.852226,44.537587,2815 6.852219,44.537599,2814 6.852253,44.537587,2814 6.852277,44.537589,2815 6.852242,44.537583,2813 6.852175,44.537578,2814 6.852216,44.537563,2814 6.852257,44.537511,2814 6.852246,44.537558,2814 6.852191,44.537550,2814 6.852254,44.537573,2814 6.852300,44.537619,2814 6.852216,44.537550,2813 6.852228,44.537549,2813 6.852235,44.537527,2813 6.852242,44.537540,2813 6.852240,44.537587,2813 6.852226,44.537523,2813 6.852214,44.537567,2813 6.852214,44.537579,2813 6.852224,44.537573,2813 6.852221,44.537560,2813 6.852220,44.537568,2813 6.852200,44.537610,2813 6.852193,44.537546,2812 6.852170,44.537534,2811 6.852138,44.537550,2810 6.852068,44.537517,2809 6.852021,44.537441,2807 6.851977,44.537413,2806 6.851925,44.537415,2804 6.851908,44.537432,2804 6.851885,44.537461,2802 6.851840,44.537457,2802 6.851737,44.537448,2800 6.851515,44.537415,2800 6.851250,44.537399,2799 6.851107,44.537367,2799 6.850979,44.537337,2801 6.850910,44.537324,2803 6.850881,44.537319,2803 6.850812,44.537235,2805 6.850757,44.537173,2807 6.850721,44.537108,2808 6.850688,44.537109,2808 6.850652,44.537122,2809 6.850454,44.537099,2809 6.850309,44.537057,2808 6.850234,44.537031,2810 6.850201,44.536997,2811 6.850160,44.536948,2812 6.850127,44.536899,2813 6.850061,44.536837,2814 6.849964,44.536745,2813 6.849885,44.536686,2811 6.849758,44.536624,2811 6.849642,44.536576,2809 6.849540,44.536534,2807 6.849503,44.536505,2805 6.849462,44.536475,2805 6.849412,44.536451,2803 6.849346,44.536455,2802 6.849293,44.536449,2801 6.849175,44.536405,2799 6.849140,44.536370,2798 6.849120,44.536338,2797 6.849085,44.536321,2795 6.848979,44.536290,2793 6.848855,44.536244,2791 6.848778,44.536214,2790 6.848670,44.536080,2789 6.848609,44.536048,2788 6.848485,44.535993,2787 6.848336,44.535896,2786 6.848262,44.535832,2786 6.848168,44.535716,2787 6.848111,44.535560,2787 6.848089,44.535462,2789 6.848048,44.535398,2790 6.848005,44.535323,2791 6.847975,44.535220,2791 6.847949,44.535140,2792 6.847946,44.535104,2792 6.847923,44.535120,2792 6.847897,44.535136,2793 6.847899,44.535138,2793 6.847900,44.535119,2793 6.847905,44.535139,2793 6.847913,44.535145,2793 6.847892,44.535098,2793 6.847908,44.535015,2793 6.847900,44.534990,2794 6.847796,44.534849,2792 6.847775,44.534768,2792 6.847762,44.534700,2793 6.847762,44.534631,2794 6.847711,44.534570,2795 6.847673,44.534522,2793 6.847638,44.534407,2791 6.847608,44.534342,2790 6.847552,44.534257,2789 6.847528,44.534200,2788 6.847437,44.534061,2788 6.847327,44.533926,2788 6.847281,44.533845,2787 6.847181,44.533732,2789 6.847125,44.533739,2789 6.847093,44.533721,2789 6.847056,44.533689,2790 6.846955,44.533592,2790 6.846812,44.533516,2790 6.846656,44.533433,2789 6.846648,44.533393,2787 6.846610,44.533376,2786 6.846394,44.533358,2785 6.846416,44.533365,2786 6.846354,44.533334,2785 6.846284,44.533321,2784 6.846180,44.533324,2782 6.846102,44.533322,2781 6.846063,44.533317,2779 6.846025,44.533308,2777 6.846004,44.533316,2776 6.845929,44.533310,2774 6.845695,44.533293,2772 6.845547,44.533252,2770 6.845421,44.533181,2769 6.845362,44.533146,2769 6.845199,44.533093,2768 6.845083,44.533070,2766 6.844987,44.533049,2765 6.844925,44.533054,2763 6.844797,44.533038,2762 6.844682,44.533023,2760 6.844624,44.533027,2759 6.844572,44.533035,2759 6.844467,44.533032,2758 6.844346,44.533006,2757 6.844253,44.533034,2757 6.844074,44.533089,2758 6.843889,44.533124,2758 6.843830,44.533132,2757 6.843769,44.533123,2755 6.843653,44.533071,2753 6.843622,44.533040,2752 6.843507,44.533028,2749 6.843441,44.533026,2748 6.843417,44.533002,2747 6.843408,44.532968,2746 6.843378,44.532960,2744 6.843325,44.532970,2743 6.843297,44.532987,2742 6.843222,44.532991,2740 6.843167,44.532941,2738 6.843191,44.532892,2737 6.843179,44.532893,2736 6.843151,44.532913,2736 6.843067,44.532905,2734 6.843025,44.532902,2733 6.842915,44.532940,2730 6.842794,44.532958,2730 6.842744,44.532986,2728 6.842681,44.533008,2727 6.842617,44.533024,2725 6.842427,44.533002,2725 6.842265,44.532954,2725 6.842167,44.533003,2724 6.842098,44.533056,2722 6.842051,44.533082,2721 6.841974,44.533142,2718 6.841919,44.533211,2716 6.841863,44.533242,2715 6.841722,44.533319,2713 6.841699,44.533372,2712 6.841630,44.533421,2710 6.841543,44.533469,2708 6.841544,44.533539,2706 6.841516,44.533603,2705 6.841410,44.533635,2702 6.841205,44.533639,2701 6.841003,44.533525,2699 6.840922,44.533483,2697 6.840870,44.533454,2695 6.840673,44.533321,2695 6.840513,44.533200,2695 6.840340,44.533126,2694 6.840264,44.533110,2693 6.840198,44.533114,2692 6.840138,44.533106,2691 6.840110,44.533056,2689 6.840121,44.533046,2687 6.840105,44.533024,2685 6.840082,44.533002,2684 6.840084,44.532980,2682 6.840091,44.532942,2681 6.840099,44.532917,2679 6.840123,44.532874,2678 6.840080,44.532871,2677 6.840001,44.532922,2675 6.839860,44.532952,2674 6.839750,44.532966,2673 6.839652,44.532931,2672 6.839549,44.532879,2671 6.839457,44.532838,2668 6.839382,44.532790,2666 6.839264,44.532759,2665 6.839197,44.532765,2664 6.839157,44.532756,2664 6.839069,44.532726,2662 6.838991,44.532702,2661 6.838932,44.532697,2660 6.838841,44.532679,2659 6.838740,44.532743,2658 6.838683,44.532779,2657 6.838616,44.532782,2656 6.838576,44.532772,2655 6.838493,44.532747,2653 6.838432,44.532733,2652 6.838439,44.532708,2651 6.838446,44.532673,2649 6.838416,44.532661,2647 6.838361,44.532655,2646 6.838231,44.532613,2644 6.838192,44.532568,2643 6.838104,44.532465,2641 6.838048,44.532447,2641 6.837914,44.532398,2639 6.837833,44.532352,2638 6.837783,44.532303,2636 6.837730,44.532271,2634 6.837661,44.532269,2632 6.837538,44.532243,2631 6.837344,44.532159,2629 6.837342,44.532007,2631 6.837258,44.531894,2630 6.837141,44.531766,2629 6.837098,44.531613,2628 6.837046,44.531535,2627 6.836981,44.531439,2626 6.836916,44.531325,2625 6.836792,44.531271,2623 6.836752,44.531229,2622 6.836704,44.531170,2620 6.836573,44.531126,2619 6.836466,44.531041,2618 6.836409,44.530996,2617 6.836335,44.530906,2617 6.836202,44.530707,2618 6.836166,44.530503,2618 6.836123,44.530414,2618 6.836100,44.530264,2620 6.836058,44.530126,2620 6.836023,44.530108,2622 6.836056,44.530121,2622 6.836026,44.530120,2622 6.836028,44.530076,2622 6.836023,44.530023,2621 6.835967,44.530059,2622 6.835947,44.530052,2622 6.835958,44.530049,2622 6.836030,44.530120,2622 6.836065,44.530170,2622 6.836055,44.530175,2622 6.835940,44.530171,2622 6.835921,44.530144,2622 6.835897,44.530175,2623 6.835984,44.530182,2622 6.836030,44.530139,2622 6.835973,44.530079,2621 6.835937,44.530066,2621 6.835766,44.529999,2622 6.835778,44.529983,2622 6.835744,44.529970,2621 6.836042,44.530028,2622 6.836187,44.530023,2622 6.836056,44.530068,2621 6.836054,44.530114,2622 6.835973,44.530169,2621 6.835928,44.530143,2622 6.835938,44.530150,2621 6.835952,44.530167,2622 6.836007,44.530141,2621 6.835948,44.530148,2621 6.835910,44.530155,2621 6.836013,44.530036,2622 6.836001,44.530040,2621 6.835960,44.529974,2621 6.835993,44.529959,2621 6.835989,44.529951,2621 6.835983,44.529949,2621 6.835987,44.529971,2621 6.835964,44.529963,2622 6.835990,44.529960,2621 6.835968,44.530012,2621 6.835975,44.530005,2621 6.835972,44.529996,2621 6.836004,44.529981,2621 6.835986,44.529956,2621 6.836005,44.529924,2620 6.836026,44.529971,2621 6.835983,44.529977,2621 6.836001,44.529968,2621 6.835975,44.530008,2621 6.836020,44.530021,2621 6.836060,44.530025,2620 6.836036,44.530023,2620 6.835956,44.530082,2621 6.835996,44.530145,2621 6.835976,44.530158,2621 6.835973,44.530150,2621 6.835924,44.530123,2621 6.836017,44.530148,2621 6.835938,44.530142,2621 6.835801,44.530127,2621 6.835773,44.530111,2622 6.835807,44.530112,2622 6.835877,44.530132,2621 6.836076,44.530188,2621 6.835981,44.530178,2621 6.835938,44.530176,2621 6.835923,44.530161,2621 6.835925,44.530149,2620 6.835931,44.530154,2620 6.835945,44.530143,2621 6.835973,44.530156,2621 6.835956,44.530147,2621 6.835956,44.530144,2621 6.835932,44.530148,2621 6.835947,44.530154,2621 6.835946,44.530159,2622 6.835944,44.530166,2621 6.835927,44.530138,2621 6.835928,44.530157,2621 6.835940,44.530164,2621 6.835927,44.530129,2621 6.835928,44.530174,2621 6.835947,44.530188,2621 6.835962,44.530144,2621 6.835909,44.530125,2621 6.835930,44.530165,2621 6.835861,44.530186,2621 6.835959,44.530161,2621 6.835943,44.530154,2621 6.835939,44.530159,2621 6.835909,44.530148,2621 6.835915,44.530136,2621 6.835928,44.530156,2621 6.835931,44.530158,2621 6.835948,44.530140,2620 6.835915,44.530128,2621 6.835902,44.530156,2621 6.835900,44.530191,2621 6.835923,44.530173,2621 6.835925,44.530155,2621 6.835911,44.530159,2621 6.835913,44.530120,2621 6.835914,44.530173,2621 6.835883,44.530160,2621 6.835850,44.530188,2621 6.835913,44.530177,2621 6.835886,44.530189,2620 6.835893,44.530199,2620 6.835927,44.530188,2621 6.835957,44.530157,2621 6.835968,44.530167,2620 6.835960,44.530190,2620 6.835965,44.530187,2620 6.835985,44.530156,2620 6.835947,44.530192,2620 6.835929,44.530164,2620</coordinates></LineString></Placemark></Document></kml>