<?xml version="1.0" encoding="UTF-8"?>
<kml xmlns="http://www.opengis.net/kml/2.2"><Document><name>Alta Linea Continua – Stage 21: Colle dell'Agnello to Lac d'Asti</name><Style id="l"><LineStyle><color>ff2b30c4</color><width>4</width></LineStyle></Style><Placemark><name>Alta Linea Continua – Stage 21: Colle dell'Agnello to Lac d'Asti</name><styleUrl>#l</styleUrl><LineString><tessellate>1</tessellate><altitudeMode>clampToGround</altitudeMode><coordinates>6.959816,44.681658,2878 6.959799,44.681671,2878 6.959923,44.681576,2878 6.960122,44.681493,2877 6.960280,44.681424,2876 6.960367,44.681438,2875 6.960428,44.681459,2874 6.960542,44.681477,2871 6.960583,44.681477,2870 6.960670,44.681476,2868 6.960768,44.681502,2866 6.960825,44.681505,2864 6.960891,44.681513,2863 6.960943,44.681518,2861 6.960965,44.681499,2860 6.961017,44.681457,2858 6.961107,44.681412,2857 6.961197,44.681404,2855 6.961302,44.681413,2853 6.961376,44.681416,2852 6.961513,44.681381,2850 6.961599,44.681374,2849 6.961584,44.681409,2848 6.961528,44.681454,2847 6.961547,44.681457,2846 6.961630,44.681458,2845 6.961679,44.681441,2843 6.961721,44.681459,2842 6.961709,44.681494,2841 6.961695,44.681570,2839 6.961722,44.681612,2838 6.961801,44.681633,2837 6.961883,44.681591,2835 6.961949,44.681549,2834 6.962063,44.681525,2832 6.962116,44.681484,2830 6.962160,44.681460,2829 6.962188,44.681467,2828 6.962262,44.681455,2826 6.962342,44.681420,2823 6.962390,44.681399,2822 6.962451,44.681380,2820 6.962491,44.681389,2819 6.962466,44.681449,2817 6.962438,44.681558,2815 6.962375,44.681605,2815 6.962402,44.681624,2813 6.962474,44.681605,2812 6.962520,44.681606,2810 6.962579,44.681580,2809 6.962677,44.681545,2807 6.962744,44.681518,2806 6.962800,44.681500,2805 6.962915,44.681481,2803 6.962965,44.681472,2801 6.963126,44.681389,2800 6.963211,44.681357,2798 6.963222,44.681365,2798 6.963228,44.681387,2797 6.963217,44.681416,2796 6.963240,44.681435,2795 6.963290,44.681435,2794 6.963332,44.681428,2792 6.963404,44.681374,2791 6.963512,44.681361,2789 6.963569,44.681349,2788 6.963646,44.681312,2786 6.963703,44.681257,2784 6.963770,44.681242,2783 6.963820,44.681253,2782 6.963908,44.681262,2781 6.964098,44.681224,2780 6.964191,44.681207,2779 6.964266,44.681171,2777 6.964394,44.681112,2777 6.964458,44.681059,2775 6.964503,44.681008,2774 6.964508,44.680995,2774 6.964594,44.680956,2773 6.964692,44.680943,2772 6.964749,44.680954,2771 6.964760,44.680978,2770 6.964782,44.681001,2769 6.964860,44.681032,2767 6.964906,44.681066,2765 6.965028,44.681083,2764 6.965145,44.681045,2763 6.965208,44.681061,2762 6.965379,44.681082,2760 6.965424,44.681095,2759 6.965603,44.681026,2758 6.965718,44.681018,2758 6.965812,44.680971,2759 6.966020,44.680956,2759 6.966055,44.680950,2758 6.966081,44.680967,2757 6.966113,44.681001,2755 6.966171,44.681027,2754 6.966335,44.681030,2753 6.966413,44.681048,2753 6.966426,44.681079,2752 6.966498,44.681119,2749 6.966635,44.681131,2748 6.966872,44.681056,2748 6.966903,44.681085,2747 6.966952,44.681148,2745 6.967036,44.681195,2744 6.967138,44.681204,2744 6.967188,44.681189,2745 6.967242,44.681195,2744 6.967330,44.681219,2742 6.967532,44.681227,2741 6.967607,44.681249,2740 6.967748,44.681233,2739 6.967782,44.681225,2739 6.967839,44.681251,2738 6.967908,44.681267,2737 6.968035,44.681288,2736 6.968085,44.681309,2734 6.968163,44.681322,2733 6.968333,44.681284,2734 6.968431,44.681298,2734 6.968515,44.681316,2733 6.968738,44.681297,2732 6.968827,44.681338,2731 6.968909,44.681371,2730 6.969044,44.681389,2730 6.969124,44.681396,2729 6.969264,44.681427,2728 6.969420,44.681437,2728 6.969543,44.681440,2729 6.969640,44.681424,2730 6.969791,44.681381,2731 6.970034,44.681391,2730 6.970163,44.681410,2729 6.970085,44.681398,2729 6.970096,44.681404,2729 6.970180,44.681437,2729 6.970119,44.681414,2729 6.970150,44.681416,2728 6.970197,44.681467,2726 6.970223,44.681490,2725 6.970315,44.681537,2723 6.970384,44.681531,2722 6.970455,44.681538,2722 6.970529,44.681558,2719 6.970536,44.681570,2718 6.970543,44.681588,2717 6.970627,44.681634,2715 6.970717,44.681669,2714 6.970760,44.681701,2712 6.970761,44.681740,2711 6.970830,44.681755,2710 6.970968,44.681768,2709 6.971050,44.681779,2708 6.971124,44.681789,2706 6.971202,44.681817,2705 6.971346,44.681844,2705 6.971449,44.681854,2704 6.971537,44.681895,2702 6.971598,44.681982,2702 6.971802,44.682017,2701 6.971897,44.682056,2701 6.971958,44.682143,2699 6.972011,44.682226,2698 6.972076,44.682310,2697 6.972111,44.682344,2695 6.972157,44.682393,2694 6.972284,44.682445,2693 6.972324,44.682490,2692 6.972381,44.682560,2691 6.972417,44.682632,2690 6.972471,44.682687,2689 6.972458,44.682718,2688 6.972513,44.682692,2689 6.972580,44.682695,2691 6.972615,44.682691,2692 6.972656,44.682674,2691 6.972611,44.682676,2691 6.972590,44.682614,2691 6.972595,44.682679,2691 6.972566,44.682725,2691 6.972547,44.682703,2690 6.972486,44.682705,2689 6.972487,44.682726,2688 6.972489,44.682725,2688 6.972488,44.682737,2688 6.972483,44.682723,2688 6.972496,44.682729,2687 6.972492,44.682796,2686 6.972527,44.682828,2685 6.972562,44.682846,2684 6.972561,44.682891,2681 6.972706,44.682908,2681 6.972786,44.682961,2678 6.972861,44.682980,2677 6.972971,44.682990,2677 6.973034,44.683022,2676 6.973109,44.683026,2675 6.973183,44.682995,2676 6.973300,44.683007,2676 6.973357,44.683115,2676 6.973481,44.683238,2675 6.973556,44.683383,2674 6.973583,44.683405,2672 6.973640,44.683465,2670 6.973694,44.683561,2668 6.973762,44.683629,2667 6.973805,44.683713,2666 6.973854,44.683787,2664 6.973897,44.683875,2663 6.973921,44.683965,2661 6.973995,44.684066,2659 6.974022,44.684135,2658 6.974023,44.684195,2656 6.973954,44.684181,2655 6.973835,44.684148,2653 6.973772,44.684135,2652 6.973654,44.684077,2650 6.973515,44.683986,2649 6.973415,44.683967,2647 6.973304,44.683942,2645 6.973262,44.683922,2644 6.973224,44.683944,2642 6.973252,44.684031,2641 6.973312,44.684150,2640 6.973375,44.684222,2639 6.973452,44.684310,2637 6.973582,44.684401,2636 6.973677,44.684482,2634 6.973723,44.684522,2633 6.973765,44.684560,2631 6.973868,44.684623,2631 6.973977,44.684728,2630 6.974107,44.684803,2628 6.974210,44.684881,2628 6.974430,44.685030,2628 6.974579,44.685097,2629 6.974678,44.685113,2629 6.974770,44.685284,2628 6.974857,44.685304,2628 6.974948,44.685321,2629 6.974982,44.685425,2629 6.975015,44.685525,2627 6.975109,44.685646,2626 6.975186,44.685749,2625 6.975210,44.685884,2624 6.975168,44.685963,2623 6.975120,44.686141,2622 6.975099,44.686212,2621 6.975032,44.686390,2620 6.974983,44.686487,2621 6.974942,44.686611,2620 6.974932,44.686676,2619 6.974909,44.686731,2618 6.974905,44.686786,2617 6.974896,44.686895,2615 6.974942,44.686959,2614 6.974897,44.687059,2614 6.974747,44.687189,2614 6.974747,44.687255,2615 6.974727,44.687364,2615 6.974749,44.687465,2615 6.974679,44.687709,2615 6.974609,44.687944,2614 6.974630,44.688050,2613 6.974566,44.688163,2612 6.974397,44.688363,2611 6.974312,44.688458,2610 6.974250,44.688536,2610 6.974197,44.688621,2609 6.974184,44.688662,2608 6.974193,44.688730,2607 6.974186,44.688795,2605 6.974161,44.688823,2605 6.974089,44.688876,2603 6.974090,44.688975,2602 6.973977,44.689067,2601 6.973862,44.689160,2599 6.973796,44.689204,2598 6.973761,44.689228,2597 6.973678,44.689278,2596 6.973599,44.689342,2595 6.973522,44.689411,2594 6.973483,44.689483,2592 6.973396,44.689614,2590 6.973337,44.689687,2589 6.973324,44.689779,2588 6.973285,44.689853,2587 6.973202,44.689954,2586 6.973156,44.690027,2585 6.973174,44.690169,2583 6.973121,44.690303,2582 6.972965,44.690402,2581 6.972821,44.690453,2580 6.972681,44.690508,2579 6.972404,44.690697,2579 6.972298,44.690795,2577 6.972210,44.690891,2575 6.972037,44.691017,2575 6.971910,44.690962,2576 6.971691,44.690862,2576 6.971526,44.690884,2575 6.971495,44.690901,2575 6.971511,44.690898,2575 6.971506,44.690862,2575 6.971483,44.690884,2575 6.971501,44.690906,2575 6.971407,44.690953,2575 6.971402,44.690967,2575 6.971414,44.690936,2574 6.971437,44.690949,2575 6.971483,44.690878,2575 6.971529,44.690898,2575 6.971515,44.690885,2574 6.971530,44.690836,2574 6.971494,44.690868,2574 6.971503,44.690865,2574 6.971489,44.690871,2575 6.971508,44.690894,2575 6.971508,44.690823,2575 6.971511,44.690834,2575 6.971432,44.690889,2576 6.971123,44.691374,2574 6.971119,44.691516,2575 6.971148,44.691576,2575 6.971147,44.691565,2576 6.971183,44.691594,2576 6.971157,44.691574,2576 6.971168,44.691573,2577 6.971139,44.691566,2577 6.971162,44.691564,2577 6.971159,44.691569,2577 6.971128,44.691596,2577 6.971139,44.691607,2577 6.971184,44.691595,2577 6.971202,44.691581,2576 6.971192,44.691584,2576 6.971148,44.691570,2577 6.971141,44.691586,2577 6.971130,44.691574,2577 6.971136,44.691578,2577 6.971139,44.691585,2577 6.971174,44.691589,2577 6.971161,44.691604,2577 6.971192,44.691559,2578 6.971137,44.691595,2578 6.971140,44.691576,2578 6.971139,44.691562,2577 6.971124,44.691616,2577 6.971159,44.691592,2577 6.971177,44.691578,2578 6.971138,44.691575,2578 6.971150,44.691583,2578 6.971143,44.691581,2577 6.971136,44.691577,2577 6.971148,44.691573,2577 6.971136,44.691586,2577 6.971159,44.691596,2577 6.971194,44.691589,2577 6.971158,44.691570,2577 6.971090,44.691732,2576 6.970986,44.691786,2575 6.970882,44.691922,2575 6.970835,44.692016,2575 6.970705,44.692118,2576 6.970659,44.692124,2576 6.970678,44.692125,2577 6.970616,44.692115,2576 6.970495,44.692124,2576 6.970387,44.692146,2578 6.970325,44.692140,2579 6.970313,44.692118,2578 6.970351,44.692125,2578 6.970506,44.692211,2580 6.970540,44.692228,2581 6.970595,44.692249,2582 6.970617,44.692279,2583 6.970625,44.692309,2584 6.970619,44.692343,2585 6.970521,44.692387,2586 6.970472,44.692424,2587 6.970407,44.692490,2588 6.970426,44.692512,2589 6.970482,44.692538,2590 6.970554,44.692561,2591 6.970628,44.692593,2593 6.970686,44.692615,2594 6.970717,44.692625,2596 6.970763,44.692635,2597 6.970811,44.692640,2598 6.970866,44.692655,2599 6.970932,44.692683,2600 6.970976,44.692698,2601 6.971098,44.692689,2603 6.971143,44.692680,2604 6.971196,44.692654,2605 6.971253,44.692639,2607 6.971311,44.692659,2608 6.971362,44.692656,2609 6.971446,44.692660,2610 6.971522,44.692667,2611 6.971601,44.692684,2612 6.971647,44.692692,2613 6.971707,44.692679,2615 6.971775,44.692689,2616 6.971880,44.692694,2616 6.971969,44.692691,2617 6.972075,44.692697,2618 6.972169,44.692716,2619 6.972378,44.692720,2620 6.972489,44.692729,2621 6.972584,44.692733,2622 6.972657,44.692730,2623 6.972779,44.692747,2624 6.972906,44.692757,2625 6.973008,44.692764,2626 6.973122,44.692754,2628 6.973223,44.692750,2629 6.973333,44.692748,2630 6.973436,44.692734,2631 6.973568,44.692715,2632 6.973664,44.692712,2633 6.973778,44.692673,2634 6.973879,44.692664,2635 6.974105,44.692666,2635 6.974278,44.692601,2636 6.974370,44.692586,2637 6.974517,44.692617,2638 6.974611,44.692620,2639 6.974744,44.692643,2639 6.974900,44.692670,2640 6.975012,44.692672,2641 6.975144,44.692704,2642 6.975185,44.692722,2643 6.975221,44.692731,2643 6.975327,44.692735,2645 6.975378,44.692744,2646 6.975469,44.692773,2647 6.975600,44.692819,2649 6.975697,44.692855,2649 6.975763,44.692897,2650 6.975893,44.692926,2651 6.975926,44.692946,2651 6.976039,44.692971,2653 6.976174,44.692979,2653 6.976338,44.692969,2654 6.976469,44.692978,2655 6.976734,44.692957,2655 6.976858,44.692937,2656 6.977029,44.692916,2656 6.977163,44.692891,2657 6.977303,44.692870,2657 6.977423,44.692865,2658 6.977577,44.692888,2659 6.977696,44.692892,2660 6.977962,44.692931,2661 6.978088,44.692898,2661 6.978274,44.692898,2662 6.978443,44.692869,2662 6.978564,44.692827,2663 6.978740,44.692759,2663 6.978841,44.692694,2664 6.978904,44.692637,2665 6.978982,44.692580,2666 6.979100,44.692448,2667 6.979225,44.692315,2668 6.979271,44.692230,2669 6.979370,44.692197,2671 6.979476,44.692133,2672 6.979512,44.692104,2673 6.979595,44.692050,2674 6.979671,44.691984,2676 6.979698,44.691927,2677 6.979738,44.691871,2678 6.979789,44.691877,2679 6.979820,44.691893,2680 6.979885,44.691875,2681 6.979896,44.691853,2681 6.979915,44.691819,2682 6.979938,44.691774,2683 6.979970,44.691723,2684 6.980002,44.691697,2686 6.980039,44.691664,2687 6.980084,44.691638,2688 6.980150,44.691632,2689 6.980188,44.691684,2691 6.980223,44.691680,2691 6.980243,44.691661,2692 6.980268,44.691643,2693 6.980314,44.691602,2694 6.980465,44.691526,2696 6.980537,44.691544,2698 6.980532,44.691589,2699 6.980528,44.691645,2700 6.980544,44.691692,2701 6.980607,44.691672,2702 6.980645,44.691678,2703 6.980672,44.691809,2705 6.980686,44.691834,2706 6.980698,44.691892,2708 6.980683,44.691938,2709 6.980679,44.691984,2710 6.980698,44.692038,2712 6.980726,44.692107,2713 6.980732,44.692116,2713 6.980717,44.692163,2714 6.980697,44.692229,2716 6.980757,44.692212,2717 6.980819,44.692185,2719 6.980899,44.692187,2720 6.981024,44.692261,2722 6.981079,44.692296,2724 6.981140,44.692366,2725 6.981204,44.692403,2726 6.981293,44.692450,2727 6.981362,44.692492,2729 6.981414,44.692527,2730 6.981502,44.692576,2730 6.981757,44.692643,2730 6.982024,44.692684,2731 6.982111,44.692748,2731 6.982166,44.692832,2732 6.982307,44.692941,2733 6.982407,44.692967,2734 6.982499,44.693007,2735 6.982624,44.693051,2736 6.982724,44.693126,2737 6.982771,44.693208,2738 6.982797,44.693222,2739 6.982838,44.693247,2739 6.982892,44.693280,2740 6.983007,44.693335,2741 6.983136,44.693406,2743 6.983271,44.693478,2745 6.983336,44.693539,2747 6.983392,44.693572,2748 6.983458,44.693632,2749 6.983533,44.693696,2751 6.983605,44.693741,2752 6.983673,44.693799,2753 6.983698,44.693814,2754 6.983711,44.693824,2754 6.983768,44.693858,2755 6.983869,44.693907,2756 6.983969,44.693961,2758 6.984051,44.693993,2759 6.984112,44.694015,2760 6.984180,44.694061,2761 6.984254,44.694119,2762 6.984313,44.694139,2764 6.984358,44.694162,2765 6.984455,44.694210,2766 6.984577,44.694306,2768 6.984681,44.694356,2769 6.984782,44.694368,2770 6.984873,44.694387,2771 6.984958,44.694412,2772 6.985046,44.694434,2773 6.985097,44.694437,2774 6.985171,44.694435,2775 6.985178,44.694424,2776 6.985202,44.694428,2777 6.985267,44.694442,2778 6.985331,44.694455,2780 6.985372,44.694466,2781 6.985427,44.694483,2782 6.985467,44.694519,2783 6.985527,44.694569,2784 6.985566,44.694608,2785 6.985612,44.694641,2786 6.985619,44.694718,2788 6.985660,44.694828,2789 6.985721,44.694895,2790 6.985764,44.694965,2791 6.985817,44.695027,2792 6.985858,44.695118,2793 6.985887,44.695172,2794 6.985963,44.695243,2795 6.986049,44.695260,2797 6.986102,44.695278,2798 6.986122,44.695289,2798 6.986193,44.695294,2800 6.986221,44.695299,2801 6.986253,44.695309,2802 6.986355,44.695334,2803 6.986420,44.695346,2805 6.986458,44.695354,2806 6.986506,44.695375,2807 6.986566,44.695450,2810 6.986597,44.695539,2811 6.986642,44.695582,2811 6.986650,44.695622,2812 6.986626,44.695661,2813 6.986632,44.695651,2813 6.986738,44.695677,2814 6.986777,44.695664,2815 6.986887,44.695647,2816 6.986946,44.695623,2817 6.987031,44.695593,2818 6.987120,44.695577,2819 6.987244,44.695560,2821 6.987366,44.695561,2821 6.987646,44.695598,2821 6.987741,44.695590,2822 6.987871,44.695587,2824 6.987941,44.695590,2825 6.988016,44.695592,2825 6.988133,44.695606,2826 6.988254,44.695591,2825 6.988308,44.695514,2826 6.988355,44.695482,2827 6.988428,44.695445,2829 6.988496,44.695397,2831 6.988535,44.695361,2831 6.988575,44.695361,2832 6.988739,44.695367,2833 6.988906,44.695336,2833 6.989088,44.695296,2834 6.989230,44.695293,2835 6.989403,44.695315,2837 6.989397,44.695342,2837 6.989415,44.695336,2837 6.989455,44.695354,2837 6.989451,44.695341,2837 6.989434,44.695346,2837 6.989398,44.695355,2836 6.989434,44.695333,2836 6.989442,44.695307,2836 6.989437,44.695333,2835 6.989451,44.695337,2836 6.989436,44.695338,2836 6.989431,44.695334,2836 6.989423,44.695329,2835 6.989440,44.695354,2835 6.989448,44.695325,2835 6.989458,44.695332,2835 6.989444,44.695339,2835 6.989441,44.695366,2835 6.989454,44.695356,2835 6.989449,44.695342,2834 6.989451,44.695355,2835 6.989458,44.695373,2834 6.989439,44.695339,2834 6.989445,44.695350,2834 6.989440,44.695352,2834 6.989437,44.695341,2834 6.989460,44.695345,2833 6.989455,44.695352,2833 6.989454,44.695355,2832 6.989444,44.695348,2833 6.989463,44.695348,2833 6.989459,44.695367,2833 6.989455,44.695355,2834 6.989453,44.695352,2834 6.989450,44.695362,2834 6.989435,44.695357,2833 6.989430,44.695327,2833 6.989419,44.695345,2833 6.989435,44.695341,2833 6.989411,44.695352,2832 6.989411,44.695353,2832 6.989453,44.695377,2832 6.989452,44.695365,2832 6.989439,44.695356,2833 6.989432,44.695357,2833 6.989442,44.695336,2833 6.989440,44.695349,2833 6.989428,44.695347,2833 6.989417,44.695351,2833 6.989430,44.695361,2833 6.989412,44.695356,2833 6.989408,44.695327,2833 6.989449,44.695360,2833 6.989439,44.695364,2833 6.989454,44.695372,2834 6.989437,44.695363,2834 6.989442,44.695341,2834 6.989442,44.695344,2834 6.989444,44.695355,2834 6.989477,44.695374,2834 6.989487,44.695388,2834 6.989455,44.695378,2834 6.989407,44.695338,2834 6.989416,44.695347,2834 6.989449,44.695360,2833 6.989456,44.695368,2833 6.989453,44.695360,2833 6.989425,44.695329,2833 6.989474,44.695361,2833 6.989394,44.695338,2833 6.989419,44.695354,2834 6.989438,44.695349,2834 6.989451,44.695362,2834 6.989465,44.695366,2834 6.989466,44.695374,2834 6.989428,44.695355,2834 6.989438,44.695376,2834 6.989459,44.695355,2834 6.989453,44.695363,2834 6.989466,44.695383,2834 6.989461,44.695363,2834 6.989452,44.695358,2834 6.989442,44.695353,2834 6.989439,44.695356,2834 6.989444,44.695363,2835 6.989482,44.695389,2835 6.989466,44.695370,2834 6.989449,44.695398,2834 6.989391,44.695348,2835 6.989398,44.695325,2835 6.989463,44.695358,2835 6.989389,44.695340,2835 6.989423,44.695379,2835 6.989431,44.695380,2835 6.989462,44.695292,2838 6.989495,44.695264,2839 6.989536,44.695231,2840 6.989603,44.695231,2841 6.989726,44.695256,2843 6.989819,44.695275,2843 6.989969,44.695302,2844 6.990093,44.695295,2845 6.990202,44.695262,2847 6.990391,44.695291,2846 6.990453,44.695313,2846 6.990630,44.695312,2846 6.990832,44.695334,2846 6.991004,44.695320,2847 6.991140,44.695276,2848 6.991184,44.695250,2849 6.991323,44.695239,2848 6.991468,44.695235,2846 6.991742,44.695279,2845 6.991916,44.695275,2844 6.992086,44.695328,2845 6.992134,44.695318,2846 6.992255,44.695281,2848 6.992360,44.695294,2849 6.992476,44.695370,2851 6.992482,44.695420,2852 6.992517,44.695469,2853 6.992557,44.695496,2854 6.992620,44.695509,2856 6.992714,44.695468,2857 6.992829,44.695459,2858 6.993142,44.695502,2859 6.993230,44.695529,2859 6.993309,44.695606,2860 6.993475,44.695737,2860 6.993582,44.695869,2861 6.993625,44.695893,2861 6.993730,44.695930,2860 6.993822,44.695946,2860 6.994104,44.696017,2860 6.994202,44.696070,2858 6.994210,44.696085,2858 6.994221,44.696149,2858 6.994297,44.696248,2856 6.994335,44.696311,2855 6.994342,44.696334,2854 6.994360,44.696399,2853 6.994395,44.696479,2852 6.994468,44.696569,2851 6.994651,44.696614,2851 6.994764,44.696665,2853 6.994811,44.696668,2854 6.994864,44.696680,2855 6.994935,44.696664,2856 6.994976,44.696676,2857 6.995059,44.696718,2859 6.995282,44.696855,2858 6.995372,44.696953,2860 6.995483,44.696971,2860 6.995596,44.697012,2861 6.995645,44.697053,2862 6.995696,44.697049,2864 6.995718,44.697073,2865 6.995793,44.697074,2867 6.995885,44.697069,2868 6.995945,44.697083,2870 6.996087,44.697128,2869 6.996230,44.697139,2868 6.996260,44.697154,2868 6.996355,44.697192,2870 6.996433,44.697176,2871 6.996524,44.697175,2873 6.996532,44.697164,2874 6.996570,44.697141,2876 6.996588,44.697127,2877 6.996647,44.697178,2879 6.996717,44.697191,2880 6.996832,44.697259,2881 6.996880,44.697272,2881 6.996890,44.697283,2882 6.996941,44.697314,2884 6.997003,44.697328,2885 6.997055,44.697342,2886 6.997178,44.697368,2886 6.997272,44.697474,2886 6.997366,44.697507,2887 6.997388,44.697580,2889 6.997428,44.697607,2890 6.997485,44.697658,2892 6.997533,44.697636,2893 6.997507,44.697664,2894 6.997551,44.697656,2895 6.997553,44.697676,2896 6.997559,44.697745,2897 6.997685,44.697818,2898 6.997751,44.697853,2900 6.997814,44.697912,2900 6.997895,44.697947,2902 6.997917,44.697965,2903 6.997967,44.697994,2904 6.998004,44.697996,2906 6.998065,44.698021,2907 6.998128,44.698036,2909 6.998184,44.698040,2910 6.998246,44.698049,2911 6.998312,44.698075,2911 6.998344,44.698070,2909 6.998300,44.698052,2909 6.998254,44.698059,2910 6.998267,44.698058,2911 6.998313,44.698056,2909 6.998305,44.698081,2908 6.998310,44.698073,2908 6.998335,44.698073,2907 6.998342,44.698048,2907 6.998355,44.698050,2905 6.998367,44.698072,2904 6.998401,44.698070,2903 6.998439,44.698065,2902 6.998442,44.698061,2900 6.998464,44.698062,2899 6.998475,44.698075,2898 6.998496,44.698094,2897 6.998485,44.698108,2895 6.998488,44.698126,2894 6.998501,44.698137,2893 6.998510,44.698139,2893 6.998533,44.698150,2891 6.998531,44.698159,2890 6.998546,44.698184,2889 6.998590,44.698178,2887 6.998612,44.698165,2886 6.998620,44.698186,2886 6.998635,44.698190,2885 6.998656,44.698173,2885 6.998667,44.698169,2883 6.998674,44.698182,2882 6.998664,44.698222,2881 6.998669,44.698251,2880 6.998692,44.698255,2879 6.998749,44.698220,2878 6.998763,44.698232,2876 6.998736,44.698293,2875 6.998756,44.698317,2874 6.998770,44.698349,2872 6.998804,44.698368,2871 6.998826,44.698380,2870 6.998867,44.698375,2868 6.998901,44.698354,2867 6.998971,44.698307,2864 6.998994,44.698215,2864 6.999072,44.698145,2864 6.999119,44.698069,2863 6.999208,44.697937,2864 6.999220,44.697902,2865 6.999261,44.697824,2867 6.999328,44.697788,2867 6.999378,44.697731,2868 6.999437,44.697708,2868 6.999471,44.697698,2869 6.999489,44.697644,2870 6.999520,44.697607,2871 6.999570,44.697515,2871 6.999612,44.697448,2870 6.999640,44.697402,2869 6.999668,44.697346,2869 6.999729,44.697260,2867 6.999744,44.697220,2865 6.999784,44.697189,2865 6.999843,44.697146,2865 6.999882,44.697125,2864 6.999907,44.697120,2863 6.999947,44.697125,2862 7.000003,44.697099,2862 6.999996,44.697142,2864 7.000027,44.697094,2865 7.000085,44.697082,2867 7.000112,44.697026,2869 7.000135,44.696999,2870 7.000155,44.696968,2871 7.000175,44.696955,2872 7.000180,44.696911,2874 7.000222,44.696885,2875 7.000288,44.696852,2876 7.000326,44.696832,2877 7.000353,44.696836,2878 7.000380,44.696835,2879 7.000463,44.696800,2880 7.000493,44.696781,2881 7.000491,44.696747,2882 7.000493,44.696717,2883 7.000508,44.696702,2885 7.000565,44.696680,2887 7.000560,44.696676,2888 7.000560,44.696659,2889 7.000590,44.696625,2891 7.000612,44.696589,2892 7.000614,44.696521,2894 7.000654,44.696471,2895 7.000659,44.696445,2897 7.000696,44.696423,2898 7.000702,44.696347,2900 7.000704,44.696331,2900 7.000721,44.696301,2901 7.000746,44.696257,2902 7.000774,44.696241,2904 7.000833,44.696186,2905 7.000878,44.696147,2907 7.000918,44.696126,2908 7.000971,44.696094,2909 7.001021,44.696062,2910 7.001073,44.696064,2912 7.001146,44.696013,2913 7.001206,44.695959,2915 7.001288,44.695939,2916 7.001392,44.695887,2917 7.001643,44.695834,2917 7.001779,44.695815,2916 7.001923,44.695791,2915 7.002044,44.695803,2914 7.002239,44.695786,2914 7.002278,44.695803,2914 7.002325,44.695923,2914 7.002372,44.696041,2915 7.002423,44.696106,2917 7.002512,44.696176,2919 7.002569,44.696171,2919 7.002743,44.696146,2921 7.002845,44.696137,2922 7.002893,44.696134,2923 7.003005,44.696068,2923 7.003150,44.696027,2922 7.003287,44.695941,2921 7.003428,44.695900,2920 7.003499,44.695842,2918 7.003600,44.695824,2918 7.003660,44.695791,2917 7.003650,44.695782,2917 7.003579,44.695745,2914 7.003514,44.695732,2913 7.003426,44.695719,2912 7.003391,44.695707,2912 7.003352,44.695696,2911 7.003361,44.695704,2911 7.003446,44.695691,2911 7.003589,44.695647,2910 7.003711,44.695501,2911 7.003728,44.695431,2912 7.003708,44.695384,2914 7.003680,44.695327,2914 7.003617,44.695247,2913 7.003570,44.695174,2912 7.003505,44.695116,2911 7.003517,44.695101,2910 7.003530,44.695086,2911 7.003511,44.695093,2911 7.003496,44.695121,2911 7.003501,44.695130,2910 7.003485,44.695137,2910 7.003533,44.695103,2910 7.003563,44.695142,2911 7.003496,44.695137,2911 7.003531,44.695131,2911 7.003485,44.695119,2911 7.003523,44.695131,2911 7.003541,44.695113,2911 7.003525,44.695084,2912 7.003491,44.695145,2912 7.003513,44.695110,2911 7.003494,44.695125,2911 7.003514,44.695131,2912 7.003501,44.695107,2912 7.003488,44.695124,2912 7.003513,44.695113,2912 7.003484,44.695105,2912 7.003477,44.695108,2912 7.003479,44.695114,2912 7.003484,44.695117,2912 7.003460,44.695137,2911 7.003503,44.695124,2912 7.003512,44.695110,2911 7.003506,44.695137,2912 7.003477,44.695125,2911 7.003507,44.695112,2911 7.003508,44.695092,2912 7.003518,44.695076,2912 7.003476,44.695097,2912 7.003532,44.695108,2912 7.003548,44.695176,2913 7.003502,44.695188,2913 7.003510,44.695164,2913 7.003510,44.695089,2913 7.003509,44.695098,2913 7.003505,44.695112,2912 7.003510,44.695120,2912 7.003497,44.695113,2912 7.003478,44.695130,2911 7.003536,44.695090,2911 7.003482,44.695108,2911 7.003486,44.695118,2912</coordinates></LineString></Placemark></Document></kml>