<?xml version="1.0" encoding="UTF-8"?>
<kml xmlns="http://www.opengis.net/kml/2.2"><Document><name>Alta Linea Continua – Stage 0: Pian delle Gorre to Rifugio Garelli</name><Style id="l"><LineStyle><color>ff2b30c4</color><width>4</width></LineStyle></Style><Placemark><name>Alta Linea Continua – Stage 0: Pian delle Gorre to Rifugio Garelli</name><styleUrl>#l</styleUrl><LineString><tessellate>1</tessellate><altitudeMode>clampToGround</altitudeMode><coordinates>7.664160,44.210205,1098 7.664280,44.210147,1099 7.664421,44.210082,1101 7.664551,44.209961,1102 7.664685,44.209892,1103 7.664797,44.209871,1104 7.664896,44.209837,1106 7.664987,44.209799,1107 7.665074,44.209756,1108 7.665199,44.209703,1110 7.665279,44.209652,1111 7.665438,44.209581,1113 7.665555,44.209540,1114 7.665592,44.209525,1115 7.665629,44.209486,1116 7.665700,44.209449,1116 7.665781,44.209398,1117 7.665880,44.209338,1118 7.665944,44.209261,1119 7.665997,44.209191,1120 7.666028,44.209114,1122 7.666093,44.209065,1123 7.666181,44.209008,1125 7.666235,44.208946,1126 7.666294,44.208905,1127 7.666335,44.208835,1128 7.666448,44.208725,1129 7.666542,44.208613,1130 7.666576,44.208488,1131 7.666599,44.208399,1132 7.666629,44.208283,1133 7.666677,44.208163,1134 7.666726,44.208066,1135 7.666847,44.207873,1137 7.666964,44.207798,1138 7.667084,44.207688,1138 7.667174,44.207630,1139 7.667295,44.207531,1140 7.667341,44.207472,1141 7.667398,44.207373,1142 7.667445,44.207241,1144 7.667464,44.207124,1145 7.667505,44.207025,1146 7.667523,44.206957,1147 7.667586,44.206838,1148 7.667612,44.206753,1149 7.667624,44.206679,1150 7.667664,44.206630,1152 7.667745,44.206572,1153 7.667854,44.206478,1155 7.668016,44.206384,1156 7.668057,44.206341,1156 7.668091,44.206297,1157 7.668149,44.206183,1158 7.668198,44.206159,1159 7.668225,44.206105,1160 7.668276,44.206079,1161 7.668338,44.206040,1161 7.668395,44.205970,1162 7.668469,44.205818,1163 7.668598,44.205731,1164 7.668671,44.205694,1165 7.668732,44.205707,1166 7.668782,44.205691,1167 7.668875,44.205649,1167 7.669004,44.205592,1169 7.669127,44.205527,1170 7.669175,44.205482,1171 7.669158,44.205409,1172 7.669153,44.205306,1173 7.669107,44.205086,1174 7.669184,44.204910,1175 7.669265,44.204819,1176 7.669277,44.204749,1177 7.669322,44.204683,1178 7.669355,44.204587,1178 7.669333,44.204516,1179 7.669352,44.204554,1180 7.669355,44.204568,1181 7.669330,44.204559,1182 7.669270,44.204515,1182 7.669066,44.204410,1181 7.669062,44.204413,1181 7.669020,44.204494,1182 7.669106,44.204634,1183 7.669147,44.204645,1183 7.669169,44.204673,1184 7.669224,44.204742,1185 7.669286,44.204756,1187 7.669312,44.204778,1188 7.669316,44.204803,1189 7.669366,44.204788,1190 7.669480,44.204800,1192 7.669531,44.204787,1193 7.669562,44.204776,1194 7.669605,44.204778,1196 7.669617,44.204773,1196 7.669670,44.204703,1197 7.669722,44.204654,1199 7.669753,44.204609,1200 7.669745,44.204588,1202 7.669772,44.204528,1203 7.669781,44.204482,1205 7.669799,44.204436,1206 7.669800,44.204424,1207 7.669760,44.204414,1208 7.669771,44.204439,1209 7.669821,44.204442,1210 7.669844,44.204418,1211 7.669879,44.204402,1212 7.669914,44.204395,1212 7.669890,44.204406,1212 7.669897,44.204404,1212 7.669911,44.204407,1212 7.669944,44.204403,1212 7.669957,44.204380,1214 7.669982,44.204344,1215 7.669974,44.204352,1217 7.669958,44.204379,1217 7.669966,44.204364,1218 7.670017,44.204324,1219 7.670055,44.204291,1220 7.670091,44.204264,1221 7.670171,44.204194,1222 7.670229,44.204153,1223 7.670277,44.204137,1224 7.670286,44.204090,1225 7.670261,44.204031,1226 7.670234,44.204000,1227 7.670212,44.203941,1229 7.670240,44.203927,1230 7.670232,44.203884,1231 7.670244,44.203789,1233 7.670229,44.203675,1235 7.670238,44.203648,1236 7.670229,44.203626,1236 7.670225,44.203678,1238 7.670278,44.203736,1240 7.670339,44.203699,1241 7.670363,44.203675,1242 7.670398,44.203691,1243 7.670450,44.203733,1244 7.670520,44.203751,1245 7.670518,44.203750,1247 7.670507,44.203739,1248 7.670510,44.203746,1249 7.670576,44.203826,1251 7.670600,44.203825,1252 7.670603,44.203843,1254 7.670689,44.203844,1255 7.670748,44.203818,1256 7.670780,44.203759,1257 7.670775,44.203737,1258 7.670768,44.203722,1259 7.670766,44.203762,1259 7.670797,44.203691,1259 7.670753,44.203598,1259 7.670744,44.203588,1259 7.670751,44.203638,1258 7.670768,44.203707,1258 7.670753,44.203584,1259 7.670724,44.203538,1260 7.670640,44.203484,1262 7.670597,44.203460,1263 7.670592,44.203424,1264 7.670567,44.203383,1264 7.670575,44.203335,1266 7.670608,44.203307,1267 7.670656,44.203290,1268 7.670700,44.203289,1269 7.670821,44.203323,1271 7.670872,44.203331,1272 7.670955,44.203340,1274 7.670946,44.203371,1275 7.670988,44.203412,1276 7.671044,44.203415,1277 7.671078,44.203384,1279 7.671118,44.203372,1280 7.671167,44.203334,1281 7.671253,44.203239,1282 7.671343,44.203162,1283 7.671365,44.203134,1284 7.671430,44.203085,1285 7.671505,44.203049,1288 7.671548,44.203043,1289 7.671652,44.203015,1290 7.671671,44.202998,1292 7.671701,44.202952,1293 7.671747,44.202901,1295 7.671792,44.202885,1297 7.671825,44.202875,1298 7.671899,44.202878,1300 7.671936,44.202878,1301 7.671955,44.202892,1302 7.672073,44.202884,1304 7.672146,44.202841,1305 7.672169,44.202779,1307 7.672156,44.202712,1309 7.672273,44.202629,1311 7.672396,44.202530,1313 7.672432,44.202457,1315 7.672467,44.202400,1316 7.672479,44.202390,1317 7.672512,44.202361,1318 7.672533,44.202407,1320 7.672603,44.202392,1321 7.672656,44.202340,1323 7.672697,44.202269,1324 7.672742,44.202200,1325 7.672783,44.202162,1326 7.672850,44.202116,1329 7.672872,44.202096,1330 7.672904,44.201954,1332 7.672863,44.201951,1333 7.672850,44.201917,1333 7.672785,44.201811,1333 7.672786,44.201790,1334 7.672863,44.201711,1335 7.672901,44.201679,1335 7.672949,44.201630,1336 7.672960,44.201617,1337 7.672984,44.201531,1337 7.672988,44.201395,1338 7.673011,44.201300,1339 7.672974,44.201164,1339 7.672965,44.201068,1339 7.672947,44.200993,1339 7.672715,44.200939,1340 7.672684,44.200900,1341 7.672732,44.200766,1339 7.672667,44.200693,1338 7.672656,44.200710,1337 7.672647,44.200725,1337 7.672607,44.200690,1337 7.672616,44.200526,1336 7.672627,44.200431,1338 7.672612,44.200355,1339 7.672613,44.200304,1340 7.672627,44.200259,1341 7.672653,44.200236,1342 7.672673,44.200243,1342 7.672737,44.200203,1342 7.672706,44.200157,1343 7.672726,44.200084,1345 7.672729,44.200028,1347 7.672737,44.200014,1348 7.672759,44.199994,1349 7.672812,44.199924,1351 7.672880,44.199887,1352 7.672975,44.199834,1354 7.672991,44.199766,1355 7.672991,44.199716,1356 7.673042,44.199665,1358 7.673018,44.199605,1360 7.673030,44.199564,1361 7.673038,44.199521,1363 7.673059,44.199456,1365 7.673099,44.199482,1366 7.673190,44.199504,1367 7.673233,44.199502,1368 7.673248,44.199466,1370 7.673271,44.199417,1370 7.673251,44.199428,1371 7.673257,44.199367,1372 7.673300,44.199312,1374 7.673306,44.199265,1375 7.673294,44.199214,1376 7.673250,44.199165,1378 7.673239,44.199140,1378 7.673214,44.199091,1379 7.673225,44.199074,1381 7.673257,44.199041,1382 7.673269,44.199030,1383 7.673286,44.199031,1384 7.673319,44.199029,1385 7.673374,44.199034,1386 7.673443,44.199053,1387 7.673575,44.199101,1389 7.673633,44.199157,1390 7.673650,44.199178,1391 7.673711,44.199220,1393 7.673779,44.199269,1394 7.673828,44.199325,1394 7.673879,44.199358,1396 7.673955,44.199390,1397 7.673983,44.199397,1397 7.674003,44.199436,1398 7.674022,44.199484,1399 7.674043,44.199513,1400 7.674040,44.199510,1401 7.674059,44.199579,1402 7.674162,44.199675,1403 7.674192,44.199741,1405 7.674158,44.199730,1406 7.674161,44.199767,1407 7.674188,44.199880,1408 7.674216,44.199902,1409 7.674289,44.199910,1410 7.674337,44.199922,1411 7.674397,44.199944,1412 7.674435,44.199984,1413 7.674486,44.199973,1414 7.674568,44.199963,1415 7.674601,44.199938,1417 7.674605,44.199925,1418 7.674611,44.199914,1418 7.674616,44.199914,1419 7.674583,44.199960,1420 7.674634,44.200061,1422 7.674710,44.200071,1423 7.674751,44.200095,1424 7.674779,44.200101,1425 7.674843,44.200097,1426 7.674843,44.200091,1427 7.674868,44.200101,1429 7.674878,44.200124,1430 7.674937,44.200153,1431 7.674973,44.200187,1433 7.674999,44.200144,1433 7.675031,44.200069,1433 7.674959,44.200199,1433 7.674944,44.200194,1433 7.674974,44.200160,1433 7.674945,44.200175,1433 7.674836,44.200115,1433 7.674857,44.200102,1434 7.674910,44.200078,1434 7.674945,44.200110,1434 7.674976,44.200188,1435 7.675011,44.200224,1436 7.675075,44.200241,1437 7.675156,44.200288,1439 7.675256,44.200285,1440 7.675369,44.200273,1441 7.675453,44.200274,1442 7.675500,44.200275,1443 7.675583,44.200264,1444 7.675710,44.200231,1445 7.675786,44.200201,1446 7.675837,44.200176,1447 7.675871,44.200167,1448 7.675918,44.200194,1450 7.675983,44.200211,1451 7.676046,44.200225,1453 7.676120,44.200256,1454 7.676201,44.200298,1455 7.676242,44.200309,1456 7.676298,44.200287,1457 7.676395,44.200254,1459 7.676453,44.200259,1459 7.676597,44.200256,1460 7.676668,44.200248,1461 7.676718,44.200237,1463 7.676822,44.200265,1465 7.676855,44.200285,1466 7.676984,44.200288,1467 7.677024,44.200234,1469 7.677063,44.200197,1471 7.677089,44.200217,1472 7.677146,44.200204,1473 7.677198,44.200206,1473 7.677234,44.200213,1475 7.677324,44.200225,1476 7.677427,44.200216,1478 7.677493,44.200223,1479 7.677536,44.200230,1480 7.677647,44.200224,1482 7.677722,44.200187,1484 7.677762,44.200172,1485 7.677808,44.200146,1486 7.677849,44.200133,1487 7.677907,44.200129,1488 7.677995,44.200116,1489 7.678102,44.200080,1490 7.678151,44.200028,1492 7.678211,44.199972,1493 7.678276,44.199928,1494 7.678350,44.199843,1496 7.678350,44.199834,1497 7.678364,44.199837,1498 7.678434,44.199818,1499 7.678472,44.199782,1500 7.678579,44.199708,1501 7.678615,44.199650,1502 7.678628,44.199624,1503 7.678671,44.199588,1504 7.678709,44.199548,1505 7.678773,44.199476,1507 7.678849,44.199423,1508 7.678904,44.199349,1511 7.678940,44.199319,1512 7.679016,44.199308,1513 7.679104,44.199313,1514 7.679213,44.199271,1515 7.679245,44.199247,1516 7.679291,44.199206,1517 7.679379,44.199140,1519 7.679467,44.199107,1520 7.679519,44.199110,1521 7.679468,44.199091,1523 7.679470,44.199057,1524 7.679435,44.199010,1525 7.679388,44.198960,1527 7.679294,44.198910,1529 7.679268,44.198882,1530 7.679310,44.198903,1532 7.679298,44.198841,1533 7.679294,44.198815,1534 7.679271,44.198793,1535 7.679159,44.198774,1536 7.679044,44.198780,1538 7.678971,44.198768,1539 7.678974,44.198757,1541 7.678977,44.198763,1541 7.679036,44.198760,1543 7.679101,44.198696,1544 7.679094,44.198642,1545 7.679064,44.198574,1546 7.679004,44.198543,1547 7.678973,44.198522,1548 7.678960,44.198511,1548 7.679017,44.198497,1548 7.679032,44.198461,1549 7.679047,44.198462,1550 7.679115,44.198468,1551 7.679135,44.198460,1552 7.679168,44.198466,1553 7.679272,44.198443,1555 7.679286,44.198413,1555 7.679280,44.198382,1556 7.679289,44.198331,1559 7.679382,44.198282,1560 7.679381,44.198251,1561 7.679386,44.198199,1561 7.679368,44.198166,1563 7.679292,44.198161,1564 7.679197,44.198169,1566 7.679056,44.198159,1567 7.679018,44.198151,1568 7.678934,44.198126,1569 7.678904,44.198117,1570 7.678890,44.198113,1570 7.678823,44.198094,1571 7.678773,44.198090,1572 7.678720,44.198052,1573 7.678652,44.197979,1575 7.678631,44.197926,1576 7.678670,44.197932,1577 7.678693,44.197909,1579 7.678728,44.197910,1580 7.678810,44.197954,1581 7.678885,44.197916,1582 7.678881,44.197843,1583 7.678913,44.197824,1584 7.678954,44.197805,1585 7.678878,44.197783,1586 7.678925,44.197783,1588 7.678984,44.197752,1589 7.679037,44.197722,1590 7.679025,44.197691,1592 7.678971,44.197659,1593 7.678955,44.197637,1594 7.679004,44.197628,1596 7.679034,44.197634,1597 7.679092,44.197658,1598 7.679195,44.197639,1599 7.679287,44.197692,1600 7.679388,44.197640,1601 7.679464,44.197557,1602 7.679549,44.197500,1603 7.679637,44.197444,1605 7.679702,44.197435,1605 7.679719,44.197429,1606 7.679718,44.197372,1606 7.679636,44.197324,1608 7.679572,44.197314,1609 7.679450,44.197322,1611 7.679369,44.197336,1612 7.679303,44.197367,1614 7.679288,44.197351,1615 7.679345,44.197320,1617 7.679336,44.197325,1617 7.679295,44.197371,1617 7.679253,44.197415,1617 7.679318,44.197329,1617 7.679337,44.197308,1617 7.679379,44.197276,1618 7.679379,44.197237,1619 7.679341,44.197196,1620 7.679300,44.197129,1621 7.679299,44.197095,1622 7.679345,44.197058,1623 7.679358,44.197037,1624 7.679356,44.196951,1625 7.679340,44.196933,1626 7.679310,44.196829,1627 7.679305,44.196752,1628 7.679322,44.196697,1630 7.679339,44.196646,1631 7.679376,44.196593,1631 7.679424,44.196534,1632 7.679461,44.196420,1633 7.679490,44.196377,1634 7.679542,44.196362,1635 7.679548,44.196298,1637 7.679498,44.196239,1638 7.679568,44.196185,1639 7.679617,44.196135,1641 7.679644,44.196134,1642 7.679712,44.196063,1644 7.679667,44.196004,1645 7.679610,44.195990,1646 7.679598,44.195979,1647 7.679603,44.195967,1647 7.679609,44.195916,1648 7.679661,44.195885,1650 7.679707,44.195872,1650 7.679767,44.195836,1652 7.679794,44.195799,1653 7.679827,44.195758,1654 7.679827,44.195687,1656 7.679810,44.195658,1657 7.679890,44.195592,1659 7.679918,44.195557,1660 7.679921,44.195543,1661 7.679931,44.195519,1663 7.680016,44.195444,1664 7.680081,44.195349,1665 7.680086,44.195319,1667 7.680096,44.195286,1668 7.680125,44.195225,1669 7.680176,44.195184,1671 7.680214,44.195182,1672 7.680297,44.195149,1673 7.680355,44.195113,1675 7.680403,44.195073,1676 7.680440,44.195001,1677 7.680480,44.194973,1678 7.680532,44.194936,1679 7.680602,44.194886,1681 7.680653,44.194824,1682 7.680699,44.194791,1683 7.680747,44.194748,1685 7.680772,44.194709,1686 7.680784,44.194662,1687 7.680811,44.194639,1688 7.680797,44.194625,1689 7.680763,44.194603,1690 7.680727,44.194569,1691 7.680695,44.194517,1693 7.680780,44.194514,1694 7.680756,44.194480,1695 7.680660,44.194441,1697 7.680582,44.194425,1698 7.680599,44.194423,1699 7.680639,44.194408,1700 7.680714,44.194346,1702 7.680773,44.194320,1703 7.680868,44.194293,1704 7.680828,44.194283,1704 7.680721,44.194262,1705 7.680627,44.194235,1707 7.680557,44.194225,1708 7.680513,44.194189,1709 7.680498,44.194189,1711 7.680424,44.194153,1712 7.680386,44.194140,1713 7.680465,44.194143,1714 7.680522,44.194138,1715 7.680553,44.194137,1715 7.680604,44.194124,1716 7.680626,44.194087,1717 7.680654,44.194083,1718 7.680674,44.194049,1720 7.680631,44.194041,1721 7.680591,44.194042,1722 7.680564,44.193997,1723 7.680616,44.193976,1724 7.680638,44.193963,1726 7.680702,44.193916,1728 7.680741,44.193883,1729 7.680703,44.193887,1730 7.680672,44.193882,1730 7.680618,44.193851,1732 7.680536,44.193836,1733 7.680484,44.193816,1735 7.680539,44.193803,1735 7.680545,44.193802,1736 7.680529,44.193809,1736 7.680536,44.193796,1736 7.680538,44.193782,1736 7.680540,44.193779,1736 7.680547,44.193767,1736 7.680534,44.193791,1736 7.680555,44.193789,1735 7.680530,44.193789,1735 7.680597,44.193787,1736 7.680600,44.193780,1736 7.680603,44.193746,1736 7.680509,44.193721,1737 7.680517,44.193723,1737 7.680424,44.193663,1739 7.680387,44.193636,1740 7.680419,44.193631,1741 7.680473,44.193639,1743 7.680523,44.193613,1744 7.680581,44.193603,1745 7.680618,44.193538,1747 7.680561,44.193505,1748 7.680506,44.193452,1750 7.680499,44.193422,1751 7.680550,44.193419,1751 7.680617,44.193404,1753 7.680658,44.193380,1753 7.680739,44.193339,1755 7.680815,44.193294,1756 7.680859,44.193272,1757 7.680896,44.193247,1758 7.680939,44.193239,1759 7.681031,44.193212,1760 7.681127,44.193175,1761 7.681142,44.193164,1763 7.681209,44.193130,1764 7.681185,44.193101,1765 7.681038,44.193026,1767 7.681009,44.192989,1768 7.680945,44.192957,1769 7.680894,44.192909,1770 7.680877,44.192883,1771 7.680931,44.192853,1772 7.680999,44.192851,1774 7.681091,44.192855,1774 7.681108,44.192831,1775 7.681084,44.192808,1776 7.681004,44.192723,1778 7.680964,44.192669,1779 7.680956,44.192662,1780 7.680970,44.192666,1780 7.681004,44.192644,1782 7.680993,44.192651,1782 7.681039,44.192642,1783 7.681092,44.192652,1784 7.681155,44.192666,1785 7.681296,44.192682,1787 7.681362,44.192694,1787 7.681400,44.192687,1789 7.681446,44.192678,1790 7.681448,44.192677,1790 7.681497,44.192690,1790 7.681482,44.192679,1790 7.681589,44.192695,1791 7.681646,44.192708,1792 7.681677,44.192715,1792 7.681764,44.192733,1794 7.681851,44.192740,1795 7.681861,44.192741,1795 7.681909,44.192735,1795 7.682020,44.192749,1797 7.682041,44.192762,1797 7.682111,44.192773,1798 7.682097,44.192761,1799 7.682030,44.192750,1799 7.682062,44.192758,1799 7.682106,44.192774,1799 7.682076,44.192759,1798 7.682030,44.192714,1799 7.682066,44.192695,1800 7.682113,44.192684,1801 7.682168,44.192661,1802 7.682216,44.192652,1803 7.682243,44.192646,1803 7.682263,44.192622,1805 7.682187,44.192575,1805 7.682178,44.192538,1806 7.682176,44.192531,1806 7.682173,44.192527,1806 7.682137,44.192496,1807 7.682206,44.192476,1808 7.682284,44.192457,1810 7.682261,44.192420,1811 7.682243,44.192376,1811 7.682200,44.192365,1812 7.682177,44.192351,1812 7.682133,44.192313,1814 7.682116,44.192286,1814 7.682116,44.192247,1815 7.682127,44.192207,1816 7.682111,44.192129,1817 7.682121,44.192105,1818 7.682113,44.192061,1818 7.682094,44.191975,1820 7.682125,44.191921,1821 7.682135,44.191902,1822 7.682158,44.191861,1823 7.682147,44.191797,1824 7.682175,44.191749,1825 7.682245,44.191748,1826 7.682321,44.191722,1827 7.682355,44.191707,1827 7.682411,44.191688,1828 7.682488,44.191661,1829 7.682550,44.191625,1830 7.682569,44.191585,1832 7.682575,44.191574,1832 7.682546,44.191561,1832 7.682588,44.191529,1833 7.682576,44.191545,1833 7.682559,44.191542,1833 7.682642,44.191524,1834 7.682668,44.191527,1834 7.682663,44.191541,1834 7.682695,44.191513,1835 7.682731,44.191487,1836 7.682796,44.191477,1837 7.682836,44.191456,1838 7.682856,44.191430,1839 7.682845,44.191394,1840 7.682842,44.191380,1841 7.682800,44.191324,1842 7.682785,44.191285,1844 7.682798,44.191260,1845 7.682801,44.191216,1846 7.682789,44.191132,1846 7.682770,44.191125,1847 7.682853,44.191092,1847 7.683035,44.190962,1848 7.683087,44.190900,1849 7.683140,44.190866,1849 7.683249,44.190752,1850 7.683326,44.190724,1852 7.683404,44.190690,1853 7.683456,44.190670,1854 7.683516,44.190605,1855 7.683541,44.190598,1856 7.683583,44.190581,1857 7.683607,44.190585,1857 7.683646,44.190543,1857 7.683703,44.190500,1858 7.683736,44.190475,1858 7.683750,44.190463,1859 7.683769,44.190442,1859 7.683841,44.190433,1860 7.683910,44.190408,1861 7.683997,44.190374,1864 7.684038,44.190347,1865 7.684047,44.190346,1865 7.684114,44.190336,1866 7.684148,44.190323,1867 7.684176,44.190302,1868 7.684218,44.190308,1869 7.684269,44.190307,1869 7.684309,44.190276,1869 7.684339,44.190273,1870 7.684338,44.190255,1870 7.684336,44.190254,1870 7.684335,44.190253,1870 7.684348,44.190244,1869 7.684481,44.190222,1871 7.684577,44.190199,1872 7.684651,44.190186,1874 7.684682,44.190161,1876 7.684702,44.190149,1877 7.684745,44.190145,1878 7.684804,44.190124,1878 7.684864,44.190111,1879 7.684917,44.190076,1881 7.684970,44.190047,1882 7.684967,44.190036,1883 7.685028,44.190032,1883 7.685143,44.189985,1884 7.685165,44.189925,1886 7.685174,44.189910,1887 7.685190,44.189854,1888 7.685197,44.189816,1889 7.685237,44.189771,1890 7.685282,44.189756,1891 7.685314,44.189716,1891 7.685331,44.189688,1893 7.685314,44.189627,1894 7.685267,44.189573,1895 7.685304,44.189539,1896 7.685309,44.189466,1897 7.685354,44.189404,1899 7.685402,44.189416,1900 7.685468,44.189417,1901 7.685512,44.189386,1902 7.685513,44.189353,1903 7.685553,44.189340,1904 7.685605,44.189331,1905 7.685663,44.189328,1906 7.685677,44.189334,1906 7.685689,44.189355,1906 7.685726,44.189391,1907 7.685750,44.189422,1907 7.685783,44.189444,1908 7.685842,44.189470,1909 7.685949,44.189482,1910 7.686009,44.189481,1911 7.686054,44.189482,1911 7.686118,44.189465,1912 7.686143,44.189473,1913 7.686197,44.189479,1914 7.686221,44.189472,1915 7.686238,44.189466,1915 7.686289,44.189432,1917 7.686345,44.189429,1918 7.686359,44.189436,1918 7.686431,44.189435,1919 7.686520,44.189419,1920 7.686605,44.189440,1921 7.686623,44.189469,1921 7.686650,44.189489,1922 7.686672,44.189502,1924 7.686710,44.189529,1924 7.686802,44.189566,1925 7.686790,44.189562,1926 7.686834,44.189599,1928 7.686868,44.189595,1928 7.686893,44.189589,1929 7.686929,44.189593,1930 7.686939,44.189597,1930 7.686961,44.189579,1931 7.687016,44.189559,1933 7.687073,44.189536,1934 7.687056,44.189536,1934 7.687065,44.189524,1935 7.687104,44.189543,1936 7.687164,44.189579,1938 7.687197,44.189553,1939 7.687238,44.189508,1941 7.687257,44.189505,1942 7.687286,44.189469,1943 7.687310,44.189419,1944 7.687338,44.189395,1944 7.687361,44.189395,1945 7.687412,44.189371,1946 7.687465,44.189358,1947 7.687484,44.189371,1947 7.687513,44.189366,1949 7.687548,44.189366,1949 7.687580,44.189380,1951 7.687642,44.189392,1952 7.687713,44.189396,1954 7.687770,44.189407,1955 7.687936,44.189385,1955 7.687975,44.189386,1955 7.688047,44.189322,1956 7.688030,44.189206,1956 7.688029,44.189166,1957 7.687977,44.189018,1958 7.687968,44.188941,1959 7.687993,44.188865,1960 7.687959,44.188821,1961 7.687895,44.188839,1962 7.687863,44.188833,1963 7.687788,44.188802,1965 7.687721,44.188794,1965 7.687733,44.188812,1964 7.687730,44.188824,1964 7.687695,44.188786,1964</coordinates></LineString></Placemark></Document></kml>