<?xml version="1.0" encoding="UTF-8"?>
<kml xmlns="http://www.opengis.net/kml/2.2"><Document><name>Alta Linea Continua – Stage 14: Vallone di Colombart to Colle della Maddalena</name><Style id="l"><LineStyle><color>ff2b30c4</color><width>4</width></LineStyle></Style><Placemark><name>Alta Linea Continua – Stage 14: Vallone di Colombart to Colle della Maddalena</name><styleUrl>#l</styleUrl><LineString><tessellate>1</tessellate><altitudeMode>clampToGround</altitudeMode><coordinates>6.902248,44.356387,2467 6.902118,44.356424,2468 6.902073,44.356471,2469 6.902072,44.356504,2470 6.902142,44.356549,2470 6.902186,44.356599,2470 6.902316,44.356769,2469 6.902476,44.356902,2470 6.902592,44.356964,2470 6.902613,44.356993,2472 6.902665,44.357034,2473 6.902702,44.357060,2474 6.902745,44.357067,2476 6.902839,44.357110,2478 6.902915,44.357157,2479 6.902954,44.357176,2480 6.902977,44.357202,2481 6.902994,44.357203,2482 6.903040,44.357225,2483 6.903089,44.357270,2484 6.903119,44.357376,2486 6.903185,44.357432,2487 6.903245,44.357447,2487 6.903312,44.357504,2489 6.903362,44.357561,2490 6.903414,44.357622,2491 6.903434,44.357671,2493 6.903492,44.357733,2494 6.903518,44.357769,2495 6.903545,44.357816,2496 6.903571,44.357862,2497 6.903597,44.357929,2498 6.903596,44.357997,2499 6.903610,44.358087,2500 6.903590,44.358165,2501 6.903528,44.358226,2502 6.903470,44.358300,2503 6.903476,44.358291,2503 6.903480,44.358283,2503 6.903488,44.358280,2503 6.903477,44.358308,2503 6.903480,44.358303,2503 6.903506,44.358329,2503 6.903505,44.358324,2503 6.903491,44.358304,2503 6.903496,44.358301,2503 6.903480,44.358293,2503 6.903424,44.358284,2504 6.903293,44.358240,2505 6.903255,44.358226,2506 6.903170,44.358209,2507 6.902989,44.358122,2508 6.902897,44.358096,2508 6.902644,44.358023,2509 6.902521,44.358007,2510 6.902419,44.357987,2512 6.902313,44.357985,2513 6.902203,44.357983,2514 6.902072,44.357940,2516 6.902009,44.357935,2517 6.901937,44.357958,2519 6.901892,44.357990,2520 6.901798,44.358059,2521 6.901672,44.358089,2522 6.901511,44.358126,2522 6.901429,44.358190,2521 6.901315,44.358270,2522 6.901275,44.358321,2522 6.901197,44.358336,2523 6.901116,44.358454,2525 6.901107,44.358470,2526 6.900987,44.358549,2527 6.900874,44.358566,2528 6.900731,44.358561,2530 6.900439,44.358562,2530 6.900333,44.358530,2530 6.900058,44.358469,2531 6.899961,44.358406,2532 6.899695,44.358372,2533 6.899446,44.358391,2533 6.899360,44.358474,2534 6.899150,44.358515,2535 6.898983,44.358527,2535 6.898896,44.358556,2536 6.898538,44.358537,2536 6.898265,44.358498,2537 6.897966,44.358492,2538 6.897798,44.358515,2538 6.897578,44.358590,2539 6.897426,44.358642,2539 6.897258,44.358672,2540 6.897048,44.358715,2539 6.896936,44.358788,2539 6.896671,44.358857,2538 6.896471,44.358863,2540 6.896323,44.358903,2541 6.896070,44.359017,2540 6.895946,44.359054,2542 6.895803,44.359094,2543 6.895609,44.359189,2543 6.895507,44.359222,2545 6.895388,44.359240,2546 6.895297,44.359280,2547 6.895218,44.359332,2548 6.895178,44.359356,2549 6.895126,44.359369,2550 6.895041,44.359379,2551 6.895003,44.359400,2552 6.894970,44.359411,2553 6.894921,44.359410,2554 6.894874,44.359422,2555 6.894784,44.359450,2557 6.894748,44.359479,2558 6.894640,44.359558,2559 6.894557,44.359600,2560 6.894549,44.359631,2561 6.894518,44.359666,2562 6.894491,44.359673,2563 6.894426,44.359719,2564 6.894415,44.359756,2566 6.894377,44.359780,2567 6.894213,44.359863,2568 6.894150,44.359903,2569 6.894128,44.359907,2569 6.894172,44.359894,2570 6.894174,44.359898,2569 6.894184,44.359887,2569 6.894186,44.359888,2569 6.894221,44.359870,2569 6.894165,44.359893,2569 6.894202,44.359900,2569 6.894213,44.359904,2569 6.894176,44.359885,2569 6.894184,44.359890,2568 6.894191,44.359889,2568 6.894178,44.359934,2568 6.894228,44.359915,2569 6.894065,44.359963,2569 6.893972,44.360002,2570 6.893914,44.360030,2571 6.893880,44.360058,2573 6.893796,44.360127,2574 6.893748,44.360160,2575 6.893704,44.360182,2576 6.893644,44.360236,2577 6.893584,44.360267,2578 6.893514,44.360288,2579 6.893424,44.360327,2581 6.893403,44.360343,2581 6.893353,44.360373,2583 6.893292,44.360381,2584 6.893250,44.360402,2586 6.893188,44.360423,2588 6.893139,44.360419,2588 6.893077,44.360435,2589 6.893016,44.360456,2589 6.892969,44.360488,2590 6.892863,44.360532,2591 6.892830,44.360521,2591 6.892730,44.360543,2591 6.892648,44.360588,2592 6.892565,44.360604,2592 6.892434,44.360598,2592 6.892350,44.360614,2592 6.892376,44.360593,2592 6.892427,44.360608,2592 6.892351,44.360628,2593 6.892335,44.360657,2593 6.892337,44.360628,2593 6.892336,44.360624,2593 6.892327,44.360638,2594 6.892319,44.360672,2594 6.892313,44.360675,2594 6.892324,44.360702,2594 6.892348,44.360596,2594 6.892335,44.360659,2595 6.892352,44.360660,2595 6.892348,44.360623,2595 6.892338,44.360661,2595 6.892332,44.360635,2595 6.892257,44.360663,2595 6.892005,44.360786,2595 6.891935,44.360846,2597 6.891884,44.360884,2598 6.891872,44.360900,2598 6.891850,44.360944,2600 6.891832,44.360982,2601 6.891812,44.361007,2602 6.891799,44.361042,2603 6.891804,44.361075,2604 6.891820,44.361124,2605 6.891844,44.361168,2606 6.891833,44.361176,2607 6.891855,44.361281,2609 6.891844,44.361318,2611 6.891845,44.361357,2612 6.891836,44.361405,2613 6.891845,44.361462,2614 6.891863,44.361504,2615 6.891868,44.361545,2617 6.891861,44.361579,2618 6.891838,44.361633,2619 6.891852,44.361693,2620 6.891841,44.361727,2622 6.891836,44.361779,2623 6.891814,44.361822,2624 6.891760,44.361850,2626 6.891678,44.361872,2627 6.891621,44.361890,2626 6.891525,44.361916,2627 6.891503,44.361931,2627 6.891459,44.361945,2628 6.891434,44.361988,2629 6.891400,44.362036,2629 6.891329,44.362059,2629 6.891283,44.362068,2630 6.891240,44.362102,2631 6.891221,44.362111,2631 6.891196,44.362138,2631 6.891120,44.362074,2631 6.891095,44.362058,2631 6.891154,44.362049,2631 6.891194,44.362038,2631 6.891243,44.362084,2631 6.891204,44.362130,2631 6.891204,44.362140,2631 6.891241,44.362088,2630 6.891271,44.362106,2630 6.891318,44.362110,2628 6.891305,44.362109,2627 6.891368,44.362099,2627 6.891306,44.362128,2627 6.891277,44.362141,2627 6.891331,44.362129,2627 6.891294,44.362153,2627 6.891303,44.362143,2627 6.891274,44.362179,2628 6.891274,44.362159,2627 6.891322,44.362106,2628 6.891344,44.362127,2628 6.891359,44.362105,2628 6.891339,44.362115,2627 6.891333,44.362108,2628 6.891296,44.362085,2629 6.891276,44.362089,2630 6.891217,44.362117,2631 6.891225,44.362118,2631 6.891252,44.362112,2632 6.891272,44.362070,2632 6.891266,44.362098,2632 6.891250,44.362086,2631 6.891242,44.362101,2632 6.891254,44.362115,2632 6.891219,44.362112,2632 6.891190,44.362134,2633 6.891160,44.362156,2634 6.891110,44.362177,2634 6.891018,44.362210,2635 6.890963,44.362255,2636 6.890908,44.362284,2637 6.890858,44.362321,2639 6.890824,44.362338,2640 6.890744,44.362421,2641 6.890685,44.362436,2642 6.890646,44.362462,2642 6.890606,44.362500,2643 6.890566,44.362517,2645 6.890522,44.362530,2646 6.890484,44.362562,2647 6.890457,44.362603,2648 6.890417,44.362670,2648 6.890388,44.362698,2650 6.890344,44.362733,2651 6.890297,44.362771,2653 6.890252,44.362805,2654 6.890218,44.362806,2655 6.890205,44.362814,2655 6.890164,44.362866,2656 6.890110,44.362909,2657 6.890055,44.362926,2658 6.889915,44.363011,2661 6.889864,44.363038,2662 6.889800,44.363079,2663 6.889745,44.363093,2664 6.889667,44.363107,2665 6.889577,44.363166,2666 6.889457,44.363283,2666 6.889409,44.363295,2668 6.889331,44.363319,2669 6.889257,44.363372,2670 6.889176,44.363411,2671 6.889083,44.363460,2672 6.889050,44.363478,2674 6.888995,44.363540,2675 6.888944,44.363577,2676 6.888873,44.363617,2676 6.888753,44.363680,2678 6.888703,44.363698,2679 6.888650,44.363724,2680 6.888614,44.363761,2681 6.888595,44.363790,2682 6.888577,44.363834,2683 6.888564,44.363862,2685 6.888578,44.363925,2686 6.888569,44.363964,2688 6.888576,44.364022,2689 6.888530,44.364073,2690 6.888512,44.364118,2692 6.888520,44.364127,2693 6.888519,44.364165,2694 6.888546,44.364183,2695 6.888534,44.364166,2695 6.888516,44.364169,2695 6.888473,44.364181,2697 6.888467,44.364212,2698 6.888445,44.364236,2699 6.888457,44.364253,2700 6.888490,44.364264,2701 6.888487,44.364298,2702 6.888528,44.364358,2703 6.888591,44.364439,2705 6.888598,44.364462,2706 6.888604,44.364484,2707 6.888628,44.364520,2708 6.888678,44.364547,2710 6.888688,44.364565,2712 6.888686,44.364587,2712 6.888679,44.364597,2713 6.888677,44.364602,2713 6.888688,44.364611,2714 6.888715,44.364640,2716 6.888749,44.364659,2717 6.888771,44.364717,2718 6.888794,44.364770,2719 6.888822,44.364784,2720 6.888847,44.364802,2721 6.888878,44.364835,2722 6.888890,44.364876,2724 6.888926,44.364980,2725 6.888959,44.364979,2726 6.888967,44.364960,2728 6.888962,44.364997,2729 6.888979,44.365007,2730 6.888989,44.365030,2731 6.888991,44.365033,2731 6.888963,44.365016,2732 6.888987,44.365054,2733 6.889039,44.365063,2734 6.889066,44.365073,2735 6.889135,44.365109,2736 6.889135,44.365097,2737 6.889161,44.365103,2739 6.889149,44.365069,2740 6.889154,44.365109,2740 6.889172,44.365151,2742 6.889223,44.365161,2743 6.889231,44.365170,2744 6.889240,44.365169,2745 6.889265,44.365168,2746 6.889266,44.365197,2747 6.889270,44.365215,2749 6.889275,44.365232,2749 6.889314,44.365256,2750 6.889339,44.365266,2752 6.889356,44.365284,2753 6.889365,44.365306,2754 6.889401,44.365326,2755 6.889414,44.365333,2756 6.889450,44.365371,2758 6.889450,44.365365,2759 6.889464,44.365329,2760 6.889454,44.365363,2761 6.889473,44.365404,2761 6.889487,44.365434,2762 6.889502,44.365431,2762 6.889516,44.365433,2762 6.889529,44.365433,2763 6.889565,44.365407,2765 6.889575,44.365391,2766 6.889618,44.365438,2767 6.889625,44.365440,2768 6.889645,44.365497,2769 6.889693,44.365543,2769 6.889678,44.365477,2769 6.889636,44.365454,2769 6.889635,44.365469,2769 6.889616,44.365586,2771 6.889597,44.365607,2770 6.889587,44.365648,2769 6.889611,44.365688,2771 6.889654,44.365728,2772 6.889686,44.365759,2773 6.889679,44.365712,2773 6.889703,44.365690,2774 6.889746,44.365702,2776 6.889788,44.365693,2777 6.889844,44.365693,2777 6.889921,44.365716,2778 6.889922,44.365789,2779 6.889965,44.365850,2779 6.889954,44.365937,2780 6.889914,44.365986,2781 6.889930,44.366015,2782 6.889929,44.366051,2783 6.889916,44.366078,2786 6.889863,44.366099,2787 6.889895,44.366142,2788 6.889955,44.366189,2789 6.889996,44.366189,2791 6.890015,44.366218,2792 6.889889,44.366288,2790 6.889863,44.366324,2792 6.889877,44.366345,2793 6.889851,44.366339,2794 6.889848,44.366370,2795 6.889863,44.366389,2796 6.889828,44.366411,2798 6.889816,44.366430,2799 6.889808,44.366452,2800 6.889801,44.366459,2801 6.889775,44.366472,2802 6.889775,44.366497,2803 6.889756,44.366488,2804 6.889753,44.366510,2805 6.889747,44.366530,2806 6.889712,44.366550,2807 6.889719,44.366563,2808 6.889693,44.366566,2809 6.889658,44.366567,2810 6.889651,44.366579,2811 6.889647,44.366585,2811 6.889629,44.366592,2812 6.889626,44.366604,2814 6.889616,44.366617,2815 6.889633,44.366662,2816 6.889632,44.366672,2817 6.889627,44.366692,2818 6.889629,44.366705,2819 6.889632,44.366731,2820 6.889634,44.366757,2821 6.889645,44.366764,2822 6.889633,44.366781,2823 6.889621,44.366796,2825 6.889602,44.366824,2826 6.889588,44.366844,2828 6.889587,44.366867,2829 6.889599,44.366936,2831 6.889623,44.366983,2832 6.889632,44.366988,2833 6.889632,44.366973,2833 6.889642,44.367001,2834 6.889635,44.367018,2835 6.889632,44.367029,2837 6.889626,44.367059,2837 6.889649,44.367065,2839 6.889643,44.367096,2840 6.889667,44.367117,2841 6.889676,44.367123,2842 6.889672,44.367121,2842 6.889666,44.367152,2844 6.889659,44.367165,2844 6.889669,44.367152,2845 6.889667,44.367151,2846 6.889665,44.367200,2848 6.889658,44.367214,2849 6.889703,44.367261,2850 6.889714,44.367260,2852 6.889754,44.367283,2853 6.889782,44.367329,2855 6.889812,44.367338,2856 6.889826,44.367350,2857 6.889857,44.367369,2858 6.889848,44.367369,2859 6.889846,44.367381,2860 6.889840,44.367387,2861 6.889856,44.367410,2862 6.889878,44.367428,2864 6.889949,44.367439,2865 6.889989,44.367476,2866 6.890000,44.367486,2867 6.890021,44.367495,2868 6.890054,44.367505,2869 6.890039,44.367510,2869 6.890049,44.367513,2869 6.890051,44.367515,2869 6.890059,44.367496,2868 6.890052,44.367486,2869 6.890042,44.367493,2869 6.890076,44.367523,2869 6.890031,44.367502,2868 6.890051,44.367504,2868 6.890024,44.367505,2867 6.889988,44.367483,2867 6.889981,44.367472,2867 6.889983,44.367469,2867 6.889980,44.367465,2867 6.890043,44.367456,2867 6.889946,44.367449,2867 6.889952,44.367492,2866 6.890023,44.367528,2866 6.890032,44.367523,2866 6.890042,44.367524,2866 6.890028,44.367537,2867 6.890032,44.367550,2868 6.890008,44.367542,2868 6.889985,44.367525,2868 6.889994,44.367551,2868 6.890042,44.367572,2868 6.890042,44.367572,2868 6.890042,44.367572,2868 6.890042,44.367572,2868 6.890035,44.367473,2868 6.890019,44.367525,2868 6.889968,44.367558,2868 6.889908,44.367585,2870 6.889870,44.367602,2872 6.889847,44.367615,2873 6.889824,44.367639,2874 6.889816,44.367671,2875 6.889802,44.367684,2876 6.889797,44.367690,2877 6.889802,44.367726,2878 6.889791,44.367747,2879 6.889759,44.367761,2880 6.889746,44.367768,2881 6.889727,44.367788,2883 6.889721,44.367804,2884 6.889726,44.367828,2885 6.889703,44.367823,2886 6.889662,44.367823,2887 6.889635,44.367825,2888 6.889622,44.367816,2889 6.889629,44.367816,2890 6.889625,44.367837,2891 6.889618,44.367842,2892 6.889605,44.367853,2893 6.889605,44.367855,2894 6.889577,44.367877,2895 6.889553,44.367876,2897 6.889536,44.367898,2898 6.889493,44.367911,2899 6.889502,44.367913,2899 6.889473,44.367916,2899 6.889520,44.367952,2899 6.889495,44.367945,2900 6.889491,44.367943,2900 6.889475,44.367918,2901 6.889478,44.367910,2901 6.889436,44.367872,2901 6.889393,44.367878,2902 6.889356,44.367855,2903 6.889359,44.367845,2904 6.889364,44.367824,2905 6.889357,44.367799,2906 6.889283,44.367769,2908 6.889193,44.367758,2908 6.889104,44.367723,2909 6.889036,44.367701,2910 6.888914,44.367700,2910 6.888893,44.367691,2911 6.888875,44.367649,2911 6.888860,44.367602,2912 6.888871,44.367598,2912 6.888834,44.367550,2910 6.888764,44.367499,2912 6.888724,44.367485,2913 6.888685,44.367479,2914 6.888673,44.367476,2914 6.888638,44.367459,2916 6.888607,44.367445,2917 6.888593,44.367439,2918 6.888565,44.367436,2919 6.888536,44.367434,2921 6.888511,44.367412,2922 6.888489,44.367378,2924 6.888463,44.367377,2926 6.888431,44.367371,2927 6.888363,44.367342,2929 6.888352,44.367342,2930 6.888305,44.367315,2931 6.888232,44.367316,2933 6.888207,44.367312,2934 6.888180,44.367304,2935 6.888171,44.367270,2936 6.888115,44.367238,2937 6.888073,44.367241,2939 6.888058,44.367240,2940 6.888029,44.367207,2941 6.887992,44.367204,2943 6.887948,44.367205,2944 6.887911,44.367161,2945 6.887905,44.367116,2947 6.887879,44.367108,2948 6.887880,44.367116,2948 6.887879,44.367116,2948 6.887881,44.367098,2948 6.887886,44.367079,2948 6.887888,44.367071,2948 6.887884,44.367075,2947 6.887881,44.367118,2948 6.887845,44.367084,2948 6.887863,44.367166,2947 6.887883,44.367217,2945 6.887915,44.367221,2944 6.887968,44.367228,2942 6.887994,44.367237,2941 6.888008,44.367253,2941 6.888056,44.367266,2939 6.888096,44.367273,2937 6.888139,44.367292,2936 6.888178,44.367319,2934 6.888254,44.367330,2932 6.888288,44.367330,2930 6.888339,44.367338,2928 6.888374,44.367336,2927 6.888384,44.367331,2926 6.888378,44.367352,2926 6.888418,44.367375,2924 6.888466,44.367407,2923 6.888502,44.367425,2921 6.888545,44.367434,2920 6.888594,44.367430,2919 6.888598,44.367444,2917 6.888626,44.367446,2915 6.888661,44.367468,2913 6.888715,44.367514,2911 6.888778,44.367529,2910 6.888801,44.367542,2908 6.888834,44.367541,2907 6.888872,44.367613,2908 6.888942,44.367683,2907 6.888982,44.367714,2905 6.889107,44.367757,2904 6.889171,44.367770,2903 6.889225,44.367784,2902 6.889293,44.367805,2901 6.889327,44.367815,2900 6.889342,44.367828,2899 6.889337,44.367827,2899 6.889353,44.367813,2899 6.889355,44.367834,2898 6.889370,44.367850,2897 6.889389,44.367852,2896 6.889413,44.367889,2894 6.889442,44.367929,2892 6.889470,44.367952,2891 6.889483,44.367947,2891 6.889508,44.367928,2890 6.889500,44.367929,2890 6.889492,44.367909,2889 6.889517,44.367939,2890 6.889484,44.367958,2890 6.889501,44.367968,2890 6.889498,44.367950,2889 6.889556,44.368004,2890 6.889551,44.368021,2889 6.889583,44.368024,2888 6.889597,44.368012,2888 6.889568,44.368042,2888 6.889545,44.367965,2887 6.889555,44.367885,2887 6.889554,44.367880,2887 6.889603,44.367933,2887 6.889603,44.367950,2887 6.889546,44.367995,2887 6.889542,44.367986,2887 6.889559,44.368008,2887 6.889565,44.367993,2887 6.889569,44.368019,2887 6.889575,44.367998,2887 6.889568,44.367997,2887 6.889540,44.367944,2887 6.889599,44.367983,2887 6.889585,44.367880,2887 6.889581,44.367889,2887 6.889569,44.367933,2887 6.889568,44.368012,2887 6.889564,44.368039,2887 6.889587,44.367985,2887 6.889600,44.367964,2887 6.889558,44.368042,2888 6.889569,44.368018,2887 6.889528,44.368015,2887 6.889526,44.367972,2886 6.889530,44.367973,2886 6.889577,44.367981,2886 6.889565,44.367967,2886 6.889554,44.367990,2886 6.889542,44.368022,2887 6.889575,44.368007,2887 6.889588,44.368031,2887 6.889560,44.368032,2888 6.889575,44.368008,2888 6.889582,44.368013,2887 6.889544,44.367988,2886 6.889530,44.367992,2886 6.889548,44.367998,2886 6.889550,44.368018,2885 6.889570,44.367995,2885 6.889546,44.367996,2885 6.889570,44.367983,2886 6.889514,44.367947,2886 6.889499,44.367954,2886 6.889515,44.367959,2886 6.889504,44.367956,2886 6.889503,44.367956,2886 6.889494,44.367960,2886 6.889524,44.367959,2886 6.889504,44.367953,2886 6.889483,44.367958,2886 6.889468,44.367985,2886 6.889512,44.367970,2886 6.889503,44.367946,2886 6.889500,44.367934,2886 6.889492,44.367959,2886 6.889503,44.367967,2887 6.889508,44.367921,2887 6.889505,44.367938,2886 6.889503,44.367957,2886 6.889498,44.367954,2886 6.889476,44.367930,2886 6.889495,44.367909,2886 6.889481,44.367929,2886 6.889495,44.367945,2886 6.889484,44.367951,2887 6.889494,44.367964,2886 6.889489,44.367935,2886 6.889508,44.367930,2886 6.889502,44.367978,2886 6.889510,44.367980,2886 6.889508,44.367970,2886 6.889494,44.367936,2887 6.889477,44.367917,2887 6.889514,44.367977,2887 6.889480,44.367989,2886 6.889438,44.367939,2886 6.889488,44.367939,2886 6.889496,44.367973,2886 6.889493,44.367963,2886 6.889487,44.367940,2885 6.889495,44.367954,2885 6.889495,44.367919,2885 6.889485,44.367911,2885 6.889493,44.367912,2885 6.889507,44.367938,2885 6.889482,44.367949,2885 6.889486,44.367953,2884 6.889507,44.367956,2884 6.889514,44.367963,2884 6.889515,44.367950,2884 6.889504,44.367943,2884 6.889500,44.367947,2884 6.889501,44.367950,2884 6.889506,44.367946,2884 6.889507,44.367946,2884 6.889502,44.367949,2884 6.889507,44.367944,2884 6.889495,44.367944,2883 6.889497,44.367952,2884 6.889509,44.367942,2884 6.889505,44.367945,2884 6.889500,44.367933,2884 6.889494,44.367945,2884 6.889491,44.367947,2884 6.889481,44.367944,2885 6.889456,44.367927,2886 6.889429,44.367893,2887 6.889407,44.367883,2888 6.889405,44.367881,2888 6.889385,44.367837,2890 6.889354,44.367835,2891 6.889353,44.367829,2892 6.889338,44.367813,2893 6.889312,44.367800,2894 6.889292,44.367784,2894 6.889255,44.367792,2894 6.889267,44.367787,2894 6.889269,44.367787,2894 6.889284,44.367796,2894 6.889262,44.367773,2895 6.889193,44.367769,2896 6.889156,44.367759,2897 6.889095,44.367740,2897 6.889046,44.367722,2897 6.888951,44.367709,2897 6.888872,44.367709,2898 6.888870,44.367705,2898 6.888881,44.367701,2898 6.888860,44.367723,2897 6.888831,44.367727,2896 6.888830,44.367731,2896 6.888798,44.367762,2894 6.888789,44.367753,2894 6.888743,44.367785,2893 6.888700,44.367778,2892 6.888647,44.367786,2892 6.888679,44.367827,2890 6.888678,44.367838,2890 6.888680,44.367825,2889 6.888686,44.367864,2889 6.888695,44.367873,2888 6.888686,44.367879,2887 6.888726,44.367895,2886 6.888737,44.367897,2885 6.888755,44.367907,2884 6.888748,44.367925,2883 6.888741,44.367947,2882 6.888756,44.367961,2881 6.888763,44.367982,2881 6.888714,44.367978,2880 6.888739,44.368002,2879 6.888729,44.368000,2879 6.888697,44.368021,2877 6.888638,44.368029,2876 6.888637,44.368033,2875 6.888614,44.368045,2874 6.888614,44.368062,2873 6.888636,44.368084,2872 6.888640,44.368113,2871 6.888663,44.368107,2870 6.888675,44.368135,2870 6.888700,44.368142,2868 6.888668,44.368158,2867 6.888653,44.368158,2866 6.888631,44.368162,2866 6.888595,44.368140,2865 6.888591,44.368178,2865 6.888573,44.368185,2864 6.888549,44.368218,2863 6.888552,44.368243,2861 6.888553,44.368242,2861 6.888518,44.368251,2860 6.888530,44.368257,2859 6.888531,44.368297,2857 6.888500,44.368314,2856 6.888485,44.368335,2854 6.888471,44.368350,2853 6.888437,44.368380,2852 6.888473,44.368373,2851 6.888515,44.368396,2850 6.888510,44.368407,2850 6.888482,44.368418,2850 6.888481,44.368425,2849 6.888492,44.368427,2848 6.888465,44.368449,2847 6.888431,44.368487,2846 6.888401,44.368493,2845 6.888351,44.368523,2844 6.888297,44.368556,2843 6.888253,44.368582,2842 6.888183,44.368588,2840 6.888138,44.368605,2840 6.888131,44.368636,2839 6.888129,44.368655,2838 6.888094,44.368660,2836 6.888080,44.368674,2836 6.888054,44.368708,2835 6.888027,44.368729,2834 6.888040,44.368743,2833 6.888031,44.368745,2832 6.888078,44.368767,2830 6.888071,44.368804,2829 6.888070,44.368817,2828 6.888048,44.368825,2827 6.888001,44.368828,2826 6.887987,44.368866,2825 6.887975,44.368879,2823 6.887936,44.368919,2822 6.887903,44.368916,2821 6.887888,44.368922,2821 6.887937,44.368933,2821 6.887931,44.368924,2821 6.887873,44.368921,2821 6.887845,44.368920,2821 6.887894,44.368904,2822 6.887916,44.368919,2822 6.887887,44.368911,2823 6.887889,44.368911,2823 6.887908,44.368919,2821 6.887905,44.368914,2821 6.887879,44.368958,2820 6.887860,44.368985,2819 6.887840,44.368975,2818 6.887849,44.369010,2817 6.887855,44.369049,2815 6.887871,44.369072,2814 6.887883,44.369139,2811 6.887852,44.369157,2810 6.887824,44.369157,2809 6.887774,44.369208,2807 6.887733,44.369234,2805 6.887758,44.369268,2804 6.887746,44.369289,2803 6.887743,44.369271,2802 6.887733,44.369293,2801 6.887739,44.369303,2800 6.887714,44.369348,2798 6.887650,44.369374,2797 6.887570,44.369403,2795 6.887547,44.369437,2793 6.887532,44.369461,2792 6.887510,44.369458,2792 6.887467,44.369509,2790 6.887464,44.369517,2788 6.887438,44.369560,2787 6.887421,44.369554,2786 6.887361,44.369556,2785 6.887364,44.369558,2784 6.887363,44.369605,2784 6.887319,44.369573,2782 6.887313,44.369579,2782 6.887270,44.369588,2781 6.887242,44.369616,2781 6.887234,44.369631,2780 6.887252,44.369606,2780 6.887307,44.369659,2781 6.887274,44.369717,2779 6.887280,44.369731,2778 6.887278,44.369733,2778 6.887261,44.369754,2777 6.887219,44.369755,2777 6.887210,44.369746,2777 6.887201,44.369748,2777 6.887177,44.369749,2776 6.887161,44.369746,2776 6.887138,44.369798,2775 6.887116,44.369797,2774 6.887092,44.369816,2773 6.887060,44.369846,2773 6.887028,44.369860,2771 6.886980,44.369859,2770 6.887010,44.369896,2770 6.886984,44.369908,2770 6.886931,44.369908,2770 6.886894,44.369903,2770 6.886840,44.369865,2769 6.886780,44.369853,2769 6.886759,44.369890,2768 6.886735,44.369884,2767 6.886683,44.369899,2767 6.886642,44.369898,2766 6.886612,44.369904,2766 6.886606,44.369894,2765 6.886601,44.369925,2764 6.886597,44.369917,2763 6.886554,44.369923,2763 6.886547,44.369939,2762 6.886510,44.369954,2762 6.886462,44.369973,2762 6.886435,44.369987,2762 6.886401,44.370003,2761 6.886372,44.370005,2760 6.886362,44.370025,2759 6.886324,44.370058,2760 6.886251,44.370077,2759 6.886197,44.370070,2760 6.886162,44.370091,2759 6.886082,44.370038,2760 6.886042,44.370021,2760 6.885960,44.370041,2759 6.885864,44.370101,2760 6.885830,44.370090,2761 6.885715,44.370080,2762 6.885705,44.370077,2763 6.885646,44.370053,2764 6.885617,44.370056,2764 6.885478,44.370063,2764 6.885415,44.370065,2765 6.885377,44.370044,2766 6.885312,44.370058,2767 6.885258,44.370060,2768 6.885257,44.370060,2768 6.885257,44.370058,2768 6.885250,44.370058,2767 6.885259,44.370079,2766 6.885230,44.370082,2765 6.885204,44.370076,2763 6.885170,44.370070,2761 6.885158,44.370066,2760 6.885122,44.370058,2759 6.885143,44.370096,2758 6.885124,44.370096,2756 6.885097,44.370100,2755 6.885060,44.370078,2754 6.885054,44.370053,2753 6.885038,44.370051,2752 6.885038,44.370015,2750 6.885019,44.370014,2749 6.885008,44.370005,2748 6.885006,44.370010,2747 6.884977,44.370025,2746 6.884942,44.370018,2745 6.884898,44.369992,2744 6.884913,44.369989,2742 6.884898,44.369996,2741 6.884874,44.370008,2740 6.884834,44.370012,2740 6.884789,44.369997,2739 6.884801,44.369980,2738 6.884815,44.369971,2737 6.884811,44.369936,2736 6.884803,44.369911,2734 6.884772,44.369917,2733 6.884782,44.369924,2733 6.884725,44.369914,2731 6.884746,44.369900,2730 6.884721,44.369897,2729 6.884691,44.369882,2729 6.884706,44.369884,2729 6.884659,44.369887,2728 6.884646,44.369890,2726 6.884612,44.369870,2725 6.884601,44.369855,2724 6.884632,44.369859,2723 6.884632,44.369805,2722 6.884627,44.369823,2721 6.884587,44.369832,2720 6.884532,44.369811,2719 6.884552,44.369778,2718 6.884537,44.369764,2717 6.884518,44.369754,2716 6.884557,44.369740,2715 6.884559,44.369712,2714 6.884539,44.369703,2712 6.884542,44.369680,2711 6.884523,44.369662,2710 6.884486,44.369687,2709 6.884514,44.369677,2709 6.884501,44.369655,2707 6.884477,44.369659,2706 6.884464,44.369659,2705 6.884400,44.369634,2703 6.884435,44.369616,2702 6.884430,44.369598,2701 6.884425,44.369591,2700 6.884401,44.369594,2699 6.884366,44.369569,2698 6.884349,44.369544,2697 6.884312,44.369542,2695 6.884286,44.369566,2694 6.884269,44.369562,2692 6.884224,44.369553,2691 6.884214,44.369542,2690 6.884217,44.369481,2689 6.884207,44.369458,2688 6.884191,44.369454,2687 6.884158,44.369453,2685 6.884127,44.369451,2684 6.884169,44.369451,2682 6.884130,44.369435,2681 6.884074,44.369424,2680 6.884097,44.369375,2679 6.884062,44.369376,2678 6.884088,44.369364,2678 6.884068,44.369374,2677 6.884051,44.369359,2676 6.884015,44.369372,2675 6.884007,44.369313,2674 6.884017,44.369335,2675 6.884018,44.369394,2675 6.883962,44.369319,2675 6.883988,44.369303,2675 6.883990,44.369287,2674 6.883991,44.369290,2672 6.883977,44.369283,2671 6.883939,44.369302,2670 6.883894,44.369287,2668 6.883858,44.369289,2667 6.883863,44.369276,2667 6.883827,44.369253,2665 6.883795,44.369270,2664 6.883799,44.369247,2663 6.883797,44.369204,2662 6.883758,44.369248,2659 6.883771,44.369229,2658 6.883742,44.369198,2657 6.883724,44.369186,2655 6.883680,44.369199,2654 6.883690,44.369153,2652 6.883676,44.369110,2651 6.883615,44.369101,2650 6.883584,44.369122,2649 6.883629,44.369070,2647 6.883601,44.369060,2646 6.883572,44.369055,2645 6.883547,44.369044,2643 6.883544,44.369047,2641 6.883496,44.369037,2640 6.883491,44.369026,2639 6.883437,44.369012,2638 6.883425,44.369001,2637 6.883410,44.368966,2636 6.883380,44.368975,2634 6.883384,44.368934,2633 6.883352,44.368943,2632 6.883281,44.368944,2631 6.883251,44.368906,2629 6.883197,44.368891,2628 6.883195,44.368886,2627 6.883126,44.368880,2625 6.883094,44.368873,2625 6.883092,44.368862,2624 6.883046,44.368847,2623 6.883036,44.368828,2621 6.882989,44.368795,2619 6.883009,44.368773,2618 6.882951,44.368755,2618 6.882938,44.368755,2617 6.882925,44.368762,2616 6.882884,44.368748,2615 6.882816,44.368743,2613 6.882792,44.368710,2612 6.882768,44.368661,2611 6.882694,44.368636,2610 6.882695,44.368611,2609 6.882664,44.368593,2608 6.882611,44.368589,2607 6.882580,44.368578,2606 6.882507,44.368592,2605 6.882414,44.368603,2603 6.882341,44.368587,2602 6.882316,44.368555,2601 6.882279,44.368547,2600 6.882259,44.368552,2599 6.882192,44.368551,2598 6.882161,44.368517,2597 6.882125,44.368486,2595 6.882079,44.368469,2594 6.882061,44.368468,2594 6.882049,44.368477,2593 6.882067,44.368496,2593 6.882047,44.368469,2593 6.882015,44.368470,2593 6.882018,44.368490,2593 6.881970,44.368480,2592 6.881941,44.368468,2591 6.881924,44.368465,2590 6.881839,44.368470,2588 6.881830,44.368464,2587 6.881784,44.368445,2585 6.881761,44.368438,2585 6.881664,44.368411,2584 6.881552,44.368371,2584 6.881530,44.368320,2583 6.881419,44.368260,2581 6.881441,44.368248,2580 6.881402,44.368240,2579 6.881383,44.368191,2578 6.881381,44.368171,2577 6.881382,44.368144,2576 6.881357,44.368122,2575 6.881304,44.368104,2574 6.881304,44.368092,2572 6.881306,44.368086,2571 6.881285,44.368055,2570 6.881255,44.368046,2569 6.881236,44.368039,2568 6.881218,44.368038,2566 6.881213,44.368047,2565 6.881169,44.368047,2564 6.881138,44.368041,2562 6.881101,44.368033,2561 6.881084,44.368054,2560 6.881033,44.368073,2558 6.880994,44.368051,2557 6.880993,44.368015,2557 6.880866,44.368025,2556 6.880675,44.367950,2555 6.880465,44.367890,2556 6.880352,44.367877,2556 6.880260,44.367838,2556 6.880196,44.367812,2554 6.880194,44.367742,2552 6.880151,44.367749,2551 6.880115,44.367741,2550 6.880051,44.367727,2549 6.880013,44.367703,2548 6.879983,44.367684,2547 6.879916,44.367685,2546 6.879810,44.367667,2545 6.879752,44.367666,2545 6.879634,44.367636,2543 6.879532,44.367565,2542 6.879533,44.367539,2541 6.879495,44.367531,2540 6.879448,44.367513,2538 6.879466,44.367508,2537 6.879509,44.367484,2538 6.879524,44.367479,2539 6.879560,44.367447,2540 6.879581,44.367438,2540 6.879605,44.367404,2541 6.879611,44.367390,2542 6.879643,44.367330,2542 6.879665,44.367318,2543 6.879675,44.367307,2543 6.879671,44.367291,2544 6.879652,44.367255,2544 6.879659,44.367263,2545 6.879692,44.367195,2545 6.879713,44.367154,2545 6.879747,44.367069,2544 6.879776,44.366989,2542 6.879808,44.366960,2542 6.879829,44.366932,2542 6.879843,44.366864,2541 6.879878,44.366847,2540 6.879907,44.366799,2539 6.879920,44.366770,2538 6.879926,44.366760,2537 6.879938,44.366742,2537 6.879962,44.366698,2538 6.879985,44.366630,2537 6.879997,44.366611,2536 6.880019,44.366562,2535 6.880058,44.366479,2534 6.880061,44.366459,2533 6.880062,44.366469,2533 6.880069,44.366408,2533 6.880052,44.366402,2533 6.880057,44.366402,2532 6.880028,44.366415,2530 6.880026,44.366374,2529 6.880031,44.366359,2528 6.880029,44.366396,2527 6.880061,44.366316,2526 6.880032,44.366312,2525 6.880020,44.366322,2524 6.879986,44.366356,2523 6.879968,44.366371,2522 6.879960,44.366383,2521 6.879944,44.366393,2519 6.879939,44.366402,2518 6.879934,44.366412,2517 6.879912,44.366443,2516 6.879889,44.366464,2514 6.879856,44.366501,2513 6.879856,44.366510,2512 6.879849,44.366518,2511 6.879821,44.366496,2510 6.879792,44.366485,2509 6.879807,44.366450,2509 6.879724,44.366462,2508 6.879725,44.366471,2508 6.879743,44.366481,2507 6.879726,44.366464,2506 6.879732,44.366463,2504 6.879656,44.366434,2503 6.879621,44.366430,2502 6.879601,44.366422,2501 6.879588,44.366379,2500 6.879566,44.366389,2499 6.879520,44.366372,2497 6.879492,44.366343,2496 6.879462,44.366311,2495 6.879433,44.366323,2493 6.879412,44.366301,2491 6.879402,44.366320,2490 6.879374,44.366320,2489 6.879357,44.366317,2488 6.879338,44.366336,2487 6.879287,44.366336,2486 6.879266,44.366335,2485 6.879265,44.366335,2484 6.879262,44.366324,2483 6.879212,44.366345,2480 6.879214,44.366351,2479 6.879206,44.366347,2478 6.879149,44.366358,2477 6.879087,44.366338,2476 6.879084,44.366305,2474 6.879074,44.366255,2474 6.879061,44.366230,2473 6.879032,44.366194,2471 6.878970,44.366158,2469 6.878949,44.366155,2467 6.878909,44.366163,2466 6.878870,44.366142,2465 6.878865,44.366117,2463 6.878829,44.366083,2461 6.878812,44.366038,2460 6.878774,44.366015,2459 6.878687,44.365993,2458 6.878627,44.365985,2457 6.878703,44.365920,2458 6.878722,44.365931,2458 6.878729,44.365908,2458 6.878726,44.365949,2458 6.878727,44.365917,2458 6.878728,44.365913,2458 6.878697,44.365916,2459 6.878723,44.365904,2459 6.878703,44.365968,2460 6.878682,44.365984,2460 6.878686,44.365978,2460 6.878711,44.365966,2460 6.878716,44.365952,2461 6.878687,44.365954,2461 6.878743,44.365925,2461 6.878691,44.365937,2461 6.878703,44.365995,2461 6.878719,44.365891,2460 6.878710,44.365907,2460 6.878717,44.365904,2460 6.878700,44.365951,2461 6.878686,44.365989,2461 6.878663,44.365952,2461 6.878690,44.365896,2461 6.878696,44.365920,2462 6.878695,44.365940,2461 6.878668,44.365953,2461 6.878673,44.365963,2461 6.878675,44.365959,2461 6.878676,44.365943,2461 6.878705,44.365888,2462 6.878704,44.365942,2462 6.878697,44.365926,2461 6.878689,44.365907,2461 6.878736,44.365953,2461 6.878735,44.365924,2461 6.878701,44.365942,2462 6.878687,44.365957,2462 6.878679,44.365937,2462 6.878721,44.365961,2463 6.878724,44.365947,2463 6.878695,44.365955,2463 6.878703,44.365948,2463 6.878696,44.365903,2462 6.878756,44.365883,2462 6.878822,44.365876,2462 6.878740,44.365880,2461 6.878718,44.365919,2461 6.878724,44.365922,2461 6.878693,44.365937,2461 6.878679,44.365907,2461 6.878691,44.365914,2462 6.878699,44.365964,2462 6.878684,44.365958,2461 6.878663,44.365950,2461 6.878638,44.365965,2461 6.878645,44.365972,2461 6.878679,44.365957,2461 6.878685,44.365974,2461 6.878690,44.365961,2461 6.878727,44.365981,2461 6.878728,44.365986,2461 6.878686,44.365951,2461 6.878669,44.365963,2461 6.878600,44.365964,2459 6.878530,44.365989,2458 6.878447,44.365987,2457 6.878372,44.365961,2454 6.878302,44.365960,2453 6.878169,44.365952,2452 6.878164,44.365944,2452 6.878155,44.365955,2452 6.878142,44.365960,2452 6.878059,44.365940,2451 6.878021,44.365923,2450 6.877970,44.365906,2450 6.877887,44.365910,2449 6.877848,44.365890,2448 6.877737,44.365868,2446 6.877624,44.365853,2445 6.877544,44.365825,2444 6.877479,44.365812,2442 6.877425,44.365786,2440 6.877346,44.365736,2438 6.877219,44.365721,2436 6.876942,44.365674,2438 6.876837,44.365688,2438 6.876700,44.365746,2439 6.876627,44.365769,2439 6.876515,44.365804,2440 6.876389,44.365856,2441 6.876239,44.365940,2441 6.875986,44.366052,2442 6.875826,44.366116,2442 6.875642,44.366111,2443 6.875442,44.366184,2444 6.875286,44.366187,2445 6.875108,44.366256,2445 6.874991,44.366280,2446 6.874986,44.366328,2446 6.874970,44.366344,2446 6.874850,44.366390,2446 6.874690,44.366501,2445 6.874541,44.366574,2444 6.874553,44.366541,2445 6.874523,44.366617,2445 6.874409,44.366725,2445 6.874366,44.366735,2445 6.874286,44.366771,2444 6.874293,44.366759,2444 6.874239,44.366799,2443 6.874201,44.366824,2443 6.874083,44.366929,2443 6.873986,44.367033,2443 6.873947,44.367046,2442 6.873810,44.367161,2441 6.873682,44.367214,2441 6.873469,44.367322,2441 6.873308,44.367388,2440 6.873198,44.367401,2439 6.873058,44.367458,2438 6.872976,44.367564,2438 6.872908,44.367599,2437 6.872836,44.367662,2436 6.872816,44.367818,2435 6.872760,44.367937,2435 6.872776,44.367995,2434 6.872747,44.368147,2433 6.872790,44.368186,2432 6.872737,44.368388,2433 6.872615,44.368480,2432 6.872578,44.368553,2433 6.872537,44.368629,2433 6.872493,44.368687,2434 6.872457,44.368817,2433 6.872428,44.368857,2431 6.872404,44.368925,2430 6.872363,44.368944,2429 6.872246,44.369124,2429 6.872224,44.369173,2428 6.872201,44.369199,2427 6.872190,44.369232,2425 6.872182,44.369253,2425 6.872125,44.369283,2424 6.872075,44.369317,2422 6.872032,44.369353,2421 6.871999,44.369404,2420 6.871969,44.369456,2418 6.871915,44.369487,2417 6.871772,44.369512,2417 6.871782,44.369503,2417 6.871723,44.369589,2417 6.871705,44.369664,2418 6.871670,44.369671,2419 6.871578,44.369756,2420 6.871532,44.369823,2421 6.871490,44.369863,2422 6.871448,44.369907,2423 6.871396,44.369995,2424 6.871359,44.370057,2425 6.871345,44.370084,2426 6.871338,44.370120,2426 6.871333,44.370143,2427 6.871298,44.370219,2428 6.871226,44.370350,2430 6.871244,44.370456,2430 6.871249,44.370517,2429 6.871196,44.370583,2429 6.871145,44.370611,2428 6.871081,44.370675,2425 6.871082,44.370707,2424 6.871051,44.370763,2423 6.871026,44.370842,2421 6.871028,44.370880,2420 6.871013,44.370912,2419 6.870963,44.370964,2417 6.870911,44.371047,2416 6.870821,44.371153,2415 6.870732,44.371228,2414 6.870613,44.371238,2412 6.870527,44.371229,2411 6.870412,44.371202,2410 6.870386,44.371155,2409 6.870373,44.371121,2408 6.870378,44.371138,2407 6.870380,44.371228,2404 6.870356,44.371254,2403 6.870309,44.371318,2401 6.870306,44.371341,2400 6.870287,44.371371,2399 6.870269,44.371410,2397 6.870246,44.371452,2396 6.870182,44.371489,2395 6.870119,44.371502,2393 6.870109,44.371532,2392 6.870109,44.371548,2391 6.870103,44.371566,2391 6.870137,44.371627,2390 6.870140,44.371659,2389 6.870113,44.371706,2387 6.870088,44.371749,2386 6.870076,44.371803,2385 6.870071,44.371853,2383 6.870059,44.371907,2382 6.870001,44.371958,2380 6.869981,44.372012,2378 6.869947,44.372016,2377 6.869896,44.372035,2376 6.869876,44.372066,2375 6.869838,44.372098,2374 6.869785,44.372146,2371 6.869788,44.372153,2370 6.869770,44.372213,2368 6.869755,44.372265,2367 6.869774,44.372303,2366 6.869781,44.372342,2365 6.869771,44.372393,2363 6.869762,44.372453,2361 6.869795,44.372521,2360 6.869815,44.372586,2359 6.869813,44.372669,2357 6.869799,44.372782,2355 6.869786,44.372877,2354 6.869777,44.372914,2353 6.869760,44.372983,2350 6.869751,44.373033,2349 6.869705,44.373123,2348 6.869670,44.373168,2348 6.869619,44.373207,2347 6.869620,44.373343,2348 6.869660,44.373408,2349 6.869742,44.373569,2350 6.869766,44.373676,2351 6.869790,44.373753,2352 6.869817,44.373810,2353 6.869874,44.373875,2354 6.869925,44.373972,2352 6.869959,44.374079,2351 6.869978,44.374140,2349 6.869988,44.374193,2348 6.870002,44.374247,2347 6.870018,44.374357,2346 6.870033,44.374503,2345 6.870061,44.374559,2345 6.870089,44.374650,2343 6.870151,44.374757,2343 6.870295,44.374928,2342 6.870364,44.374990,2341 6.870407,44.375100,2340 6.870410,44.375163,2339 6.870420,44.375251,2338 6.870423,44.375305,2337 6.870433,44.375335,2337 6.870454,44.375448,2335 6.870468,44.375569,2334 6.870428,44.375690,2332 6.870410,44.375797,2331 6.870412,44.375876,2330 6.870404,44.375988,2328 6.870400,44.376046,2327 6.870408,44.376146,2326 6.870410,44.376179,2325 6.870412,44.376262,2325 6.870401,44.376346,2324 6.870398,44.376382,2323 6.870423,44.376432,2322 6.870463,44.376479,2321 6.870458,44.376510,2320 6.870418,44.376617,2318 6.870371,44.376688,2318 6.870293,44.376791,2317 6.870275,44.376870,2317 6.870261,44.376985,2316 6.870222,44.377081,2316 6.870204,44.377204,2315 6.870241,44.377225,2315 6.870258,44.377371,2314 6.870284,44.377424,2313 6.870290,44.377488,2311 6.870279,44.377555,2310 6.870259,44.377635,2309 6.870243,44.377681,2307 6.870255,44.377690,2306 6.870252,44.377737,2305 6.870249,44.377744,2304 6.870237,44.377793,2302 6.870212,44.377841,2301 6.870221,44.377987,2299 6.870231,44.378029,2299 6.870264,44.378139,2298 6.870319,44.378219,2298 6.870365,44.378325,2297 6.870462,44.378458,2296 6.870514,44.378538,2296 6.870577,44.378625,2294 6.870651,44.378707,2293 6.870718,44.378799,2292 6.870809,44.378910,2291 6.870860,44.378973,2291 6.870934,44.379114,2289 6.870975,44.379251,2287 6.871038,44.379380,2286 6.871209,44.379487,2286 6.871321,44.379535,2285 6.871508,44.379589,2287 6.871584,44.379609,2288 6.871663,44.379641,2288 6.871754,44.379700,2287 6.871812,44.379704,2287 6.871845,44.379715,2286 6.871973,44.379807,2285 6.871988,44.379830,2285 6.872004,44.379818,2285 6.871999,44.379834,2285 6.872004,44.379811,2285 6.871950,44.379839,2285 6.871958,44.379787,2286 6.871969,44.379793,2286 6.871993,44.379765,2286 6.871933,44.379745,2286 6.871984,44.379752,2287 6.871968,44.379776,2286 6.872011,44.379753,2287 6.872005,44.379743,2286 6.871978,44.379793,2286 6.871961,44.379767,2285 6.871989,44.379768,2285 6.872001,44.379775,2286 6.875143,44.389892,2086 6.875130,44.389908,2085 6.875048,44.389976,2083 6.875010,44.390012,2082 6.874960,44.390047,2081 6.874866,44.390148,2081 6.874852,44.390224,2079 6.874864,44.390289,2078 6.874799,44.390379,2075 6.874768,44.390448,2074 6.874794,44.390551,2073 6.874861,44.390555,2073 6.874970,44.390562,2072 6.875116,44.390633,2071 6.875246,44.390667,2070 6.875343,44.390731,2069 6.875407,44.390773,2067 6.875497,44.390814,2065 6.875562,44.390854,2064 6.875634,44.390852,2063 6.875698,44.390786,2061 6.875765,44.390748,2060 6.875820,44.390757,2058 6.875869,44.390860,2057 6.875918,44.390940,2055 6.875947,44.391013,2054 6.875955,44.391082,2053 6.875953,44.391154,2051 6.876046,44.391211,2050 6.876069,44.391326,2048 6.876036,44.391366,2047 6.876004,44.391406,2046 6.875989,44.391465,2044 6.876003,44.391595,2043 6.876075,44.391645,2042 6.876133,44.391674,2041 6.876193,44.391726,2039 6.876242,44.391753,2038 6.876301,44.391783,2037 6.876378,44.391854,2034 6.876473,44.391943,2032 6.876507,44.391979,2031 6.876552,44.392045,2029 6.876580,44.392086,2027 6.876714,44.392158,2025 6.876784,44.392172,2024 6.876886,44.392181,2022 6.876946,44.392189,2021 6.877084,44.392266,2020 6.877133,44.392351,2018 6.877109,44.392464,2015 6.877123,44.392471,2014 6.877170,44.392507,2013 6.877189,44.392602,2012 6.877209,44.392718,2011 6.877198,44.392772,2010 6.877221,44.392857,2009 6.877280,44.393001,2007 6.877342,44.393076,2006 6.877444,44.393190,2005 6.877508,44.393331,2004 6.877547,44.393426,2002 6.877570,44.393493,2001 6.877597,44.393556,2000 6.877613,44.393690,1998 6.877620,44.393803,1997 6.877620,44.393939,1996 6.877645,44.394083,1995 6.877709,44.394267,1995 6.877765,44.394324,1994 6.877814,44.394387,1992 6.877825,44.394466,1991 6.877793,44.394526,1989 6.877789,44.394610,1988 6.877792,44.394716,1987 6.877775,44.394855,1986 6.877787,44.394933,1985 6.877775,44.395039,1983 6.877725,44.395161,1981 6.877640,44.395291,1979 6.877576,44.395378,1979 6.877534,44.395484,1978 6.877391,44.395685,1978 6.877392,44.395922,1978 6.877389,44.396048,1978 6.877362,44.396118,1978 6.877300,44.396203,1978 6.877288,44.396376,1979 6.877298,44.396411,1979 6.877231,44.396582,1980 6.877232,44.396665,1982 6.877198,44.396764,1982 6.877227,44.396870,1980 6.877215,44.396997,1979 6.877174,44.397108,1978 6.877099,44.397203,1976 6.877020,44.397370,1976 6.876973,44.397591,1975 6.876997,44.397712,1975 6.876987,44.397832,1974 6.876972,44.397996,1973 6.877028,44.398217,1973 6.877078,44.398264,1973 6.877008,44.398215,1973 6.877030,44.398361,1973 6.877057,44.398446,1973 6.877002,44.398595,1974 6.876951,44.398773,1974 6.876939,44.398854,1975 6.876985,44.398965,1975 6.877021,44.399110,1974 6.877072,44.399317,1973 6.877173,44.399419,1975 6.877290,44.399581,1976 6.877279,44.399747,1975 6.877275,44.400005,1975 6.877288,44.400093,1976 6.877326,44.400224,1977 6.877317,44.400284,1977 6.877387,44.400430,1975 6.877466,44.400611,1973 6.877406,44.400818,1972 6.877483,44.401016,1972 6.877574,44.401105,1971 6.877671,44.401213,1970 6.877766,44.401386,1969 6.877817,44.401536,1968 6.877865,44.401620,1967 6.877861,44.401740,1967 6.877879,44.401832,1966 6.877890,44.401941,1967 6.877976,44.402101,1968 6.878074,44.402235,1968 6.878106,44.402306,1969 6.878118,44.402384,1970 6.878099,44.402493,1971 6.878081,44.402523,1971 6.878089,44.402580,1971 6.878237,44.402740,1972 6.878297,44.402818,1972 6.878372,44.403072,1971 6.878325,44.403173,1970 6.878335,44.403270,1969 6.878505,44.403463,1969 6.878593,44.403570,1969 6.878660,44.403672,1968 6.878736,44.403729,1967 6.878849,44.403799,1965 6.878978,44.403868,1964 6.879040,44.403912,1963 6.879085,44.404019,1961 6.879077,44.404110,1960 6.879123,44.404209,1958 6.879171,44.404253,1957 6.879207,44.404309,1956 6.879248,44.404407,1954 6.879305,44.404461,1953 6.879326,44.404507,1952 6.879371,44.404649,1949 6.879406,44.404699,1948 6.879437,44.404776,1947 6.879488,44.404889,1945 6.879532,44.404925,1944 6.879521,44.404928,1943 6.879506,44.404930,1943 6.879514,44.405033,1942 6.879585,44.405117,1941 6.879620,44.405206,1940 6.879665,44.405257,1939 6.879723,44.405354,1938 6.879787,44.405601,1938 6.879899,44.405811,1939 6.879993,44.405945,1939 6.880152,44.406153,1938 6.880358,44.406317,1938 6.880520,44.406533,1937 6.880583,44.406683,1937 6.880646,44.406819,1936 6.880869,44.407000,1936 6.881086,44.407147,1936 6.881174,44.407270,1937 6.881226,44.407355,1938 6.881348,44.407537,1937 6.881380,44.407630,1936 6.881498,44.407885,1937 6.881622,44.408137,1937 6.881698,44.408396,1936 6.881719,44.408654,1936 6.881669,44.408889,1934 6.881663,44.409074,1934 6.881660,44.409215,1933 6.881698,44.409347,1932 6.881744,44.409508,1931 6.881799,44.409655,1931 6.881911,44.409834,1932 6.881982,44.409911,1932 6.882089,44.410057,1933 6.882355,44.410276,1933 6.882479,44.410350,1934 6.882640,44.410454,1934 6.882889,44.410666,1935 6.883035,44.410793,1935 6.883203,44.411053,1936 6.883280,44.411216,1935 6.883305,44.411367,1933 6.883318,44.411453,1933 6.883344,44.411618,1933 6.883330,44.411718,1932 6.883345,44.411868,1932 6.883472,44.412153,1933 6.883660,44.412397,1933 6.883771,44.412517,1934 6.883989,44.412727,1933 6.884049,44.412779,1933 6.884168,44.412884,1932 6.884205,44.412925,1931 6.884235,44.413031,1930 6.884256,44.413164,1929 6.884440,44.413443,1928 6.884524,44.413557,1927 6.884640,44.413746,1926 6.884701,44.413854,1925 6.884746,44.413974,1923 6.884775,44.414044,1922 6.884815,44.414166,1921 6.884823,44.414318,1921 6.884832,44.414483,1920 6.884851,44.414699,1920 6.884845,44.414860,1919 6.884832,44.415033,1918 6.884884,44.415268,1917 6.884908,44.415408,1917 6.884984,44.415695,1916 6.885010,44.415798,1916 6.885042,44.416051,1915 6.885104,44.416226,1914 6.885156,44.416353,1913 6.885190,44.416502,1912 6.885207,44.416640,1912 6.885305,44.416815,1911 6.885443,44.417016,1910 6.885577,44.417189,1909 6.885612,44.417372,1908 6.885654,44.417501,1907 6.885931,44.417558,1908 6.886065,44.417588,1908 6.886339,44.417639,1907 6.886572,44.417673,1907 6.886733,44.417757,1907 6.886765,44.417806,1907 6.886757,44.417805,1907 6.886765,44.417807,1907 6.886778,44.417777,1907 6.886763,44.417882,1907 6.886748,44.417925,1908 6.886763,44.418009,1909 6.886780,44.418125,1910 6.886785,44.418175,1910 6.886773,44.418253,1911 6.886761,44.418387,1912 6.886743,44.418483,1913 6.886710,44.418542,1913 6.886605,44.418755,1913 6.886548,44.418942,1915 6.886530,44.419045,1916 6.886572,44.419156,1917 6.886636,44.419227,1918 6.886683,44.419326,1918 6.886716,44.419423,1918 6.886800,44.419645,1919 6.886833,44.419773,1919 6.886862,44.419941,1919 6.886899,44.420100,1919 6.886900,44.420092,1918 6.886904,44.420169,1918 6.886942,44.420305,1918 6.886964,44.420532,1918 6.887057,44.420625,1918 6.887394,44.420681,1918 6.887673,44.420665,1919 6.887907,44.420701,1919 6.887978,44.420885,1919 6.888014,44.420955,1920 6.888149,44.421182,1919 6.888198,44.421372,1919 6.888199,44.421456,1920 6.888233,44.421569,1920 6.888256,44.421678,1918 6.888250,44.421862,1917 6.888266,44.422027,1916 6.888364,44.422313,1916 6.888453,44.422444,1916 6.888580,44.422688,1917 6.888643,44.422782,1918 6.888722,44.422884,1918 6.888790,44.422975,1919 6.888847,44.423061,1919 6.888927,44.423159,1919 6.889009,44.423280,1922 6.889054,44.423328,1923 6.889061,44.423435,1924 6.889084,44.423561,1924 6.889149,44.423703,1925 6.889177,44.423776,1926 6.889207,44.423930,1927 6.889221,44.424028,1927 6.889240,44.424114,1928 6.889288,44.424312,1929 6.889341,44.424485,1929 6.889332,44.424598,1931 6.889314,44.424739,1932 6.889299,44.424833,1933 6.889298,44.424905,1935 6.889293,44.424958,1936 6.889277,44.425068,1937 6.889269,44.425123,1938 6.889250,44.425262,1939 6.889249,44.425321,1940 6.889238,44.425410,1941 6.889218,44.425534,1944 6.889230,44.425596,1945 6.889242,44.425666,1946 6.889273,44.425737,1946 6.889356,44.425755,1948 6.889438,44.425757,1948 6.889537,44.425711,1949 6.889666,44.425553,1950 6.889735,44.425497,1950 6.889820,44.425413,1951 6.889893,44.425373,1952 6.890014,44.425341,1953 6.890196,44.425293,1953 6.890307,44.425253,1954 6.890369,44.425228,1955 6.890523,44.425166,1956 6.890639,44.425110,1956 6.890752,44.425061,1958 6.890860,44.425034,1958 6.890912,44.425025,1959 6.890966,44.425014,1961 6.891064,44.425000,1962 6.891159,44.424999,1963 6.891255,44.424991,1964 6.891326,44.424980,1965 6.891400,44.424974,1966 6.891530,44.424951,1967 6.891683,44.424924,1968 6.891758,44.424912,1969 6.891803,44.424927,1970 6.891836,44.424926,1971 6.891914,44.424909,1973 6.891978,44.424895,1974 6.892017,44.424892,1975 6.892086,44.424886,1977 6.892105,44.424882,1977 6.892207,44.424848,1979 6.892293,44.424817,1980 6.892334,44.424791,1980 6.892450,44.424744,1981 6.892577,44.424734,1982 6.892674,44.424717,1984 6.892784,44.424684,1985 6.892912,44.424653,1986 6.892945,44.424643,1987 6.893056,44.424626,1988 6.893222,44.424631,1990 6.893382,44.424597,1990 6.893509,44.424511,1991 6.893597,44.424427,1992 6.893626,44.424392,1993 6.893628,44.424389,1992 6.893647,44.424402,1992 6.893635,44.424403,1992 6.893707,44.424354,1992 6.893888,44.424312,1992 6.894025,44.424268,1992 6.894201,44.424218,1991 6.894505,44.424142,1991 6.894667,44.424118,1991 6.894830,44.424058,1993 6.895068,44.423932,1992 6.895126,44.423868,1991 6.895217,44.423799,1989 6.895472,44.423704,1988 6.895681,44.423641,1987 6.895873,44.423536,1985 6.896049,44.423415,1985 6.896189,44.423227,1986 6.896336,44.423118,1987 6.896376,44.423077,1988 6.896476,44.423004,1988 6.896631,44.422875,1989 6.896699,44.422775,1990 6.896838,44.422691,1991 6.896996,44.422600,1991 6.897250,44.422556,1991 6.897291,44.422496,1992 6.897404,44.422396,1993 6.897611,44.422246,1993 6.897732,44.422193,1994 6.897879,44.422166,1995 6.898083,44.422027,1995 6.898326,44.421906,1996 6.898314,44.421842,1996 6.898330,44.421774,1997 6.898374,44.421676,1997 6.898284,44.421520,2005</coordinates></LineString></Placemark></Document></kml>