<?xml version="1.0" encoding="UTF-8"?>
<kml xmlns="http://www.opengis.net/kml/2.2"><Document><name>Alta Linea Continua – Stage 8: Lacs de Fremamorte to Laghi di Valscura</name><Style id="l"><LineStyle><color>ff2b30c4</color><width>4</width></LineStyle></Style><Placemark><name>Alta Linea Continua – Stage 8: Lacs de Fremamorte to Laghi di Valscura</name><styleUrl>#l</styleUrl><LineString><tessellate>1</tessellate><altitudeMode>clampToGround</altitudeMode><coordinates>7.256298,44.151309,2414 7.256219,44.151341,2416 7.256217,44.151366,2417 7.256188,44.151369,2418 7.256112,44.151423,2420 7.256042,44.151461,2421 7.256045,44.151471,2421 7.255967,44.151478,2422 7.255924,44.151473,2423 7.255882,44.151485,2425 7.255834,44.151482,2426 7.255829,44.151486,2427 7.255785,44.151505,2428 7.255773,44.151530,2429 7.255829,44.151541,2430 7.255877,44.151601,2432 7.255901,44.151630,2433 7.255914,44.151683,2434 7.255964,44.151714,2435 7.255979,44.151725,2435 7.256028,44.151756,2436 7.256056,44.151795,2437 7.256069,44.151814,2438 7.256069,44.151836,2439 7.256102,44.151881,2440 7.256102,44.151901,2441 7.256159,44.151930,2443 7.256171,44.151949,2443 7.256153,44.152003,2445 7.256097,44.151995,2447 7.256084,44.151995,2447 7.256064,44.151996,2448 7.256072,44.151997,2449 7.256077,44.152031,2450 7.256068,44.152072,2451 7.256071,44.152111,2452 7.256085,44.152166,2453 7.256091,44.152182,2455 7.256063,44.152188,2456 7.256022,44.152174,2457 7.256027,44.152192,2458 7.256006,44.152225,2459 7.256003,44.152244,2460 7.255996,44.152273,2461 7.255974,44.152298,2462 7.255952,44.152318,2463 7.255964,44.152357,2464 7.255981,44.152396,2465 7.255983,44.152406,2466 7.255967,44.152435,2468 7.255971,44.152471,2469 7.255983,44.152514,2469 7.255985,44.152528,2470 7.255952,44.152603,2472 7.255934,44.152662,2473 7.255939,44.152676,2474 7.255943,44.152711,2475 7.255952,44.152782,2476 7.255921,44.152781,2477 7.255913,44.152768,2478 7.255896,44.152764,2479 7.255864,44.152808,2480 7.255817,44.152858,2481 7.255750,44.152913,2481 7.255683,44.152959,2480 7.255642,44.152962,2480 7.255587,44.152967,2479 7.255476,44.153013,2478 7.255459,44.153066,2480 7.255482,44.153126,2481 7.255492,44.153185,2482 7.255490,44.153202,2483 7.255440,44.153229,2484 7.255432,44.153280,2485 7.255413,44.153320,2485 7.255390,44.153347,2486 7.255328,44.153388,2487 7.255254,44.153437,2488 7.255195,44.153508,2489 7.255259,44.153511,2490 7.255378,44.153490,2491 7.255453,44.153474,2492 7.255544,44.153428,2493 7.255578,44.153398,2494 7.255674,44.153373,2494 7.255743,44.153402,2496 7.255684,44.153450,2497 7.255600,44.153488,2498 7.255539,44.153527,2498 7.255434,44.153611,2499 7.255386,44.153656,2500 7.255335,44.153709,2501 7.255269,44.153755,2502 7.255206,44.153798,2503 7.255222,44.153816,2503 7.255280,44.153792,2504 7.255314,44.153782,2505 7.255380,44.153762,2506 7.255464,44.153736,2507 7.255628,44.153720,2508 7.255726,44.153692,2509 7.255806,44.153677,2511 7.255824,44.153688,2511 7.255821,44.153723,2512 7.255760,44.153760,2513 7.255706,44.153788,2514 7.255660,44.153834,2515 7.255589,44.153904,2516 7.255502,44.153962,2517 7.255452,44.153996,2517 7.255368,44.154052,2518 7.255273,44.154093,2519 7.255195,44.154126,2520 7.255178,44.154132,2521 7.255193,44.154125,2521 7.255192,44.154139,2520 7.255192,44.154140,2520 7.255192,44.154140,2520 7.255192,44.154140,2520 7.255192,44.154140,2520 7.255192,44.154140,2520 7.255192,44.154140,2520 7.255192,44.154140,2520 7.255192,44.154140,2520 7.255192,44.154140,2520 7.255192,44.154140,2520 7.255146,44.154152,2521 7.255145,44.154152,2521 7.255145,44.154152,2521 7.255145,44.154152,2521 7.255144,44.154159,2521 7.255138,44.154177,2521 7.255154,44.154164,2521 7.255143,44.154152,2521 7.255134,44.154160,2521 7.255059,44.154158,2522 7.255014,44.154162,2522 7.255034,44.154160,2523 7.255103,44.154191,2524 7.255133,44.154201,2524 7.255259,44.154200,2525 7.255366,44.154204,2526 7.255403,44.154181,2527 7.255424,44.154191,2527 7.255453,44.154201,2528 7.255541,44.154228,2529 7.255572,44.154216,2530 7.255637,44.154203,2531 7.255741,44.154195,2532 7.255742,44.154241,2533 7.255677,44.154268,2534 7.255581,44.154305,2534 7.255524,44.154324,2535 7.255465,44.154345,2535 7.255413,44.154374,2536 7.255304,44.154387,2538 7.255288,44.154397,2538 7.255325,44.154395,2539 7.255432,44.154404,2540 7.255556,44.154419,2541 7.255663,44.154417,2542 7.255751,44.154432,2544 7.255704,44.154457,2545 7.255638,44.154471,2546 7.255607,44.154484,2546 7.255529,44.154511,2547 7.255396,44.154513,2547 7.255223,44.154527,2548 7.255177,44.154539,2549 7.255116,44.154554,2551 7.255055,44.154570,2552 7.254960,44.154589,2553 7.254823,44.154630,2554 7.254746,44.154657,2555 7.254721,44.154674,2556 7.254646,44.154722,2557 7.254486,44.154812,2558 7.254395,44.154862,2559 7.254199,44.154954,2560 7.254018,44.154970,2560 7.253932,44.154995,2561 7.253936,44.155009,2563 7.253993,44.155012,2564 7.254080,44.155027,2565 7.254145,44.155043,2566 7.254302,44.155074,2568 7.254372,44.155062,2569 7.254456,44.155046,2570 7.254502,44.155034,2571 7.254593,44.154988,2573 7.254739,44.154966,2574 7.254801,44.154966,2576 7.254860,44.154954,2577 7.254952,44.154924,2578 7.255005,44.154911,2579 7.255035,44.154905,2579 7.255081,44.154904,2581 7.255138,44.154926,2582 7.255357,44.154951,2582 7.255392,44.154950,2582 7.255488,44.154947,2583 7.255604,44.155009,2585 7.255720,44.155039,2586 7.255800,44.155071,2588 7.255824,44.155068,2588 7.255887,44.155048,2588 7.255959,44.155047,2589 7.255995,44.155070,2590 7.255870,44.155142,2592 7.255816,44.155160,2592 7.255739,44.155179,2593 7.255685,44.155186,2594 7.255621,44.155197,2595 7.255554,44.155190,2597 7.255542,44.155221,2598 7.255593,44.155264,2599 7.255651,44.155317,2600 7.255718,44.155355,2601 7.255746,44.155391,2602 7.255775,44.155434,2604 7.255768,44.155471,2605 7.255760,44.155501,2606 7.255733,44.155560,2607 7.255718,44.155544,2607 7.255623,44.155535,2607 7.255618,44.155543,2607 7.255637,44.155542,2607 7.255650,44.155544,2607 7.255654,44.155547,2607 7.255616,44.155560,2607 7.255623,44.155555,2607 7.255624,44.155558,2606 7.255592,44.155541,2606 7.255510,44.155580,2606 7.255478,44.155597,2606 7.255365,44.155640,2605 7.255175,44.155642,2603 7.255242,44.155667,2602 7.255323,44.155726,2600 7.255374,44.155757,2599 7.255438,44.155795,2598 7.255512,44.155841,2597 7.255636,44.155907,2595 7.255653,44.155937,2594 7.255571,44.155921,2593 7.255454,44.155921,2592 7.255284,44.155832,2593 7.255144,44.155789,2594 7.254966,44.155758,2595 7.254859,44.155737,2595 7.254745,44.155689,2595 7.254514,44.155592,2596 7.254377,44.155539,2597 7.254302,44.155511,2597 7.254243,44.155514,2597 7.254225,44.155469,2598 7.254254,44.155512,2597 7.254246,44.155515,2597 7.254255,44.155511,2597 7.254229,44.155525,2597 7.254246,44.155507,2597 7.254248,44.155511,2597 7.254241,44.155532,2597 7.254233,44.155489,2598 7.254232,44.155465,2598 7.254236,44.155505,2598 7.254239,44.155506,2597 7.254232,44.155506,2597 7.254240,44.155488,2597 7.254261,44.155481,2598 7.254246,44.155511,2597 7.254244,44.155508,2596 7.254233,44.155505,2596 7.254242,44.155485,2596 7.254239,44.155485,2596 7.254239,44.155484,2596 7.254237,44.155490,2596 7.254223,44.155505,2596 7.254243,44.155510,2596 7.254248,44.155513,2595 7.254205,44.155522,2595 7.254215,44.155493,2596 7.254224,44.155494,2596 7.254234,44.155513,2596 7.254269,44.155494,2596 7.254251,44.155479,2596 7.254255,44.155508,2595 7.254224,44.155451,2596 7.254230,44.155510,2597 7.254228,44.155509,2597 7.254237,44.155504,2596 7.254226,44.155505,2596 7.254238,44.155498,2596 7.254263,44.155509,2596 7.254244,44.155499,2595 7.254240,44.155502,2595 7.254238,44.155506,2595 7.254241,44.155495,2595 7.254248,44.155513,2594 7.254256,44.155515,2594 7.254261,44.155520,2594 7.254258,44.155513,2595 7.254229,44.155518,2595 7.254242,44.155534,2594 7.254243,44.155527,2595 7.254249,44.155519,2595 7.254247,44.155538,2595 7.254251,44.155541,2595 7.254277,44.155550,2595 7.254244,44.155555,2595 7.254044,44.155560,2595 7.253937,44.155563,2596 7.253844,44.155558,2597 7.253768,44.155547,2598 7.253741,44.155550,2599 7.253719,44.155556,2599 7.253678,44.155556,2600 7.253625,44.155545,2602 7.253581,44.155563,2603 7.253501,44.155579,2605 7.253433,44.155594,2606 7.253400,44.155625,2608 7.253365,44.155669,2609 7.253325,44.155668,2610 7.253241,44.155656,2612 7.253226,44.155653,2613 7.253206,44.155672,2614 7.253154,44.155715,2614 7.253132,44.155739,2615 7.253079,44.155757,2618 7.253046,44.155782,2619 7.253006,44.155798,2620 7.252953,44.155810,2621 7.252949,44.155820,2622 7.252929,44.155841,2623 7.252883,44.155870,2625 7.252877,44.155881,2626 7.252859,44.155927,2627 7.252852,44.155952,2629 7.252820,44.155965,2630 7.252790,44.155987,2631 7.252770,44.155997,2632 7.252748,44.155986,2633 7.252736,44.155931,2634 7.252716,44.155898,2635 7.252698,44.155928,2636 7.252668,44.155902,2637 7.252658,44.155887,2638 7.252602,44.155853,2640 7.252579,44.155886,2643 7.252549,44.155873,2644 7.252522,44.155900,2645 7.252504,44.155900,2646 7.252482,44.155928,2647 7.252460,44.155906,2648 7.252445,44.155911,2648 7.252421,44.155930,2650 7.252397,44.155927,2651 7.252363,44.155946,2652 7.252330,44.155944,2653 7.252295,44.155943,2654 7.252305,44.155972,2656 7.252295,44.155976,2657 7.252257,44.155982,2658 7.252232,44.155979,2659 7.252205,44.155967,2660 7.252194,44.155973,2661 7.252174,44.155993,2662 7.252132,44.155979,2663 7.252099,44.156017,2664 7.252083,44.156054,2666 7.252022,44.156094,2667 7.252009,44.156097,2668 7.251989,44.156105,2669 7.251960,44.156070,2670 7.251909,44.156076,2671 7.251884,44.156134,2672 7.251867,44.156155,2673 7.251862,44.156161,2674 7.251859,44.156174,2674 7.251831,44.156205,2675 7.251809,44.156219,2676 7.251766,44.156236,2677 7.251760,44.156302,2678 7.251755,44.156330,2679 7.251749,44.156353,2679 7.251741,44.156359,2681 7.251697,44.156405,2682 7.251687,44.156429,2683 7.251690,44.156451,2684 7.251682,44.156471,2685 7.251669,44.156459,2685 7.251672,44.156452,2685 7.251675,44.156475,2684 7.251674,44.156502,2684 7.251674,44.156474,2684 7.251675,44.156463,2684 7.251677,44.156441,2684 7.251640,44.156448,2684 7.251634,44.156454,2684 7.251632,44.156452,2685 7.251663,44.156479,2685 7.251631,44.156491,2685 7.251582,44.156534,2687 7.251559,44.156571,2688 7.251528,44.156583,2690 7.251494,44.156585,2691 7.251537,44.156684,2692 7.251528,44.156710,2693 7.251532,44.156755,2694 7.251513,44.156755,2695 7.251465,44.156746,2697 7.251454,44.156764,2698 7.251443,44.156774,2698 7.251417,44.156783,2699 7.251382,44.156810,2700 7.251365,44.156818,2701 7.251363,44.156784,2702 7.251339,44.156819,2703 7.251320,44.156845,2704 7.251277,44.156843,2705 7.251250,44.156858,2706 7.251222,44.156870,2707 7.251213,44.156879,2707 7.251162,44.156898,2708 7.251040,44.156948,2708 7.250982,44.156976,2709 7.250942,44.156962,2711 7.250856,44.156957,2712 7.250725,44.156997,2712 7.250693,44.156983,2713 7.250689,44.157016,2714 7.250705,44.156993,2714 7.250698,44.157016,2714 7.250703,44.157023,2714 7.250704,44.157026,2714 7.250695,44.157009,2714 7.250688,44.157005,2714 7.250679,44.156998,2713 7.250710,44.157020,2713 7.250696,44.157022,2713 7.250709,44.157019,2712 7.250698,44.157014,2712 7.250674,44.156993,2712 7.250687,44.157004,2712 7.250700,44.157024,2712 7.250701,44.157024,2712 7.250680,44.157010,2713 7.250693,44.157003,2712 7.250694,44.157021,2712 7.250696,44.157016,2712 7.250706,44.157020,2712 7.250709,44.157017,2712 7.250674,44.157022,2712 7.250687,44.157016,2711 7.250647,44.157031,2711 7.250603,44.157041,2710 7.250575,44.157059,2709 7.250536,44.157096,2708 7.250481,44.157113,2707 7.250456,44.157138,2706 7.250427,44.157170,2705 7.250434,44.157178,2705 7.250476,44.157178,2703 7.250497,44.157184,2702 7.250492,44.157190,2701 7.250482,44.157183,2700 7.250466,44.157200,2699 7.250480,44.157191,2698 7.250457,44.157215,2697 7.250463,44.157208,2697 7.250433,44.157233,2697 7.250422,44.157232,2696 7.250429,44.157240,2696 7.250404,44.157291,2695 7.250425,44.157268,2696 7.250392,44.157273,2695 7.250403,44.157275,2694 7.250367,44.157274,2693 7.250352,44.157290,2693 7.250347,44.157292,2692 7.250339,44.157270,2692 7.250343,44.157278,2692 7.250337,44.157268,2692 7.250343,44.157253,2691 7.250330,44.157265,2690 7.250335,44.157282,2689 7.250355,44.157297,2688 7.250328,44.157309,2687 7.250341,44.157326,2686 7.250340,44.157302,2686 7.250354,44.157321,2685 7.250344,44.157310,2686 7.250343,44.157314,2686 7.250334,44.157313,2686 7.250336,44.157287,2686 7.250333,44.157298,2686 7.250346,44.157299,2685 7.250346,44.157291,2685 7.250321,44.157295,2685 7.250333,44.157303,2685 7.250312,44.157315,2685 7.250283,44.157322,2685 7.250282,44.157327,2685 7.250278,44.157341,2684 7.250266,44.157334,2684 7.250254,44.157333,2684 7.250260,44.157338,2684 7.250260,44.157343,2684 7.250253,44.157352,2683 7.250225,44.157337,2683 7.250226,44.157341,2683 7.250223,44.157355,2683 7.250215,44.157360,2682 7.250249,44.157352,2682 7.250238,44.157376,2682 7.250235,44.157369,2683 7.250246,44.157362,2683 7.250247,44.157368,2683 7.250255,44.157343,2682 7.250252,44.157346,2682 7.250248,44.157341,2682 7.250250,44.157377,2682 7.250260,44.157356,2682 7.250263,44.157324,2681 7.250261,44.157327,2681 7.250266,44.157371,2680 7.250265,44.157334,2680 7.250268,44.157343,2679 7.250282,44.157365,2679 7.250277,44.157348,2679 7.250264,44.157365,2679 7.250263,44.157358,2678 7.250257,44.157339,2678 7.250252,44.157377,2678 7.250255,44.157398,2678 7.250246,44.157388,2678 7.250245,44.157380,2679 7.250240,44.157373,2680 7.250266,44.157362,2680 7.250248,44.157378,2681 7.250259,44.157388,2681 7.250261,44.157395,2682 7.250296,44.157379,2682 7.250309,44.157370,2681 7.250289,44.157359,2681 7.250322,44.157366,2680 7.250335,44.157363,2680 7.250330,44.157364,2679 7.250323,44.157382,2679 7.250334,44.157379,2679 7.250311,44.157384,2679 7.250253,44.157390,2677 7.250273,44.157392,2676 7.250250,44.157387,2676 7.250231,44.157378,2676 7.250239,44.157417,2675 7.250211,44.157444,2675 7.250210,44.157429,2674 7.250190,44.157464,2674 7.250191,44.157458,2674 7.250168,44.157465,2673 7.250177,44.157460,2673 7.250166,44.157459,2673 7.250161,44.157451,2673 7.250174,44.157468,2672 7.250170,44.157505,2672 7.250174,44.157511,2671 7.250179,44.157516,2671 7.250169,44.157529,2670 7.250147,44.157538,2670 7.250109,44.157510,2669 7.250111,44.157504,2670 7.250079,44.157489,2671 7.250103,44.157525,2670 7.250060,44.157514,2670 7.250040,44.157536,2669 7.249966,44.157547,2670 7.249952,44.157527,2670 7.249957,44.157572,2669 7.249935,44.157587,2668 7.249924,44.157605,2668 7.249908,44.157594,2669 7.249883,44.157609,2670 7.249882,44.157621,2669 7.249861,44.157596,2669 7.249829,44.157619,2668 7.249816,44.157590,2669 7.249819,44.157595,2668 7.249774,44.157644,2669 7.249756,44.157663,2669 7.249699,44.157677,2669 7.249555,44.157740,2669 7.249487,44.157784,2668 7.249366,44.157851,2667 7.249314,44.157906,2667 7.249222,44.157954,2669 7.249196,44.157971,2670 7.249173,44.157984,2671 7.249140,44.157990,2672 7.249134,44.157987,2673 7.249156,44.157980,2673 7.249146,44.157991,2673 7.249154,44.158002,2674 7.249128,44.158016,2675 7.249125,44.158006,2675 7.249135,44.157984,2675 7.249131,44.158019,2674 7.249132,44.158017,2673 7.249104,44.158022,2671 7.249077,44.158031,2670 7.249058,44.158039,2669 7.249050,44.158046,2668 7.249019,44.158060,2666 7.248989,44.158068,2665 7.248962,44.158081,2664 7.248941,44.158090,2663 7.248915,44.158101,2661 7.248860,44.158119,2660 7.248802,44.158155,2660 7.248686,44.158133,2659 7.248645,44.158151,2658 7.248601,44.158174,2657 7.248511,44.158201,2656 7.248427,44.158236,2656 7.248421,44.158249,2655 7.248396,44.158259,2654 7.248378,44.158285,2653 7.248348,44.158340,2652 7.248293,44.158369,2650 7.248206,44.158442,2649 7.248127,44.158477,2649 7.248101,44.158495,2648 7.248104,44.158503,2646 7.248060,44.158508,2645 7.248047,44.158507,2644 7.248048,44.158532,2643 7.248029,44.158535,2642 7.248029,44.158528,2642 7.248027,44.158546,2642 7.248002,44.158544,2640 7.248015,44.158563,2639 7.248016,44.158591,2638 7.248018,44.158614,2637 7.248026,44.158657,2636 7.248042,44.158735,2634 7.248056,44.158769,2633 7.248055,44.158795,2632 7.248041,44.158808,2631 7.248039,44.158839,2630 7.248045,44.158879,2629 7.248053,44.158923,2628 7.248074,44.159004,2628 7.248105,44.159062,2628 7.248117,44.159102,2628 7.248134,44.159182,2627 7.248164,44.159225,2628 7.248156,44.159266,2628 7.248147,44.159341,2626 7.248157,44.159398,2624 7.248158,44.159451,2623 7.248159,44.159507,2622 7.248160,44.159559,2622 7.248155,44.159615,2621 7.248141,44.159635,2619 7.248141,44.159681,2618 7.248111,44.159753,2616 7.248081,44.159822,2615 7.248045,44.159845,2614 7.248040,44.159847,2614 7.248044,44.159862,2613 7.248024,44.159939,2612 7.248016,44.159986,2612 7.248003,44.160004,2611 7.248008,44.160006,2610 7.248015,44.160014,2609 7.248010,44.160030,2609 7.247990,44.160056,2608 7.248017,44.160051,2607 7.247958,44.160099,2605 7.247927,44.160136,2604 7.247906,44.160176,2603 7.247883,44.160201,2602 7.247878,44.160234,2601 7.247863,44.160269,2600 7.247849,44.160297,2598 7.247838,44.160319,2597 7.247838,44.160339,2596 7.247848,44.160366,2595 7.247860,44.160378,2594 7.247836,44.160392,2593 7.247848,44.160501,2594 7.247854,44.160529,2595 7.247830,44.160547,2595 7.247853,44.160566,2595 7.247810,44.160600,2594 7.247770,44.160673,2592 7.247757,44.160734,2591 7.247772,44.160721,2591 7.247740,44.160809,2590 7.247720,44.160861,2588 7.247707,44.160878,2588 7.247687,44.160917,2587 7.247687,44.160937,2587 7.247684,44.161000,2587 7.247683,44.161089,2588 7.247674,44.161156,2588 7.247698,44.161194,2588 7.247649,44.161246,2588 7.247621,44.161284,2588 7.247609,44.161314,2588 7.247591,44.161380,2588 7.247577,44.161425,2589 7.247583,44.161501,2588 7.247580,44.161548,2590 7.247576,44.161618,2590 7.247554,44.161642,2591 7.247500,44.161685,2591 7.247509,44.161745,2591 7.247434,44.161788,2590 7.247397,44.161867,2590 7.247387,44.161941,2592 7.247386,44.162002,2594 7.247311,44.162025,2593 7.247261,44.162058,2593 7.247206,44.162096,2592 7.247187,44.162128,2592 7.247170,44.162152,2592 7.247162,44.162170,2591 7.247141,44.162182,2590 7.247119,44.162198,2592 7.247113,44.162292,2593 7.247094,44.162357,2593 7.247065,44.162389,2593 7.247019,44.162481,2592 7.247002,44.162511,2592 7.246977,44.162515,2591 7.246930,44.162529,2590 7.246897,44.162546,2589 7.246895,44.162553,2589 7.246896,44.162566,2588 7.246878,44.162609,2587 7.246835,44.162664,2585 7.246810,44.162691,2584 7.246804,44.162715,2584 7.246766,44.162745,2583 7.246759,44.162791,2583 7.246761,44.162833,2583 7.246708,44.162868,2581 7.246655,44.162871,2580 7.246609,44.162900,2579 7.246593,44.162921,2578 7.246543,44.162973,2575 7.246514,44.163000,2575 7.246447,44.163067,2575 7.246365,44.163132,2575 7.246304,44.163157,2574 7.246213,44.163176,2573 7.246095,44.163219,2573 7.246064,44.163247,2575 7.246066,44.163241,2575 7.246045,44.163254,2576 7.246033,44.163289,2575 7.246020,44.163284,2575 7.246062,44.163266,2575 7.246047,44.163289,2575 7.246014,44.163290,2576 7.246028,44.163281,2576 7.246024,44.163289,2576 7.246017,44.163343,2576 7.246049,44.163326,2576 7.246025,44.163323,2576 7.246020,44.163324,2576 7.246010,44.163308,2577 7.246041,44.163321,2577 7.246036,44.163327,2577 7.246040,44.163290,2577 7.246061,44.163310,2577 7.246058,44.163286,2577 7.246035,44.163273,2577 7.245989,44.163317,2577 7.246054,44.163301,2578 7.246044,44.163310,2578 7.246031,44.163285,2578 7.246019,44.163302,2578 7.246015,44.163314,2578 7.246011,44.163301,2578 7.245999,44.163304,2579 7.246010,44.163305,2579 7.246039,44.163286,2579 7.246038,44.163294,2579 7.246039,44.163306,2580 7.246051,44.163294,2579 7.246046,44.163295,2579 7.246015,44.163280,2579 7.245995,44.163301,2579 7.246039,44.163291,2579 7.246027,44.163298,2579 7.246028,44.163283,2580 7.246068,44.163272,2580 7.246058,44.163307,2580 7.246040,44.163309,2581 7.246022,44.163323,2581 7.246017,44.163273,2581 7.246026,44.163262,2582 7.246021,44.163271,2582 7.246015,44.163324,2582 7.246022,44.163315,2582 7.246031,44.163308,2582 7.246076,44.163286,2581 7.246080,44.163282,2581 7.246082,44.163289,2581 7.246039,44.163313,2581 7.246018,44.163319,2581 7.246027,44.163276,2581 7.246012,44.163290,2581 7.246008,44.163279,2581 7.246026,44.163291,2582 7.246020,44.163317,2582 7.246001,44.163286,2581 7.246028,44.163313,2581 7.245997,44.163311,2582 7.245988,44.163306,2582 7.246000,44.163293,2583 7.246013,44.163278,2583 7.246015,44.163308,2584 7.246014,44.163281,2584 7.246021,44.163274,2583 7.246010,44.163282,2583 7.246000,44.163294,2583 7.246033,44.163277,2583 7.246024,44.163295,2583 7.246042,44.163285,2583 7.246048,44.163273,2583 7.246020,44.163293,2583 7.246034,44.163289,2584 7.246053,44.163296,2585 7.246063,44.163292,2585 7.246038,44.163293,2585 7.246049,44.163273,2586 7.246072,44.163278,2586 7.246074,44.163281,2586 7.246072,44.163284,2586 7.246068,44.163287,2586 7.246051,44.163286,2585 7.246050,44.163275,2586 7.246052,44.163306,2586 7.246025,44.163284,2586 7.246011,44.163279,2586 7.246004,44.163263,2586 7.245923,44.163193,2587 7.245813,44.163178,2587 7.245819,44.163189,2588 7.245878,44.163222,2588 7.245874,44.163215,2589 7.245806,44.163254,2590 7.245857,44.163255,2591 7.245722,44.163239,2592 7.245687,44.163258,2594 7.245643,44.163259,2595 7.245627,44.163277,2596 7.245623,44.163316,2598 7.245594,44.163285,2599 7.245561,44.163282,2600 7.245564,44.163315,2602 7.245551,44.163328,2602 7.245492,44.163334,2604 7.245480,44.163333,2605 7.245435,44.163305,2605 7.245363,44.163340,2607 7.245374,44.163370,2608 7.245334,44.163388,2609 7.245345,44.163416,2610 7.245319,44.163460,2611 7.245276,44.163504,2613 7.245296,44.163541,2614 7.245289,44.163577,2615 7.245191,44.163621,2616 7.245123,44.163675,2616 7.245114,44.163816,2616 7.245102,44.163900,2616 7.245011,44.164080,2616 7.244941,44.164155,2615 7.244960,44.164208,2614 7.245006,44.164289,2613 7.244993,44.164383,2613 7.244956,44.164452,2614 7.244911,44.164518,2615 7.244905,44.164557,2617 7.244886,44.164636,2618 7.244868,44.164693,2619 7.244780,44.164802,2620 7.244788,44.164821,2621 7.244804,44.164871,2622 7.244841,44.164881,2623 7.244846,44.164924,2624 7.244795,44.165005,2625 7.244731,44.165052,2626 7.244693,44.165129,2627 7.244684,44.165171,2628 7.244681,44.165207,2629 7.244660,44.165235,2630 7.244610,44.165278,2632 7.244569,44.165341,2633 7.244538,44.165370,2635 7.244573,44.165404,2636 7.244618,44.165380,2638 7.244648,44.165389,2638 7.244656,44.165403,2639 7.244710,44.165417,2640 7.244759,44.165420,2641 7.244731,44.165447,2642 7.244694,44.165476,2643 7.244684,44.165525,2645 7.244671,44.165548,2646 7.244629,44.165597,2647 7.244581,44.165614,2648 7.244532,44.165630,2650 7.244507,44.165676,2651 7.244503,44.165709,2652 7.244534,44.165728,2653 7.244568,44.165739,2654 7.244503,44.165762,2655 7.244429,44.165817,2655 7.244376,44.165829,2658 7.244338,44.165834,2659 7.244291,44.165853,2660 7.244283,44.165941,2662 7.244223,44.165984,2662 7.244182,44.166035,2663 7.244138,44.166083,2664 7.244094,44.166145,2665 7.243927,44.166211,2666 7.243811,44.166292,2667 7.243651,44.166344,2668 7.243573,44.166406,2670 7.243454,44.166456,2671 7.243374,44.166577,2672 7.243362,44.166656,2672 7.243382,44.166741,2673 7.243355,44.166838,2674 7.243309,44.166951,2675 7.243285,44.166987,2676 7.243284,44.167001,2676 7.243298,44.167055,2677 7.243286,44.167101,2678 7.243249,44.167171,2679 7.243245,44.167218,2680 7.243195,44.167310,2681 7.243181,44.167380,2682 7.243177,44.167444,2683 7.243165,44.167501,2683 7.243155,44.167552,2684 7.243119,44.167634,2685 7.243030,44.167768,2686 7.243013,44.167823,2687 7.242986,44.167908,2689 7.242994,44.167971,2690 7.242951,44.168034,2691 7.242897,44.168105,2691 7.242860,44.168240,2692 7.242782,44.168323,2692 7.242738,44.168396,2693 7.242725,44.168452,2694 7.242684,44.168516,2695 7.242539,44.168558,2696 7.242379,44.168595,2697 7.242337,44.168630,2699 7.242335,44.168675,2701 7.242288,44.168677,2702 7.242286,44.168711,2703 7.242218,44.168721,2704 7.242233,44.168739,2706 7.242224,44.168774,2707 7.242172,44.168786,2708 7.242186,44.168839,2709 7.242237,44.168938,2711 7.242373,44.169033,2711 7.242394,44.169063,2712 7.242424,44.169095,2712 7.242441,44.169112,2713 7.242445,44.169122,2714 7.242464,44.169152,2715 7.242475,44.169206,2717 7.242534,44.169247,2718 7.242552,44.169272,2719 7.242587,44.169300,2720 7.242670,44.169327,2721 7.242685,44.169336,2722 7.242715,44.169323,2721 7.242744,44.169356,2722 7.242778,44.169400,2723 7.242808,44.169401,2724 7.242817,44.169408,2725 7.242872,44.169417,2726 7.242893,44.169448,2728 7.242890,44.169490,2730 7.242877,44.169498,2730 7.242876,44.169523,2731 7.242880,44.169556,2733 7.242858,44.169583,2734 7.242815,44.169625,2737 7.242799,44.169641,2738 7.242730,44.169650,2740 7.242656,44.169659,2741 7.242667,44.169687,2742 7.242693,44.169729,2742 7.242721,44.169755,2743 7.242714,44.169767,2744 7.242756,44.169819,2746 7.242770,44.169822,2747 7.242802,44.169838,2747 7.242758,44.169819,2748 7.242711,44.169834,2749 7.242673,44.169838,2750 7.242661,44.169861,2751 7.242618,44.169905,2753 7.242646,44.169945,2753 7.242777,44.169961,2754 7.242801,44.169984,2754 7.242777,44.169983,2755 7.242769,44.170041,2757 7.242752,44.170036,2758 7.242696,44.170020,2759 7.242638,44.170037,2760 7.242656,44.170071,2761 7.242666,44.170075,2761 7.242673,44.170111,2762 7.242689,44.170157,2763 7.242800,44.170193,2764 7.242933,44.170189,2764 7.243027,44.170181,2764 7.243140,44.170182,2765 7.243212,44.170202,2767 7.243225,44.170217,2768 7.243231,44.170226,2769 7.243195,44.170232,2770 7.243151,44.170260,2772 7.243119,44.170282,2773 7.243088,44.170310,2775 7.243085,44.170329,2776 7.243070,44.170359,2777 7.243016,44.170406,2778 7.243033,44.170446,2780 7.243045,44.170459,2781 7.242970,44.170510,2783 7.242999,44.170532,2784 7.243008,44.170548,2786 7.242978,44.170590,2787 7.242954,44.170612,2788 7.242945,44.170650,2789 7.242943,44.170662,2789 7.242978,44.170690,2789 7.242993,44.170699,2789 7.243006,44.170699,2790 7.243042,44.170708,2791 7.243071,44.170714,2792 7.243080,44.170742,2793 7.243094,44.170763,2794 7.243088,44.170811,2795 7.243063,44.170873,2796 7.243113,44.170960,2797 7.243128,44.170990,2798 7.243181,44.170989,2797 7.243180,44.170992,2797 7.243184,44.170979,2797 7.243165,44.170976,2796 7.243213,44.171026,2797 7.243236,44.171050,2798 7.243260,44.171113,2799 7.243267,44.171132,2800 7.243288,44.171139,2799 7.243298,44.171161,2799 7.243339,44.171222,2800 7.243379,44.171261,2801 7.243395,44.171305,2801 7.243418,44.171316,2802 7.243413,44.171313,2804 7.243402,44.171324,2803 7.243416,44.171388,2804 7.243466,44.171423,2805 7.243477,44.171435,2807 7.243492,44.171435,2809 7.243507,44.171440,2810 7.243497,44.171438,2809 7.243451,44.171431,2807 7.243431,44.171462,2807 7.243432,44.171496,2806 7.243456,44.171578,2806 7.243509,44.171618,2808 7.243526,44.171620,2809 7.243588,44.171665,2811 7.243632,44.171684,2812 7.243659,44.171684,2813 7.243647,44.171663,2813 7.243650,44.171661,2813 7.243649,44.171685,2812 7.243634,44.171680,2812 7.243661,44.171650,2812 7.243676,44.171654,2812 7.243647,44.171665,2811 7.243645,44.171658,2811 7.243644,44.171650,2811 7.243651,44.171659,2810 7.243658,44.171657,2810 7.243647,44.171673,2810 7.243640,44.171703,2811 7.243628,44.171674,2812 7.243643,44.171656,2811 7.243654,44.171653,2812 7.243667,44.171646,2812 7.243688,44.171669,2810 7.243681,44.171688,2810 7.243676,44.171693,2810 7.243641,44.171656,2810 7.243593,44.171629,2809 7.243638,44.171653,2809 7.243645,44.171653,2809 7.243638,44.171681,2809 7.243646,44.171695,2809 7.243651,44.171671,2808 7.243658,44.171674,2808 7.243655,44.171666,2808 7.243654,44.171661,2808 7.243668,44.171663,2807 7.243672,44.171658,2807 7.243661,44.171659,2807 7.243644,44.171661,2807 7.243639,44.171675,2807 7.243611,44.171645,2807 7.243661,44.171663,2807 7.243642,44.171649,2807 7.243612,44.171645,2807 7.243560,44.171630,2805 7.243538,44.171605,2804 7.243534,44.171598,2802 7.243511,44.171581,2801 7.243489,44.171560,2800 7.243470,44.171563,2799 7.243450,44.171535,2797 7.243441,44.171492,2797 7.243490,44.171435,2798 7.243448,44.171436,2797 7.243452,44.171442,2796 7.243443,44.171431,2795 7.243434,44.171402,2795 7.243452,44.171366,2794 7.243418,44.171357,2793 7.243432,44.171345,2793 7.243398,44.171283,2793 7.243385,44.171265,2792 7.243361,44.171280,2792 7.243372,44.171234,2792 7.243316,44.171202,2790 7.243329,44.171193,2789 7.243334,44.171187,2788 7.243348,44.171165,2788 7.243273,44.171122,2787 7.243300,44.171105,2788 7.243260,44.171094,2788 7.243257,44.171045,2788 7.243262,44.171027,2787 7.243205,44.170997,2786 7.243185,44.170977,2786 7.243196,44.170970,2785 7.243176,44.170975,2785 7.243183,44.170956,2785 7.243173,44.170954,2785 7.243176,44.170956,2785 7.243174,44.170966,2785 7.243168,44.170962,2786 7.243175,44.170964,2786 7.243185,44.170970,2785 7.243191,44.170974,2785 7.243174,44.170964,2785 7.243175,44.170973,2785 7.243174,44.170957,2786 7.243164,44.170957,2786 7.243176,44.170969,2786 7.243152,44.170966,2786 7.243147,44.170957,2786 7.243166,44.170973,2786 7.243153,44.170967,2786 7.243167,44.170973,2786 7.243171,44.170974,2786 7.243172,44.170954,2786 7.243166,44.170961,2786 7.243177,44.170971,2786 7.243174,44.170962,2787 7.243169,44.170962,2786 7.243173,44.170975,2786 7.243173,44.170975,2787 7.243173,44.170975,2786 7.243156,44.170961,2787 7.243151,44.170961,2786 7.243180,44.170972,2786 7.243165,44.170976,2787 7.243165,44.170967,2787 7.243182,44.170993,2787 7.243144,44.170964,2787 7.243174,44.170973,2787 7.243150,44.170970,2787 7.243140,44.170980,2788 7.243193,44.170979,2788 7.243167,44.170975,2789 7.243192,44.170995,2789 7.243207,44.170980,2788 7.243188,44.170969,2788 7.243162,44.170963,2788 7.243148,44.171024,2788 7.243141,44.171049,2787 7.243123,44.171080,2786 7.243099,44.171107,2785 7.243099,44.171147,2784 7.243089,44.171215,2783 7.243129,44.171270,2782 7.243148,44.171293,2782 7.243146,44.171312,2782 7.243128,44.171323,2782 7.243094,44.171367,2781 7.243061,44.171427,2780 7.243058,44.171448,2780 7.243047,44.171504,2779 7.243006,44.171605,2777 7.243001,44.171634,2776 7.242954,44.171703,2775 7.242936,44.171705,2775 7.242916,44.171728,2774 7.242873,44.171765,2773 7.242850,44.171815,2772 7.242821,44.171879,2770 7.242803,44.171904,2769 7.242782,44.171920,2768 7.242782,44.171972,2767 7.242764,44.172011,2766 7.242746,44.172036,2765 7.242733,44.172069,2764 7.242753,44.172096,2763 7.242767,44.172107,2763 7.242762,44.172115,2762 7.242754,44.172157,2761 7.242703,44.172149,2760 7.242678,44.172167,2758 7.242644,44.172184,2757 7.242617,44.172168,2756 7.242624,44.172193,2755 7.242621,44.172186,2755 7.242599,44.172245,2753 7.242574,44.172273,2752 7.242550,44.172309,2750 7.242552,44.172324,2750 7.242515,44.172345,2748 7.242489,44.172352,2747 7.242460,44.172399,2745 7.242432,44.172432,2744 7.242413,44.172473,2743 7.242395,44.172480,2742 7.242349,44.172492,2741 7.242311,44.172522,2739 7.242327,44.172571,2738 7.242286,44.172634,2737 7.242266,44.172669,2736 7.242238,44.172693,2735 7.242216,44.172707,2734 7.242157,44.172760,2733 7.242115,44.172748,2732 7.242078,44.172724,2731 7.242071,44.172701,2730 7.242094,44.172694,2729 7.242114,44.172659,2727 7.242114,44.172669,2727 7.242109,44.172641,2725 7.242056,44.172653,2724 7.242046,44.172636,2723 7.242058,44.172604,2722 7.242050,44.172609,2721 7.242031,44.172593,2719 7.242000,44.172644,2717 7.241980,44.172642,2718 7.241915,44.172692,2718 7.241925,44.172703,2716 7.241919,44.172714,2715 7.241885,44.172734,2714 7.241878,44.172731,2713 7.241835,44.172734,2712 7.241799,44.172738,2711 7.241774,44.172749,2709 7.241720,44.172794,2710 7.241705,44.172829,2711 7.241639,44.172831,2710 7.241603,44.172846,2709 7.241580,44.172857,2708 7.241511,44.172883,2708 7.241390,44.172915,2709 7.241253,44.172942,2708 7.241178,44.172965,2709 7.240954,44.173002,2709 7.240857,44.172988,2709 7.240822,44.172938,2708 7.240685,44.172899,2707 7.240603,44.172864,2706 7.240502,44.172837,2705 7.240297,44.172835,2705 7.240198,44.172828,2704 7.240194,44.172811,2703 7.240174,44.172782,2702 7.240127,44.172767,2701 7.240058,44.172756,2700 7.239968,44.172728,2699 7.239871,44.172711,2698 7.239828,44.172693,2697 7.239837,44.172674,2696 7.239806,44.172653,2695 7.239786,44.172645,2694 7.239762,44.172611,2692 7.239687,44.172585,2692 7.239631,44.172559,2690 7.239504,44.172529,2689 7.239481,44.172515,2689 7.239413,44.172480,2688 7.239362,44.172455,2687 7.239326,44.172438,2685 7.239275,44.172423,2684 7.239246,44.172408,2683 7.239225,44.172401,2683 7.239084,44.172382,2682 7.239033,44.172364,2681 7.239003,44.172366,2681 7.238851,44.172360,2680 7.238812,44.172349,2679 7.238771,44.172348,2678 7.238705,44.172345,2677 7.238673,44.172331,2675 7.238651,44.172321,2675 7.238594,44.172325,2674 7.238484,44.172343,2673 7.238435,44.172352,2673 7.238401,44.172350,2672 7.238361,44.172329,2671 7.238281,44.172312,2669 7.238231,44.172302,2668 7.238049,44.172328,2667 7.237999,44.172356,2668 7.237875,44.172414,2667 7.237742,44.172462,2667 7.237697,44.172478,2669 7.237588,44.172505,2668 7.237474,44.172572,2668 7.237381,44.172599,2667 7.237222,44.172630,2667 7.237162,44.172651,2665 7.237127,44.172646,2664 7.237086,44.172634,2663 7.237040,44.172659,2662 7.237047,44.172671,2660 7.237025,44.172635,2659 7.236961,44.172654,2658 7.236931,44.172662,2657 7.236895,44.172672,2656 7.236835,44.172676,2654 7.236773,44.172669,2653 7.236754,44.172662,2652 7.236697,44.172670,2650 7.236651,44.172678,2650 7.236583,44.172689,2649 7.236523,44.172691,2647 7.236465,44.172694,2647 7.236413,44.172679,2646 7.236378,44.172655,2645 7.236344,44.172647,2644 7.236227,44.172699,2643 7.236064,44.172686,2644 7.235980,44.172669,2642 7.235884,44.172661,2643 7.235826,44.172620,2643 7.235780,44.172601,2642 7.235762,44.172622,2642 7.235745,44.172661,2643 7.235709,44.172658,2644 7.235579,44.172664,2646 7.235516,44.172683,2646 7.235445,44.172659,2646 7.235356,44.172649,2647 7.235379,44.172653,2648 7.235358,44.172654,2648 7.235279,44.172651,2648 7.235206,44.172640,2649 7.235175,44.172629,2649 7.235122,44.172640,2650 7.235056,44.172640,2651 7.234942,44.172626,2652 7.234795,44.172594,2652 7.234715,44.172576,2653 7.234676,44.172579,2653 7.234636,44.172568,2652 7.234541,44.172525,2651 7.234489,44.172471,2649 7.234376,44.172366,2648 7.234364,44.172358,2646 7.234321,44.172328,2645 7.234290,44.172297,2644 7.234257,44.172280,2643 7.234222,44.172254,2642 7.234164,44.172204,2640 7.234109,44.172155,2639 7.234040,44.172100,2638 7.234001,44.172068,2637 7.233983,44.172070,2636 7.233854,44.172009,2635 7.233783,44.171953,2635 7.233705,44.171897,2636 7.233664,44.171860,2636 7.233665,44.171821,2636 7.233639,44.171823,2636 7.233569,44.171798,2637 7.233515,44.171741,2639 7.233525,44.171711,2638 7.233510,44.171683,2639 7.233456,44.171655,2640 7.233467,44.171661,2640 7.233387,44.171644,2640 7.233329,44.171622,2639 7.233190,44.171534,2638 7.233157,44.171516,2638 7.233147,44.171492,2637 7.233243,44.171484,2634 7.233207,44.171462,2632 7.233177,44.171445,2631 7.233128,44.171407,2629 7.233117,44.171386,2628 7.233113,44.171400,2627 7.233076,44.171411,2625 7.233072,44.171421,2624 7.233095,44.171407,2623 7.233065,44.171382,2622 7.233074,44.171364,2621 7.233088,44.171362,2620 7.233060,44.171360,2619 7.233010,44.171325,2620 7.232978,44.171302,2620 7.232983,44.171300,2620 7.232989,44.171337,2620 7.232979,44.171310,2620 7.232996,44.171312,2619 7.232851,44.171251,2620 7.232801,44.171196,2619 7.232752,44.171166,2617 7.232667,44.171159,2616 7.232620,44.171142,2614 7.232606,44.171143,2614 7.232513,44.171152,2614 7.232405,44.171157,2616 7.232364,44.171144,2617 7.232339,44.171128,2617 7.232329,44.171120,2617 7.232324,44.171121,2617 7.232246,44.171101,2617 7.232094,44.171071,2617 7.232040,44.171058,2618 7.231959,44.171048,2619 7.231896,44.171019,2620 7.231808,44.170993,2619 7.231735,44.170929,2619 7.231671,44.170898,2618 7.231629,44.170878,2617 7.231626,44.170880,2616 7.231585,44.170856,2616 7.231597,44.170849,2616 7.231615,44.170832,2616 7.231569,44.170825,2616 7.231583,44.170819,2615 7.231587,44.170876,2615 7.231587,44.170831,2615 7.231589,44.170815,2615 7.231592,44.170873,2615 7.231589,44.170872,2615 7.231568,44.170850,2615 7.231573,44.170844,2614 7.231623,44.170848,2614 7.231603,44.170851,2614 7.231564,44.170830,2614 7.231494,44.170846,2614 7.231522,44.170834,2614 7.231586,44.170817,2614 7.231606,44.170854,2614 7.231609,44.170879,2614 7.231603,44.170884,2614 7.231616,44.170834,2614 7.231635,44.170851,2613 7.231589,44.170832,2613 7.231579,44.170842,2614 7.231582,44.170859,2615 7.231587,44.170885,2614 7.231648,44.170871,2614 7.231620,44.170861,2613 7.231605,44.170856,2614 7.231544,44.170828,2613 7.231608,44.170884,2613 7.231600,44.170881,2612 7.231612,44.170896,2611 7.231609,44.170913,2610 7.231597,44.170930,2609 7.231538,44.170922,2607 7.231536,44.170934,2606 7.231448,44.170920,2605 7.231331,44.170753,2606 7.231352,44.170706,2606 7.231519,44.170901,2606 7.231512,44.170972,2605 7.231464,44.170967,2604 7.231439,44.170960,2603 7.231400,44.170944,2602 7.231386,44.170951,2601 7.231393,44.170981,2600 7.231354,44.170987,2599 7.231361,44.171022,2597 7.231413,44.171088,2596 7.231435,44.171056,2596 7.231431,44.171045,2597 7.231406,44.171027,2597 7.231423,44.171056,2597 7.231336,44.171104,2594 7.231283,44.171097,2593 7.231244,44.171118,2592 7.231149,44.171134,2591 7.231142,44.171137,2590 7.231196,44.171145,2588 7.231285,44.171165,2586 7.231326,44.171190,2586 7.231387,44.171182,2586 7.231426,44.171212,2586 7.231480,44.171271,2584 7.231450,44.171315,2583 7.231439,44.171301,2582 7.231341,44.171274,2581 7.231230,44.171267,2580 7.231198,44.171275,2579 7.231182,44.171273,2577 7.231275,44.171274,2575 7.231331,44.171297,2575 7.231381,44.171348,2575 7.231312,44.171413,2573 7.231296,44.171416,2573 7.231227,44.171421,2571 7.231162,44.171423,2570 7.231152,44.171435,2569 7.231252,44.171477,2567 7.231312,44.171509,2566 7.231373,44.171567,2565 7.231378,44.171594,2564 7.231358,44.171616,2563 7.231302,44.171616,2562 7.231222,44.171600,2561 7.231206,44.171588,2560 7.231187,44.171594,2559 7.231191,44.171625,2556 7.231109,44.171637,2555 7.231078,44.171614,2554 7.231057,44.171616,2554 7.231069,44.171627,2553 7.231086,44.171663,2552 7.231056,44.171699,2551 7.231105,44.171747,2550 7.231159,44.171794,2549 7.231183,44.171802,2548 7.231210,44.171863,2547 7.231106,44.171834,2547 7.231068,44.171826,2545 7.231050,44.171831,2544 7.231068,44.171862,2543 7.231103,44.171907,2541 7.231105,44.171945,2540 7.231102,44.171957,2539 7.231073,44.171942,2539 7.230995,44.171915,2538 7.230946,44.171906,2537 7.230953,44.171922,2536 7.230977,44.171948,2535 7.230985,44.171982,2534 7.231036,44.172018,2533 7.231034,44.172030,2532 7.231032,44.172030,2532 7.231028,44.172065,2531 7.230997,44.172067,2530 7.230983,44.172063,2529 7.230910,44.172052,2528 7.230852,44.172042,2527 7.230777,44.172023,2525 7.230693,44.172038,2523 7.230669,44.172041,2522 7.230642,44.172034,2520 7.230538,44.172016,2519 7.230543,44.172056,2518 7.230574,44.172092,2517 7.230540,44.172120,2516 7.230499,44.172127,2514 7.230533,44.172146,2513 7.230542,44.172171,2513 7.230545,44.172198,2511 7.230549,44.172211,2510 7.230537,44.172252,2508 7.230475,44.172261,2507 7.230463,44.172258,2506 7.230459,44.172279,2505 7.230461,44.172324,2504 7.230443,44.172341,2503 7.230365,44.172335,2501 7.230264,44.172333,2500 7.230178,44.172335,2499 7.230213,44.172345,2498 7.230330,44.172390,2497 7.230320,44.172452,2496 7.230350,44.172480,2495 7.230310,44.172536,2494 7.230283,44.172536,2494 7.230216,44.172538,2491 7.230185,44.172546,2490 7.230151,44.172575,2488 7.230092,44.172592,2486 7.230033,44.172620,2485 7.229981,44.172658,2483 7.229901,44.172692,2482 7.229858,44.172696,2482 7.229793,44.172700,2481 7.229741,44.172718,2480 7.229746,44.172727,2479 7.229747,44.172721,2478 7.229816,44.172731,2476 7.229875,44.172761,2474 7.229945,44.172819,2474 7.229854,44.172813,2473 7.229816,44.172820,2472 7.229752,44.172850,2470 7.229709,44.172862,2469 7.229615,44.172874,2467 7.229598,44.172917,2465 7.229613,44.173018,2464 7.229599,44.173033,2463 7.229597,44.173051,2463 7.229562,44.173121,2461 7.229539,44.173149,2460 7.229545,44.173200,2458 7.229556,44.173229,2457 7.229530,44.173250,2456 7.229522,44.173281,2455 7.229501,44.173308,2454 7.229588,44.173358,2452 7.229675,44.173354,2451 7.229640,44.173365,2450 7.229612,44.173393,2449 7.229575,44.173430,2448 7.229490,44.173441,2446 7.229414,44.173455,2445 7.229284,44.173449,2444 7.229227,44.173452,2442 7.229201,44.173451,2442 7.229188,44.173399,2441 7.229147,44.173354,2440 7.229049,44.173318,2439 7.228988,44.173338,2438 7.228920,44.173364,2437 7.228848,44.173431,2436 7.228813,44.173463,2435 7.228742,44.173471,2433 7.228685,44.173478,2432 7.228634,44.173502,2431 7.228546,44.173559,2429 7.228523,44.173585,2428 7.228462,44.173639,2426 7.228355,44.173683,2423 7.228273,44.173711,2422 7.228221,44.173733,2421 7.228103,44.173788,2419 7.228049,44.173813,2418 7.228023,44.173867,2416 7.228026,44.173913,2415 7.228035,44.173957,2415 7.228075,44.174023,2412 7.227994,44.174085,2410 7.227956,44.174057,2410 7.227909,44.174033,2409 7.227850,44.174006,2407 7.227796,44.173923,2406 7.227754,44.173920,2406 7.227670,44.173928,2406 7.227632,44.173968,2407 7.227622,44.174041,2407 7.227604,44.174172,2406 7.227581,44.174229,2406 7.227579,44.174257,2404 7.227563,44.174325,2404 7.227527,44.174344,2403 7.227480,44.174370,2401 7.227469,44.174409,2400 7.227465,44.174442,2399 7.227388,44.174451,2398 7.227346,44.174502,2397 7.227304,44.174521,2396 7.227259,44.174513,2395 7.227189,44.174527,2395 7.227167,44.174505,2394 7.227165,44.174501,2394 7.227068,44.174476,2394 7.227074,44.174521,2395 7.227038,44.174487,2396 7.227034,44.174453,2397 7.226997,44.174443,2395 7.226996,44.174454,2394 7.227005,44.174488,2393 7.226990,44.174476,2392 7.226893,44.174455,2391 7.226812,44.174454,2389 7.226752,44.174443,2389 7.226734,44.174430,2388 7.226741,44.174488,2388 7.226668,44.174490,2388 7.226663,44.174488,2387 7.226587,44.174507,2387 7.226557,44.174514,2386 7.226545,44.174520,2385 7.226466,44.174527,2385 7.226363,44.174547,2384 7.226308,44.174524,2383 7.226287,44.174523,2382 7.226218,44.174527,2380 7.226123,44.174536,2379 7.225989,44.174609,2380 7.225913,44.174706,2380 7.225843,44.174811,2380 7.225796,44.174888,2380 7.225828,44.174982,2379 7.225769,44.175100,2378 7.225729,44.175153,2378 7.225715,44.175208,2377 7.225719,44.175219,2377 7.225704,44.175220,2375 7.225638,44.175265,2374 7.225592,44.175290,2372 7.225517,44.175344,2370 7.225470,44.175443,2369 7.225448,44.175470,2367 7.225454,44.175493,2366 7.225463,44.175507,2366 7.225440,44.175620,2364 7.225368,44.175711,2363 7.225293,44.175802,2363 7.225250,44.175835,2363 7.225293,44.175870,2364 7.225240,44.175907,2364 7.225266,44.175888,2364 7.225257,44.175883,2364 7.225282,44.175867,2365 7.225269,44.175925,2365 7.225263,44.175894,2366 7.225191,44.175871,2366 7.225191,44.175873,2366 7.225219,44.175898,2364 7.225249,44.175898,2364 7.225275,44.175952,2363 7.225284,44.176029,2361 7.225254,44.176058,2361 7.225202,44.176137,2360 7.225123,44.176222,2358 7.225805,44.176537,2356 7.226426,44.176846,2356 7.227475,44.177303,2355 7.228370,44.177638,2355 7.227538,44.179180,2356 7.224237,44.181714,2356 7.223996,44.181564,2355 7.226789,44.181693,2355 7.226515,44.181644,2355 7.225586,44.181056,2355 7.225770,44.180663,2355 7.225680,44.180704,2355 7.225296,44.177253,2347 7.225220,44.177313,2347 7.225126,44.177411,2348 7.225072,44.177489,2346 7.225046,44.177517,2344 7.225030,44.177520,2343 7.225056,44.177546,2342 7.225117,44.177545,2341 7.225191,44.177537,2340 7.225235,44.177525,2339 7.225235,44.177531,2338 7.225190,44.177574,2336 7.225138,44.177615,2334 7.225135,44.177634,2333 7.225126,44.177684,2332 7.225191,44.177682,2331 7.225305,44.177652,2330 7.225357,44.177637,2328 7.225358,44.177648,2327 7.225341,44.177662,2326 7.225319,44.177691,2325 7.225262,44.177785,2323 7.225235,44.177788,2321 7.225194,44.177814,2319 7.225157,44.177845,2318 7.225121,44.177897,2317 7.225110,44.177932,2316 7.225081,44.177989,2315 7.225062,44.178076,2313 7.225063,44.178136,2312 7.225083,44.178091,2312 7.225076,44.178158,2311 7.225038,44.178220,2309 7.225025,44.178249,2308 7.225108,44.178203,2307 7.225193,44.178166,2306 7.225150,44.178226,2304 7.225121,44.178315,2302 7.225128,44.178342,2301 7.225101,44.178375,2299 7.225083,44.178411,2298 7.225111,44.178420,2296 7.225243,44.178362,2296 7.225289,44.178337,2294 7.225299,44.178370,2293 7.225283,44.178400,2292 7.225263,44.178439,2291 7.225251,44.178479,2290 7.225242,44.178508,2290 7.225187,44.178550,2288 7.225104,44.178576,2287 7.225083,44.178591,2286 7.225094,44.178616,2285 7.225146,44.178589,2284 7.225213,44.178557,2283 7.225236,44.178546,2282 7.225353,44.178526,2280 7.225544,44.178481,2280 7.225457,44.178524,2279 7.225389,44.178583,2277 7.225383,44.178611,2276 7.225317,44.178660,2275 7.225311,44.178651,2274 7.225292,44.178663,2273 7.225292,44.178679,2271 7.225259,44.178716,2271 7.225178,44.178785,2270 7.225073,44.178845,2268 7.225056,44.178877,2267 7.225061,44.178897,2266 7.225058,44.178948,2265 7.225050,44.178998,2264 7.225008,44.179125,2265 7.224992,44.179168,2267 7.224920,44.179266,2268 7.224926,44.179322,2269 7.224900,44.179315,2269 7.224822,44.179355,2270 7.224744,44.179406,2270 7.224737,44.179437,2270 7.224742,44.179478,2271 7.224798,44.179556,2271 7.224780,44.179697,2270 7.224787,44.179701,2269 7.224739,44.179722,2269 7.224746,44.179762,2269 7.224784,44.179727,2269 7.224767,44.179709,2269 7.224756,44.179712,2269 7.224721,44.179743,2268 7.224707,44.179767,2269 7.224743,44.179769,2270 7.224799,44.179734,2270 7.224780,44.179674,2270 7.224762,44.179704,2268 7.224765,44.179711,2268 7.224810,44.179716,2269 7.224778,44.179724,2269 7.224748,44.179707,2271 7.224722,44.179775,2272 7.224708,44.179737,2271 7.224773,44.179674,2271 7.224745,44.179742,2270 7.224755,44.179747,2270 7.224763,44.179750,2269 7.224779,44.179726,2268 7.224724,44.179761,2270 7.224690,44.179749,2269 7.224697,44.179674,2269 7.224694,44.179668,2268 7.224711,44.179650,2267 7.224687,44.179671,2266 7.224689,44.179714,2266 7.224687,44.179725,2265 7.224698,44.179726,2265 7.224741,44.179702,2264 7.224740,44.179630,2265 7.224775,44.179606,2264 7.224779,44.179604,2264 7.224784,44.179611,2263 7.224837,44.179643,2262 7.224961,44.179201,2262 7.225225,44.179019,2261 7.225165,44.178978,2261 7.227977,44.178676,2259 7.228029,44.178694,2261 7.228136,44.178659,2263 7.228223,44.178602,2264 7.228360,44.178523,2264 7.228309,44.178544,2263 7.228141,44.178561,2264 7.228134,44.178575,2264 7.228113,44.178566,2265 7.228018,44.178534,2265 7.228010,44.178522,2264 7.227993,44.178534,2263 7.227981,44.178523,2261 7.228010,44.178542,2260 7.227981,44.178535,2260 7.228003,44.178542,2261 7.228029,44.178583,2262 7.228011,44.178619,2262 7.228081,44.178668,2262 7.228068,44.178650,2261 7.228046,44.178670,2260 7.228008,44.178740,2260 7.228019,44.178853,2259 7.228031,44.178910,2257 7.227610,44.180968,2265 7.227286,44.181235,2265 7.227308,44.181264,2266 7.227381,44.181150,2266 7.227490,44.181156,2266 7.227482,44.181298,2266 7.227354,44.181502,2266 7.227203,44.181745,2267 7.227063,44.181893,2268 7.226973,44.181944,2268 7.226859,44.182056,2268 7.226841,44.182156,2268 7.226821,44.182267,2267 7.226783,44.182354,2267 7.226703,44.182402,2265 7.226701,44.182441,2264 7.226689,44.182451,2265 7.226660,44.182514,2263 7.226644,44.182568,2262 7.226562,44.182603,2260 7.226323,44.182572,2259 7.225696,44.182378,2257 7.225559,44.182370,2257 7.225447,44.182312,2257 7.225211,44.182164,2257 7.224950,44.182163,2257 7.224731,44.182089,2258 7.224583,44.182086,2260 7.224474,44.182104,2261 7.224264,44.182133,2262 7.224079,44.182178,2262 7.223854,44.182279,2262 7.223708,44.182349,2261 7.223592,44.182475,2262 7.223545,44.182530,2262 7.223485,44.182690,2262 7.223439,44.182824,2262 7.223371,44.182935,2262 7.223292,44.182972,2263 7.223248,44.182984,2263 7.223173,44.182984,2265 7.223111,44.182978,2267 7.223062,44.182979,2268 7.222984,44.183006,2267 7.222775,44.183034,2266 7.222628,44.183126,2266 7.222576,44.183153,2265 7.222565,44.183161,2264 7.222552,44.183173,2263 7.222482,44.183239,2261 7.222446,44.183257,2260 7.222435,44.183268,2259 7.222396,44.183305,2257 7.222267,44.183354,2258 7.222209,44.183367,2260 7.222102,44.183400,2260 7.222028,44.183467,2259 7.221943,44.183498,2257 7.221890,44.183505,2256 7.221838,44.183525,2255 7.221736,44.183578,2255 7.221633,44.183585,2256 7.221565,44.183580,2257 7.221472,44.183605,2258 7.221447,44.183571,2259 7.221540,44.183513,2261 7.221597,44.183473,2262 7.221603,44.183468,2262 7.221512,44.183431,2262 7.221389,44.183441,2263 7.221280,44.183524,2264 7.221280,44.183520,2264 7.221260,44.183529,2263 7.221251,44.183519,2264 7.221274,44.183530,2265 7.221280,44.183525,2264 7.221292,44.183529,2264 7.221286,44.183531,2264 7.221269,44.183532,2263 7.221202,44.183562,2265 7.221153,44.183545,2266 7.221062,44.183516,2267 7.221003,44.183493,2268 7.221016,44.183471,2268 7.221072,44.183462,2269 7.221097,44.183460,2270 7.221145,44.183459,2271 7.221095,44.183431,2272 7.221023,44.183407,2273 7.221107,44.183367,2273 7.221133,44.183361,2274 7.221157,44.183332,2275 7.221090,44.183321,2277 7.221070,44.183298,2278 7.221061,44.183248,2279 7.221001,44.183253,2280 7.220946,44.183230,2281 7.220911,44.183219,2282 7.220856,44.183197,2283 7.220804,44.183182,2284 7.220683,44.183151,2286 7.220615,44.183139,2287 7.220549,44.183107,2289 7.220454,44.183082,2291 7.220315,44.183122,2290 7.220233,44.183203,2288 7.220143,44.183243,2287 7.220035,44.183265,2288 7.219941,44.183270,2289 7.219840,44.183277,2290 7.219791,44.183332,2291 7.219751,44.183337,2292 7.219566,44.183406,2293 7.219529,44.183415,2293 7.219510,44.183417,2293 7.219444,44.183440,2295 7.219385,44.183454,2296 7.219306,44.183482,2297 7.219243,44.183498,2299 7.219139,44.183507,2301 7.219072,44.183505,2302 7.218969,44.183528,2302 7.218908,44.183592,2304 7.218776,44.183623,2304 7.218559,44.183694,2305 7.218494,44.183717,2305 7.218385,44.183745,2306 7.218190,44.183842,2306 7.218121,44.183891,2305 7.218083,44.183923,2304 7.218045,44.183959,2303 7.217943,44.184017,2302 7.217752,44.184126,2302 7.217661,44.184183,2304 7.217557,44.184245,2304 7.217462,44.184310,2302 7.217445,44.184338,2302 7.217420,44.184341,2301 7.217395,44.184348,2301 7.217348,44.184378,2300 7.217255,44.184436,2299 7.217142,44.184489,2298 7.216995,44.184576,2298 7.216863,44.184631,2299 7.216820,44.184683,2300 7.216765,44.184718,2301 7.216718,44.184741,2302 7.216623,44.184774,2303 7.216554,44.184819,2304 7.216481,44.184852,2306 7.216443,44.184878,2306 7.216353,44.184924,2308 7.216291,44.184969,2309 7.216202,44.185024,2310 7.216199,44.185037,2310 7.216189,44.185020,2310 7.216133,44.184985,2311 7.216096,44.184960,2312 7.216102,44.184905,2314 7.216077,44.184849,2316 7.216061,44.184790,2317 7.216073,44.184725,2318 7.216077,44.184680,2319 7.216120,44.184593,2321 7.216153,44.184554,2322 7.216202,44.184485,2323 7.216213,44.184394,2324 7.216218,44.184291,2325 7.216241,44.184233,2326 7.216204,44.184249,2328 7.216125,44.184359,2329 7.216078,44.184421,2330 7.215973,44.184500,2330 7.215893,44.184548,2331 7.215817,44.184593,2333 7.215776,44.184625,2334 7.215702,44.184661,2336 7.215590,44.184687,2337 7.215564,44.184672,2338 7.215623,44.184629,2340 7.215708,44.184558,2341 7.215798,44.184441,2342 7.215825,44.184378,2343 7.215848,44.184326,2345 7.215849,44.184297,2346 7.215833,44.184236,2348 7.215823,44.184176,2350 7.215807,44.184119,2351 7.215776,44.184023,2354 7.215754,44.183963,2355 7.215730,44.183924,2356 7.215711,44.183897,2356 7.215694,44.183872,2357 7.215647,44.183818,2358 7.215630,44.183747,2359 7.215528,44.183727,2360 7.215589,44.183693,2361 7.215634,44.183647,2362 7.215666,44.183604,2363 7.215695,44.183582,2364 7.215819,44.183533,2365 7.215954,44.183477,2365 7.216000,44.183455,2367 7.216040,44.183445,2368 7.216050,44.183379,2369 7.216011,44.183347,2371 7.215904,44.183326,2371 7.215880,44.183299,2373 7.215949,44.183245,2375 7.215931,44.183209,2376 7.215906,44.183177,2377 7.215893,44.183142,2378 7.215910,44.183069,2379 7.215945,44.183044,2380 7.215950,44.183018,2381 7.216048,44.182985,2383 7.216129,44.182973,2384 7.216222,44.182972,2385 7.216304,44.182924,2385 7.216395,44.182911,2386 7.216421,44.182883,2385 7.216410,44.182893,2383 7.216419,44.182897,2383 7.216421,44.182897,2382 7.216410,44.182890,2381 7.216436,44.182883,2381 7.216426,44.182893,2382 7.216416,44.182888,2383 7.216418,44.182887,2384 7.216408,44.182937,2382 7.216444,44.182898,2382 7.216405,44.182892,2383 7.216435,44.182903,2382 7.216427,44.182932,2381 7.216331,44.182940,2381 7.216319,44.182943,2381 7.216343,44.182913,2381 7.216414,44.182877,2380 7.216440,44.182862,2381 7.216398,44.182843,2380 7.216398,44.182830,2380 7.216500,44.182818,2380 7.216482,44.182820,2380 7.216473,44.182781,2381 7.216490,44.182781,2381 7.216521,44.182812,2382 7.216560,44.182811,2382 7.216494,44.182856,2381 7.216399,44.182889,2382 7.216408,44.182871,2380 7.216406,44.182843,2380 7.216418,44.182830,2381 7.216421,44.182899,2380 7.216332,44.182926,2381 7.216331,44.182920,2380 7.216322,44.182896,2379 7.216327,44.182916,2378 7.216327,44.182909,2378 7.216341,44.182868,2378 7.216301,44.182943,2377 7.216338,44.182916,2377 7.216365,44.182853,2371 7.216351,44.182887,2371 7.216316,44.182902,2372 7.216265,44.182955,2374 7.216171,44.182977,2372 7.216127,44.182979,2371 7.216082,44.182998,2370 7.215966,44.182985,2371 7.215935,44.183006,2370 7.215959,44.183037,2369 7.215935,44.183053,2368 7.215896,44.183107,2367 7.215877,44.183151,2365 7.215903,44.183188,2364 7.215914,44.183220,2364 7.215918,44.183266,2362 7.215869,44.183302,2362 7.215876,44.183337,2360 7.215947,44.183347,2360 7.216039,44.183382,2359 7.216094,44.183423,2358 7.216051,44.183442,2357 7.215927,44.183454,2356 7.215918,44.183459,2355 7.215873,44.183501,2354 7.215782,44.183519,2353 7.215616,44.183648,2351 7.215551,44.183738,2350 7.215530,44.183854,2350 7.215555,44.183891,2351 7.215542,44.183934,2352 7.215525,44.183973,2353 7.215531,44.184051,2354 7.215533,44.184126,2356 7.215509,44.184172,2357 7.215443,44.184291,2356 7.215283,44.184323,2358 7.215187,44.184387,2359 7.215164,44.184392,2359 7.215123,44.184408,2360 7.215084,44.184422,2361 7.214965,44.184418,2362 7.214875,44.184375,2363 7.214754,44.184353,2365 7.214723,44.184368,2367 7.214714,44.184390,2368 7.214686,44.184408,2369 7.214658,44.184383,2370 7.214635,44.184367,2371 7.214596,44.184324,2373 7.214592,44.184295,2374 7.214551,44.184266,2375 7.214510,44.184239,2376 7.214491,44.184225,2376 7.214453,44.184157,2377 7.214365,44.184129,2378 7.214348,44.184139,2378 7.214390,44.184191,2379 7.214442,44.184284,2381 7.214450,44.184320,2383 7.214448,44.184377,2382 7.214396,44.184383,2384 7.214361,44.184325,2386 7.214338,44.184284,2387 7.214319,44.184267,2387 7.214246,44.184228,2388 7.214106,44.184217,2389 7.214077,44.184252,2390 7.214119,44.184282,2391 7.214109,44.184289,2393 7.213985,44.184304,2394 7.213918,44.184341,2395 7.213858,44.184378,2396 7.213809,44.184396,2396 7.213734,44.184441,2396 7.213564,44.184512,2395 7.213507,44.184598,2394 7.213526,44.184685,2394 7.213542,44.184760,2394 7.213553,44.184882,2394 7.213736,44.184962,2392 7.213743,44.185007,2391 7.213706,44.185054,2391 7.213678,44.185144,2390 7.213641,44.185216,2388 7.213666,44.185281,2388 7.213679,44.185285,2386 7.213686,44.185269,2387 7.213734,44.185269,2386 7.213727,44.185304,2385 7.213737,44.185308,2383 7.213808,44.185318,2382 7.213786,44.185374,2382 7.213744,44.185421,2380 7.213727,44.185447,2378 7.213683,44.185516,2376 7.213651,44.185563,2376 7.213555,44.185610,2377 7.213570,44.185659,2379 7.213564,44.185663,2380 7.213532,44.185661,2380 7.213522,44.185677,2380 7.213527,44.185678,2378 7.213540,44.185680,2378 7.213557,44.185677,2378 7.213563,44.185634,2377 7.213628,44.185530,2377 7.213658,44.185508,2377 7.213667,44.185530,2377 7.213748,44.185514,2376 7.213840,44.185507,2374 7.213900,44.185495,2373 7.213984,44.185450,2372 7.214027,44.185436,2371 7.214091,44.185423,2370 7.214091,44.185429,2370 7.214087,44.185471,2368 7.214107,44.185507,2367 7.214136,44.185524,2365 7.214124,44.185549,2364 7.214134,44.185574,2363 7.214151,44.185607,2362 7.214150,44.185668,2360 7.214133,44.185701,2360 7.214160,44.185757,2358 7.214123,44.185793,2357 7.214001,44.185844,2356 7.213913,44.185940,2355 7.213829,44.186001,2354 7.213767,44.186026,2353 7.213689,44.186077,2351 7.213588,44.186115,2350 7.213557,44.186137,2349 7.213505,44.186196,2348 7.213320,44.186323,2347 7.213203,44.186501,2347 7.213144,44.186600,2348 7.213112,44.186635,2349 7.213104,44.186706,2350 7.213087,44.186744,2350 7.213029,44.186907,2349 7.213041,44.187034,2348 7.213001,44.187152,2347 7.212976,44.187207,2346 7.212938,44.187289,2346 7.212933,44.187392,2348 7.212932,44.187542,2346 7.212827,44.187566,2346 7.212726,44.187601,2345 7.212718,44.187625,2345 7.212651,44.187693,2344 7.212602,44.187784,2342 7.212578,44.187874,2341 7.212518,44.187987,2341 7.212440,44.188084,2342 7.212420,44.188165,2343 7.212441,44.188254,2343 7.212391,44.188355,2342 7.212367,44.188409,2341 7.212356,44.188523,2339 7.212284,44.188673,2340 7.212250,44.188823,2339 7.212191,44.188963,2340 7.212177,44.189004,2340 7.212138,44.189110,2340 7.212110,44.189209,2340 7.212118,44.189327,2341 7.212169,44.189411,2341 7.212302,44.189596,2341 7.212275,44.189668,2339 7.212251,44.189710,2339 7.212239,44.189764,2338 7.212119,44.189814,2339 7.211998,44.189819,2340 7.211981,44.189816,2340 7.211879,44.189817,2341 7.211760,44.189876,2340 7.211595,44.189974,2341 7.211567,44.189997,2342 7.211546,44.190045,2345 7.211523,44.190140,2345 7.211502,44.190168,2345 7.211385,44.190268,2344 7.211360,44.190296,2343 7.211351,44.190291,2343 7.211356,44.190285,2343 7.211334,44.190323,2343 7.211319,44.190346,2343 7.211293,44.190375,2342 7.211207,44.190470,2341 7.211180,44.190520,2341 7.211169,44.190588,2339 7.211174,44.190650,2337 7.211167,44.190681,2336 7.211231,44.190757,2334 7.211388,44.190865,2334 7.211464,44.190947,2333 7.211507,44.191016,2334 7.211570,44.191085,2333 7.211637,44.191112,2332 7.211690,44.191151,2331 7.211769,44.191232,2330 7.211856,44.191250,2329 7.211928,44.191263,2328 7.212067,44.191331,2326 7.212147,44.191366,2325 7.212237,44.191392,2324 7.212285,44.191437,2323 7.212309,44.191461,2322 7.212311,44.191487,2321 7.212277,44.191537,2319 7.212249,44.191596,2318 7.212253,44.191627,2317 7.212240,44.191667,2316 7.212272,44.191720,2314 7.212321,44.191745,2313 7.212362,44.191797,2312 7.212383,44.191836,2310 7.212406,44.191873,2309 7.212390,44.191908,2308 7.212362,44.191911,2307 7.212373,44.191935,2308 7.212352,44.191967,2309 7.212394,44.191965,2309 7.212386,44.191944,2309 7.212312,44.191901,2309 7.212320,44.191901,2309 7.212369,44.191956,2309 7.212391,44.191943,2309 7.212342,44.191967,2309 7.212348,44.191965,2309 7.212352,44.191958,2309 7.212378,44.191955,2308 7.212371,44.191965,2308 7.212359,44.191941,2308 7.212363,44.191939,2307 7.212370,44.191951,2307 7.212398,44.191938,2309 7.212383,44.191946,2309 7.212387,44.191952,2309 7.212392,44.191940,2309 7.212406,44.191934,2309 7.212405,44.191945,2309 7.212344,44.191970,2308 7.212346,44.191977,2309 7.212388,44.191956,2309 7.212372,44.191965,2309 7.212377,44.191941,2309 7.212351,44.191968,2308 7.212363,44.191958,2309 7.212380,44.191943,2309 7.212371,44.191952,2310 7.212351,44.191941,2310 7.212356,44.191951,2310 7.212377,44.191972,2310 7.212374,44.191969,2311 7.212359,44.191974,2311 7.212377,44.191978,2311 7.212394,44.191967,2311 7.212388,44.191959,2311 7.212377,44.191971,2310 7.212382,44.191974,2310 7.212389,44.191966,2310 7.212392,44.191932,2311 7.212365,44.191903,2311 7.212367,44.191944,2312 7.212382,44.191952,2311 7.212388,44.191946,2311 7.212330,44.192001,2311 7.212301,44.192027,2312 7.212261,44.192047,2313 7.212242,44.192090,2314 7.212240,44.192102,2314 7.212139,44.192238,2314 7.212096,44.192312,2313 7.212039,44.192479,2313 7.212107,44.192642,2314 7.212116,44.192686,2314 7.212128,44.192726,2313 7.212161,44.192832,2312 7.212240,44.192988,2311 7.212351,44.193097,2311 7.212417,44.193174,2310 7.212476,44.193255,2308 7.212512,44.193326,2307 7.212545,44.193398,2306 7.212527,44.193531,2305 7.212405,44.193661,2304 7.212391,44.193676,2304 7.212279,44.193747,2302 7.212104,44.193790,2300 7.211959,44.193852,2299 7.211799,44.193936,2300 7.211848,44.194041,2301 7.211817,44.194037,2301 7.211751,44.194009,2302 7.211706,44.194003,2303 7.211640,44.194011,2304 7.211610,44.194028,2305 7.211598,44.194065,2305 7.211438,44.194088,2304 7.211408,44.194092,2302 7.211390,44.194140,2301 7.211471,44.194219,2301 7.211400,44.194220,2299 7.211353,44.194218,2299 7.211409,44.194239,2297 7.211466,44.194270,2294 7.211477,44.194302,2293 7.211516,44.194463,2294 7.211582,44.194584,2295 7.211661,44.194727,2293 7.211672,44.194708,2293 7.211678,44.194707,2293 7.211593,44.194820,2294 7.211589,44.194879,2295 7.211604,44.195020,2294 7.211661,44.195186,2294 7.211712,44.195270,2293 7.211716,44.195340,2295 7.211641,44.195412,2296 7.211562,44.195443,2297 7.211539,44.195519,2299 7.211547,44.195553,2299 7.211562,44.195574,2299 7.211582,44.195593,2300 7.211598,44.195684,2301 7.211548,44.195770,2302 7.211443,44.195829,2303 7.211203,44.195907,2303 7.211025,44.195981,2305 7.210995,44.195998,2306 7.210954,44.196009,2308 7.210842,44.196052,2309 7.210681,44.196194,2308 7.210593,44.196245,2308 7.210500,44.196301,2307 7.210417,44.196329,2308 7.210370,44.196332,2309 7.210337,44.196331,2309 7.210288,44.196328,2310 7.210345,44.196362,2311 7.210364,44.196377,2311 7.210291,44.196384,2312 7.210202,44.196376,2314 7.210189,44.196376,2315 7.210172,44.196365,2316 7.210111,44.196402,2318 7.210083,44.196452,2319 7.210081,44.196493,2320 7.209999,44.196509,2321 7.209904,44.196516,2323 7.209793,44.196560,2324 7.209781,44.196569,2324 7.209748,44.196607,2326 7.209808,44.196580,2327 7.209820,44.196627,2328 7.209778,44.196697,2330 7.209719,44.196757,2331 7.209644,44.196822,2332 7.209560,44.196915,2333 7.209493,44.196999,2335 7.209418,44.197047,2336 7.209293,44.197083,2335 7.209212,44.197102,2334 7.209095,44.197129,2333 7.209001,44.197126,2331 7.208908,44.197113,2330 7.208961,44.197138,2329 7.209056,44.197169,2328 7.209155,44.197218,2326 7.209041,44.197247,2326 7.208996,44.197248,2323 7.208947,44.197242,2322 7.208887,44.197220,2321 7.208824,44.197217,2319 7.208774,44.197217,2318 7.208726,44.197214,2318 7.208646,44.197219,2316 7.208493,44.197259,2315 7.208373,44.197235,2314 7.208293,44.197241,2313 7.208313,44.197249,2313 7.208389,44.197312,2311 7.208420,44.197338,2310 7.208466,44.197371,2308 7.208548,44.197410,2307 7.208501,44.197418,2305 7.208380,44.197408,2304 7.208344,44.197403,2302 7.208231,44.197402,2301 7.208147,44.197400,2300 7.208065,44.197378,2298 7.207979,44.197376,2297 7.207974,44.197442,2296 7.208041,44.197520,2295 7.208035,44.197516,2295 7.208067,44.197557,2294 7.208114,44.197575,2293 7.208175,44.197560,2290 7.208199,44.197550,2289 7.208283,44.197527,2287 7.208348,44.197541,2286 7.208263,44.197576,2286 7.208271,44.197599,2284 7.208326,44.197600,2284 7.208443,44.197616,2281 7.208488,44.197645,2280 7.208605,44.197699,2279 7.208677,44.197738,2278 7.208774,44.197789,2277 7.208776,44.197840,2276 7.208697,44.197877,2275 7.208652,44.197894,2275 7.208633,44.197927,2274 7.208641,44.197930,2277 7.208648,44.197946,2277 7.208683,44.197909,2276 7.208692,44.197901,2275 7.208650,44.197877,2276 7.208625,44.197840,2275 7.208627,44.197894,2276 7.208647,44.197875,2275 7.208531,44.197913,2274 7.208479,44.197948,2273 7.208375,44.197992,2272 7.208284,44.198059,2271 7.208195,44.198130,2271 7.208083,44.198203,2271 7.207989,44.198280,2270 7.207790,44.198409,2269 7.207719,44.198474,2269 7.207682,44.198651,2268 7.207682,44.198663,2268 7.207635,44.198672,2268 7.207402,44.198622,2269 7.207347,44.198599,2269 7.207275,44.198561,2270 7.207151,44.198508,2270 7.206988,44.198448,2270 7.207010,44.198470,2270 7.206996,44.198487,2270 7.206837,44.198494,2270 7.206621,44.198512,2269 7.206512,44.198538,2269 7.206378,44.198595,2269 7.206245,44.198656,2269 7.206253,44.198672,2269 7.206258,44.198645,2269 7.206186,44.198643,2268 7.206014,44.198649,2269 7.205889,44.198687,2269 7.205636,44.198731,2269 7.205329,44.198781,2270 7.205160,44.198778,2271 7.205040,44.198699,2271 7.204761,44.198699,2270 7.204468,44.198640,2271 7.204328,44.198591,2272 7.204251,44.198565,2273 7.204210,44.198561,2273 7.204072,44.198563,2274 7.203873,44.198564,2275 7.203812,44.198569,2275 7.203806,44.198563,2275 7.203836,44.198545,2274 7.203822,44.198562,2274 7.203775,44.198562,2275 7.203704,44.198494,2276 7.203687,44.198447,2276 7.203659,44.198421,2276 7.203559,44.198353,2277 7.203486,44.198373,2278 7.203219,44.198375,2278 7.203090,44.198364,2279 7.202935,44.198330,2279 7.202646,44.198284,2279 7.202598,44.198282,2278 7.202440,44.198268,2278 7.202206,44.198191,2279 7.202118,44.198158,2278 7.201981,44.198103,2278 7.201951,44.198088,2279 7.201904,44.198037,2280 7.201906,44.198012,2281 7.201862,44.197855,2282 7.201825,44.197713,2283 7.201817,44.197646,2284 7.201817,44.197607,2285 7.201856,44.197521,2286 7.201856,44.197433,2287 7.201867,44.197392,2288 7.201903,44.197342,2289 7.201935,44.197261,2290 7.201958,44.197220,2291 7.201970,44.197172,2293 7.201969,44.197124,2294 7.201990,44.197061,2295 7.202008,44.196967,2296 7.202057,44.196928,2297 7.202086,44.196889,2299 7.202065,44.196814,2300 7.202006,44.196853,2301 7.201917,44.196907,2302 7.201868,44.196935,2302 7.201875,44.196886,2304 7.201921,44.196829,2306 7.201958,44.196807,2307 7.201995,44.196777,2308 7.202004,44.196734,2310 7.202000,44.196708,2311 7.201964,44.196671,2312 7.201928,44.196645,2313 7.201920,44.196606,2314 7.201915,44.196556,2316 7.201914,44.196487,2317 7.201883,44.196446,2318 7.201856,44.196369,2319 7.201903,44.196321,2320 7.201918,44.196275,2322 7.201923,44.196221,2323 7.201937,44.196125,2324 7.201897,44.196083,2325 7.201840,44.196109,2326 7.201728,44.196153,2328 7.201700,44.196164,2329 7.201699,44.196165,2330 7.201595,44.196148,2331 7.201653,44.196096,2332 7.201721,44.196030,2333 7.201714,44.195981,2334 7.201730,44.195861,2335 7.201807,44.195795,2336 7.201888,44.195745,2338 7.201855,44.195719,2339 7.201839,44.195677,2340 7.201855,44.195644,2341 7.201842,44.195568,2342 7.201825,44.195544,2344 7.201722,44.195594,2344 7.201627,44.195644,2346 7.201596,44.195652,2347 7.201501,44.195661,2348 7.201372,44.195678,2349 7.201227,44.195722,2350 7.201160,44.195747,2351 7.201104,44.195727,2354 7.201114,44.195682,2353 7.201157,44.195554,2354 7.201115,44.195457,2355 7.201078,44.195462,2356 7.201019,44.195487,2357 7.200907,44.195561,2359 7.200871,44.195549,2360 7.200972,44.195400,2361 7.200984,44.195373,2361 7.201047,44.195268,2362 7.201070,44.195221,2363 7.201071,44.195127,2364 7.201098,44.195050,2365 7.201095,44.195029,2365 7.200960,44.195063,2366 7.200903,44.195119,2367 7.200833,44.195164,2368 7.200677,44.195231,2369 7.200581,44.195299,2369 7.200659,44.195214,2370 7.200588,44.195292,2369 7.200618,44.195281,2369 7.200605,44.195240,2369 7.200545,44.195222,2370 7.200578,44.195190,2370 7.200584,44.195187,2370 7.200572,44.195193,2370 7.200585,44.195175,2371 7.200713,44.195032,2372 7.200759,44.194993,2373 7.200686,44.194990,2375 7.200611,44.194955,2376 7.200613,44.194926,2377 7.200621,44.194900,2377 7.200639,44.194847,2379 7.200672,44.194782,2380 7.200593,44.194734,2381 7.200519,44.194774,2382 7.200451,44.194780,2384 7.200427,44.194752,2385 7.200456,44.194678,2386 7.200545,44.194597,2387 7.200680,44.194481,2388 7.200735,44.194430,2390 7.200761,44.194387,2391 7.200643,44.194356,2393 7.200554,44.194328,2394 7.200374,44.194375,2395 7.200283,44.194379,2397 7.200324,44.194348,2398 7.200372,44.194296,2399 7.200414,44.194256,2400 7.200430,44.194213,2401 7.200470,44.194149,2403 7.200553,44.194089,2405 7.200581,44.194011,2405 7.200651,44.193955,2406 7.200705,44.193921,2407 7.200794,44.193918,2408 7.200889,44.193891,2409 7.200893,44.193874,2409 7.200945,44.193831,2410 7.200979,44.193769,2411 7.201037,44.193718,2412 7.201143,44.193675,2413 7.201239,44.193648,2414 7.201333,44.193624,2415 7.201375,44.193605,2416 7.201412,44.193553,2417 7.201274,44.193582,2418 7.201196,44.193567,2419 7.201096,44.193532,2420 7.200982,44.193490,2421 7.200924,44.193503,2422 7.200841,44.193537,2423 7.200754,44.193535,2424 7.200636,44.193496,2425 7.200537,44.193518,2425 7.200439,44.193599,2426 7.200378,44.193645,2427 7.200267,44.193708,2428 7.200208,44.193741,2430 7.200138,44.193811,2432 7.200112,44.193849,2433 7.200010,44.193864,2434 7.199939,44.193886,2435 7.199904,44.193895,2436 7.199770,44.193881,2437 7.199733,44.193886,2437 7.199643,44.193897,2438 7.199585,44.193900,2440 7.199517,44.193904,2442 7.199424,44.193909,2443 7.199334,44.193913,2445 7.199317,44.193918,2445 7.199257,44.193929,2446 7.199315,44.193881,2447 7.199312,44.193830,2449 7.199306,44.193774,2450 7.199298,44.193687,2452 7.199253,44.193646,2453 7.199201,44.193698,2454 7.199172,44.193763,2455 7.198953,44.193818,2456 7.198935,44.193853,2456 7.198947,44.193907,2457 7.198904,44.194064,2457 7.198725,44.194022,2457 7.198632,44.194010,2458 7.198567,44.194051,2459 7.198491,44.194038,2460 7.198439,44.194046,2459 7.198422,44.194037,2458 7.198396,44.194042,2457 7.198417,44.194051,2458 7.198454,44.194095,2458 7.198506,44.194131,2459 7.198525,44.194190,2461 7.198513,44.194205,2462 7.198515,44.194208,2462 7.198526,44.194182,2461 7.198436,44.194133,2460 7.198351,44.194109,2459 7.198296,44.194109,2457 7.198166,44.194139,2458 7.197995,44.194144,2459 7.197837,44.194093,2459 7.197684,44.194100,2459 7.197484,44.194114,2460 7.197434,44.194111,2461 7.197455,44.194113,2461 7.197416,44.194130,2461 7.197384,44.194129,2462 7.197299,44.194080,2461 7.197312,44.194063,2460 7.197280,44.193982,2460 7.197292,44.193837,2460 7.197356,44.193768,2460 7.197308,44.193754,2461 7.197283,44.193735,2462 7.197253,44.193756,2460 7.197320,44.193755,2461 7.197330,44.193747,2460 7.197288,44.193771,2461 7.197322,44.193746,2461 7.197254,44.193763,2460</coordinates></LineString></Placemark></Document></kml>