<?xml version="1.0" encoding="UTF-8"?>
<kml xmlns="http://www.opengis.net/kml/2.2"><Document><name>Alta Linea Continua – Stage 6: Lac de Fenestre to Rifugio Genova</name><Style id="l"><LineStyle><color>ff2b30c4</color><width>4</width></LineStyle></Style><Placemark><name>Alta Linea Continua – Stage 6: Lac de Fenestre to Rifugio Genova</name><styleUrl>#l</styleUrl><LineString><tessellate>1</tessellate><altitudeMode>clampToGround</altitudeMode><coordinates>7.361933,44.110326,2275 7.361929,44.110475,2275 7.362028,44.110697,2276 7.362052,44.110738,2277 7.362051,44.110802,2278 7.362037,44.110827,2279 7.361996,44.110899,2280 7.361964,44.110933,2281 7.361979,44.110971,2282 7.362002,44.111011,2283 7.361941,44.111046,2284 7.361977,44.111091,2285 7.362008,44.111191,2286 7.362017,44.111261,2287 7.362026,44.111339,2289 7.362040,44.111457,2290 7.362046,44.111492,2291 7.362052,44.111516,2292 7.362056,44.111561,2293 7.361967,44.111543,2295 7.361927,44.111526,2296 7.361869,44.111469,2298 7.361839,44.111418,2299 7.361765,44.111405,2300 7.361712,44.111464,2301 7.361713,44.111522,2303 7.361725,44.111591,2304 7.361691,44.111667,2304 7.361653,44.111711,2306 7.361623,44.111753,2307 7.361614,44.111774,2308 7.361613,44.111812,2309 7.361582,44.111843,2309 7.361528,44.111937,2311 7.361500,44.111959,2312 7.361447,44.111959,2313 7.361389,44.111991,2314 7.361365,44.112043,2315 7.361349,44.112096,2316 7.361383,44.112151,2317 7.361374,44.112221,2319 7.361336,44.112203,2320 7.361169,44.112128,2321 7.361093,44.112115,2322 7.360987,44.112101,2323 7.360918,44.112097,2324 7.360838,44.112088,2325 7.360633,44.112127,2327 7.360529,44.112127,2328 7.360453,44.112059,2329 7.360313,44.111921,2327 7.360178,44.111852,2326 7.360055,44.111799,2326 7.359938,44.111770,2325 7.359952,44.111776,2325 7.359983,44.111778,2325 7.359930,44.111753,2325 7.359942,44.111755,2325 7.359942,44.111766,2325 7.359973,44.111775,2325 7.359951,44.111791,2325 7.359881,44.111753,2324 7.359818,44.111750,2323 7.359715,44.111758,2322 7.359623,44.111753,2321 7.359556,44.111742,2320 7.359453,44.111705,2319 7.359368,44.111651,2318 7.359324,44.111625,2317 7.359248,44.111585,2315 7.359174,44.111542,2314 7.359125,44.111527,2313 7.359022,44.111481,2312 7.358974,44.111417,2311 7.358916,44.111340,2310 7.358887,44.111292,2309 7.358868,44.111233,2308 7.358816,44.111176,2307 7.358773,44.111125,2306 7.358726,44.111093,2305 7.358685,44.111064,2304 7.358610,44.111024,2303 7.358537,44.110988,2302 7.358507,44.110930,2300 7.358432,44.110889,2299 7.358363,44.110840,2298 7.358304,44.110794,2297 7.358238,44.110757,2296 7.358187,44.110721,2295 7.358110,44.110660,2294 7.358043,44.110656,2292 7.357964,44.110618,2292 7.357839,44.110554,2291 7.357767,44.110544,2291 7.357695,44.110486,2290 7.357668,44.110429,2288 7.357582,44.110332,2288 7.357489,44.110237,2287 7.357420,44.110169,2286 7.357332,44.110110,2285 7.357251,44.110056,2284 7.357198,44.109974,2283 7.357117,44.109884,2283 7.357065,44.109797,2282 7.356992,44.109723,2280 7.356944,44.109660,2280 7.356895,44.109576,2280 7.356875,44.109541,2279 7.356769,44.109444,2278 7.356684,44.109340,2276 7.356562,44.109183,2275 7.356550,44.109117,2274 7.356502,44.109095,2273 7.356480,44.109097,2273 7.356492,44.109104,2273 7.356472,44.109096,2273 7.356325,44.109090,2271 7.356261,44.109081,2270 7.356111,44.109007,2269 7.356052,44.108959,2268 7.355877,44.108830,2266 7.355839,44.108786,2265 7.355728,44.108680,2263 7.355725,44.108648,2262 7.355715,44.108630,2261 7.355684,44.108582,2260 7.355656,44.108517,2259 7.355589,44.108434,2259 7.355627,44.108322,2260 7.355642,44.108304,2260 7.355688,44.108294,2260 7.355646,44.108210,2261 7.355559,44.108114,2261 7.355507,44.108044,2262 7.355463,44.108030,2263 7.355439,44.108027,2264 7.355377,44.107983,2265 7.355292,44.107934,2266 7.355271,44.107929,2266 7.355225,44.107940,2268 7.355208,44.107959,2268 7.355161,44.107936,2270 7.355083,44.107941,2271 7.355056,44.107954,2271 7.355040,44.107987,2272 7.355066,44.108002,2274 7.355163,44.108024,2275 7.355230,44.108058,2277 7.355181,44.108078,2279 7.355158,44.108083,2280 7.355157,44.108127,2282 7.355174,44.108162,2283 7.355217,44.108193,2284 7.355234,44.108224,2285 7.355175,44.108213,2286 7.355129,44.108207,2288 7.355175,44.108218,2289 7.355201,44.108233,2289 7.355167,44.108285,2290 7.355068,44.108314,2292 7.355058,44.108314,2293 7.355090,44.108324,2294 7.355057,44.108370,2295 7.354953,44.108393,2297 7.354931,44.108411,2298 7.354909,44.108452,2300 7.354880,44.108485,2300 7.354866,44.108525,2302 7.354953,44.108556,2304 7.354973,44.108567,2304 7.355014,44.108563,2305 7.354979,44.108569,2304 7.354978,44.108564,2304 7.354982,44.108572,2304 7.355104,44.108643,2306 7.355092,44.108688,2307 7.355013,44.108670,2309 7.355032,44.108707,2310 7.355035,44.108752,2311 7.355013,44.108767,2312 7.354953,44.108743,2313 7.354898,44.108749,2315 7.354882,44.108765,2316 7.354881,44.108764,2317 7.354849,44.108752,2318 7.354873,44.108782,2319 7.354888,44.108836,2320 7.354894,44.108901,2321 7.354846,44.108875,2322 7.354803,44.108889,2323 7.354774,44.108947,2325 7.354781,44.108978,2325 7.354756,44.109075,2326 7.354724,44.109090,2327 7.354679,44.109111,2328 7.354610,44.109130,2329 7.354578,44.109179,2330 7.354555,44.109211,2331 7.354509,44.109227,2332 7.354490,44.109248,2333 7.354496,44.109277,2335 7.354517,44.109297,2336 7.354460,44.109305,2338 7.354397,44.109330,2339 7.354347,44.109346,2340 7.354295,44.109398,2342 7.354373,44.109446,2343 7.354419,44.109500,2345 7.354392,44.109509,2346 7.354340,44.109490,2347 7.354313,44.109502,2348 7.354306,44.109550,2350 7.354249,44.109559,2352 7.354273,44.109589,2353 7.354318,44.109642,2354 7.354309,44.109676,2355 7.354277,44.109686,2356 7.354233,44.109697,2357 7.354175,44.109744,2359 7.354173,44.109768,2360 7.354205,44.109823,2361 7.354213,44.109908,2362 7.354170,44.110008,2363 7.354134,44.110051,2364 7.354145,44.110065,2365 7.354131,44.110095,2366 7.354121,44.110163,2367 7.354106,44.110190,2368 7.354074,44.110216,2370 7.354113,44.110230,2371 7.354121,44.110266,2372 7.354093,44.110302,2373 7.354084,44.110362,2374 7.354089,44.110427,2374 7.354005,44.110557,2374 7.354004,44.110658,2374 7.353978,44.110672,2374 7.353987,44.110643,2374 7.354043,44.110651,2374 7.354047,44.110665,2374 7.354041,44.110654,2375 7.354051,44.110648,2374 7.354062,44.110699,2375 7.354051,44.110845,2375 7.354032,44.110899,2376 7.354020,44.110936,2376 7.354075,44.110968,2377 7.354103,44.110983,2377 7.354095,44.111040,2378 7.354086,44.111058,2378 7.354080,44.111104,2379 7.354080,44.111123,2379 7.354091,44.111270,2381 7.354119,44.111320,2382 7.354113,44.111321,2382 7.354069,44.111352,2384 7.353982,44.111398,2384 7.353911,44.111461,2385 7.353942,44.111527,2386 7.353971,44.111622,2388 7.353968,44.111657,2389 7.353959,44.111680,2390 7.353913,44.111699,2391 7.353884,44.111726,2392 7.353922,44.111767,2393 7.353888,44.111780,2394 7.353932,44.111815,2395 7.353899,44.111835,2396 7.353835,44.111850,2398 7.353757,44.111833,2400 7.353765,44.111875,2401 7.353754,44.111895,2401 7.353703,44.111900,2403 7.353617,44.111916,2404 7.353576,44.111910,2404 7.353533,44.111898,2405 7.353669,44.111995,2407 7.353627,44.112024,2409 7.353571,44.112031,2411 7.353505,44.112031,2412 7.353449,44.112026,2414 7.353458,44.112071,2415 7.353570,44.112153,2417 7.353619,44.112170,2417 7.353738,44.112231,2418 7.353692,44.112231,2419 7.353590,44.112222,2420 7.353450,44.112207,2422 7.353392,44.112202,2423 7.353409,44.112215,2423 7.353477,44.112267,2424 7.353428,44.112242,2425 7.353368,44.112240,2427 7.353311,44.112235,2428 7.353312,44.112259,2429 7.353449,44.112320,2430 7.353423,44.112329,2430 7.353329,44.112306,2432 7.353299,44.112292,2432 7.353229,44.112255,2433 7.353150,44.112207,2434 7.353113,44.112202,2435 7.353124,44.112253,2435 7.353172,44.112316,2436 7.353194,44.112344,2438 7.353201,44.112388,2440 7.353218,44.112419,2441 7.353188,44.112428,2442 7.353164,44.112474,2443 7.353165,44.112496,2444 7.353186,44.112549,2445 7.353190,44.112537,2446 7.353162,44.112553,2446 7.353095,44.112545,2444 7.353041,44.112540,2443 7.352996,44.112560,2441 7.352988,44.112566,2440 7.352965,44.112558,2439 7.352888,44.112523,2437 7.352889,44.112527,2436 7.352866,44.112548,2435 7.352866,44.112550,2435 7.352869,44.112545,2435 7.352887,44.112564,2434 7.352878,44.112595,2433 7.352853,44.112562,2431 7.352807,44.112580,2429 7.352823,44.112538,2429 7.352810,44.112594,2429 7.352819,44.112602,2428 7.352826,44.112605,2428 7.352836,44.112602,2428 7.352801,44.112619,2428 7.352814,44.112594,2428 7.352814,44.112572,2428 7.352795,44.112585,2429 7.352792,44.112541,2429 7.352794,44.112608,2429 7.352812,44.112593,2429 7.352805,44.112580,2430 7.352831,44.112580,2429 7.352830,44.112592,2429 7.352820,44.112594,2429 7.352801,44.112597,2429 7.352798,44.112573,2429 7.352808,44.112599,2430 7.352810,44.112614,2430 7.352835,44.112598,2430 7.352795,44.112604,2430 7.352783,44.112600,2430 7.352792,44.112599,2430 7.352809,44.112592,2430 7.352792,44.112583,2431 7.352808,44.112593,2431 7.352818,44.112584,2431 7.352809,44.112598,2432 7.352797,44.112591,2431 7.352799,44.112579,2431 7.352772,44.112564,2430 7.352763,44.112558,2429 7.352744,44.112599,2427 7.352718,44.112606,2426 7.352701,44.112622,2425 7.352673,44.112605,2423 7.352624,44.112564,2422 7.352604,44.112589,2421 7.352576,44.112598,2419 7.352538,44.112571,2418 7.352516,44.112557,2417 7.352489,44.112542,2416 7.352488,44.112568,2415 7.352474,44.112624,2413 7.352430,44.112642,2412 7.352421,44.112661,2411 7.352414,44.112693,2410 7.352405,44.112736,2408 7.352367,44.112773,2406 7.352357,44.112795,2405 7.352340,44.112828,2404 7.352325,44.112793,2403 7.352268,44.112767,2402 7.352249,44.112818,2401 7.352236,44.112848,2400 7.352229,44.112844,2398 7.352221,44.112816,2397 7.352166,44.112780,2396 7.352096,44.112746,2394 7.352054,44.112770,2393 7.352032,44.112784,2392 7.351994,44.112789,2391 7.351955,44.112825,2389 7.351900,44.112849,2388 7.351822,44.112864,2386 7.351787,44.112823,2385 7.351766,44.112786,2384 7.351735,44.112779,2383 7.351668,44.112786,2381 7.351593,44.112791,2379 7.351561,44.112782,2378 7.351548,44.112759,2377 7.351500,44.112764,2375 7.351484,44.112804,2374 7.351476,44.112871,2372 7.351473,44.112890,2371 7.351429,44.112912,2370 7.351416,44.112933,2368 7.351424,44.112972,2367 7.351401,44.113006,2366 7.351358,44.112958,2365 7.351295,44.112904,2364 7.351241,44.112879,2362 7.351206,44.112829,2361 7.351193,44.112797,2361 7.351178,44.112741,2359 7.351163,44.112740,2358 7.351143,44.112791,2357 7.351113,44.112826,2356 7.351043,44.112793,2354 7.351002,44.112785,2353 7.350981,44.112834,2352 7.350949,44.112847,2350 7.350918,44.112807,2349 7.350890,44.112791,2348 7.350864,44.112831,2347 7.350863,44.112855,2346 7.350811,44.112899,2344 7.350776,44.112886,2343 7.350680,44.112837,2341 7.350594,44.112813,2340 7.350514,44.112763,2339 7.350481,44.112701,2338 7.350549,44.112554,2340 7.350493,44.112487,2339 7.350469,44.112447,2337 7.350417,44.112478,2336 7.350381,44.112484,2334 7.350330,44.112497,2332 7.350303,44.112539,2330 7.350281,44.112575,2329 7.350222,44.112585,2328 7.350163,44.112603,2326 7.350141,44.112645,2325 7.350149,44.112681,2324 7.350129,44.112708,2322 7.350124,44.112726,2321 7.350073,44.112710,2319 7.350063,44.112738,2318 7.350066,44.112760,2317 7.350054,44.112784,2316 7.350019,44.112825,2315 7.350019,44.112869,2314 7.350041,44.112903,2313 7.349964,44.112927,2310 7.349920,44.112898,2309 7.349861,44.112904,2307 7.349851,44.112926,2306 7.349860,44.112951,2305 7.349891,44.112987,2303 7.349837,44.113006,2302 7.349791,44.112994,2301 7.349728,44.112974,2299 7.349657,44.112957,2297 7.349689,44.113001,2296 7.349670,44.113015,2295 7.349593,44.112993,2294 7.349506,44.112989,2292 7.349476,44.113025,2290 7.349418,44.113068,2289 7.349383,44.113049,2288 7.349362,44.113037,2288 7.349301,44.113071,2287 7.349274,44.113056,2286 7.349240,44.113078,2285 7.349269,44.113151,2283 7.349314,44.113212,2282 7.349354,44.113253,2281 7.349360,44.113281,2279 7.349340,44.113347,2277 7.349284,44.113371,2276 7.349196,44.113379,2275 7.349115,44.113390,2274 7.348982,44.113418,2273 7.348854,44.113430,2272 7.348778,44.113454,2270 7.348657,44.113475,2269 7.348608,44.113478,2268 7.348547,44.113499,2268 7.348432,44.113510,2266 7.348366,44.113518,2265 7.348284,44.113520,2263 7.348208,44.113542,2262 7.348138,44.113541,2261 7.348114,44.113503,2260 7.348070,44.113516,2259 7.348023,44.113513,2257 7.347949,44.113507,2256 7.347866,44.113516,2255 7.347812,44.113530,2254 7.347636,44.113542,2252 7.347554,44.113556,2251 7.347447,44.113584,2250 7.347355,44.113599,2249 7.347256,44.113597,2247 7.347183,44.113622,2247 7.347033,44.113648,2245 7.346970,44.113658,2243 7.346946,44.113679,2242 7.346924,44.113704,2241 7.346889,44.113739,2241 7.346850,44.113786,2239 7.346756,44.113863,2238 7.346690,44.113901,2237 7.346648,44.113941,2236 7.346615,44.113981,2235 7.346496,44.114027,2234 7.346390,44.113996,2235 7.346331,44.113983,2234 7.346279,44.114007,2233 7.346242,44.113987,2233 7.346066,44.113956,2232 7.345960,44.113947,2232 7.345819,44.113957,2233 7.345621,44.114041,2232 7.345497,44.114100,2231 7.345373,44.114185,2230 7.345221,44.114236,2230 7.345103,44.114229,2229 7.345004,44.114353,2227 7.344981,44.114367,2226 7.344945,44.114379,2224 7.344965,44.114421,2223 7.345009,44.114454,2223 7.345027,44.114518,2221 7.344916,44.114550,2220 7.344857,44.114583,2218 7.344826,44.114580,2217 7.344804,44.114591,2216 7.344723,44.114627,2215 7.344665,44.114642,2213 7.344587,44.114679,2212 7.344518,44.114718,2211 7.344475,44.114737,2211 7.344437,44.114753,2210 7.344407,44.114767,2210 7.344393,44.114771,2209 7.344356,44.114797,2208 7.344289,44.114828,2207 7.344227,44.114831,2205 7.344152,44.114840,2204 7.344056,44.114851,2203 7.344052,44.114863,2202 7.344060,44.114884,2202 7.344072,44.114893,2202 7.344014,44.114874,2201 7.343907,44.114872,2199 7.343804,44.114904,2198 7.343678,44.114916,2196 7.343628,44.114937,2195 7.343581,44.114981,2193 7.343511,44.115051,2192 7.343436,44.115150,2191 7.343391,44.115220,2190 7.343318,44.115282,2189 7.343181,44.115326,2187 7.343126,44.115364,2186 7.343064,44.115454,2184 7.343019,44.115462,2183 7.342985,44.115468,2183 7.342927,44.115490,2182 7.342850,44.115544,2180 7.342751,44.115618,2178 7.342660,44.115650,2178 7.342547,44.115683,2177 7.342424,44.115711,2176 7.342236,44.115734,2175 7.342236,44.115771,2175 7.342241,44.115810,2174 7.342258,44.115802,2174 7.342095,44.115802,2173 7.342015,44.115857,2172 7.341982,44.115911,2171 7.341965,44.115940,2169 7.341922,44.115970,2168 7.341879,44.115973,2166 7.341852,44.116018,2164 7.341776,44.116063,2163 7.341727,44.116061,2163 7.341664,44.116059,2161 7.341578,44.116082,2161 7.341410,44.116165,2161 7.341319,44.116215,2160 7.341099,44.116318,2160 7.341017,44.116335,2161 7.340997,44.116341,2162 7.340936,44.116365,2162 7.340862,44.116406,2163 7.340856,44.116414,2163 7.340683,44.116580,2163 7.340467,44.116623,2163 7.340295,44.116640,2164 7.340199,44.116672,2164 7.340098,44.116719,2166 7.339920,44.116837,2165 7.339714,44.116922,2165 7.339556,44.116949,2164 7.339433,44.116925,2163 7.339352,44.116913,2162 7.339268,44.116939,2161 7.339178,44.116991,2160 7.339140,44.117009,2161 7.339085,44.117017,2160 7.339015,44.117070,2159 7.338860,44.117145,2158 7.338803,44.117174,2157 7.338768,44.117188,2155 7.338722,44.117206,2154 7.338690,44.117216,2152 7.338672,44.117228,2151 7.338644,44.117244,2150 7.338593,44.117265,2148 7.338549,44.117326,2146 7.338547,44.117349,2145 7.338510,44.117391,2144 7.338479,44.117418,2143 7.338444,44.117414,2142 7.338398,44.117426,2141 7.338419,44.117487,2140 7.338407,44.117523,2139 7.338406,44.117557,2138 7.338363,44.117588,2136 7.338318,44.117629,2134 7.338240,44.117632,2133 7.338194,44.117597,2132 7.338190,44.117612,2130 7.338185,44.117620,2129 7.338168,44.117636,2128 7.338151,44.117658,2128 7.338101,44.117724,2127 7.338060,44.117756,2125 7.338048,44.117769,2124 7.338038,44.117804,2122 7.337926,44.118013,2123 7.337852,44.118062,2124 7.337688,44.118186,2124 7.337625,44.118267,2125 7.337488,44.118346,2125 7.337381,44.118385,2125 7.337341,44.118420,2125 7.337278,44.118471,2124 7.337251,44.118499,2123 7.337208,44.118527,2122 7.337172,44.118551,2121 7.337031,44.118641,2120 7.336980,44.118641,2119 7.336916,44.118643,2119 7.336821,44.118697,2118 7.336765,44.118710,2118 7.336674,44.118749,2117 7.336589,44.118762,2116 7.336553,44.118760,2116 7.336529,44.118761,2116 7.336417,44.118838,2114 7.336323,44.118888,2112 7.336272,44.118896,2112 7.336235,44.118880,2110 7.336146,44.118900,2109 7.336090,44.118918,2108 7.336040,44.118924,2107 7.335929,44.118938,2105 7.335892,44.118963,2105 7.335847,44.118981,2104 7.335737,44.119034,2102 7.335709,44.119053,2100 7.335637,44.119114,2099 7.335575,44.119147,2098 7.335521,44.119175,2098 7.335418,44.119219,2097 7.335362,44.119286,2096 7.335170,44.119384,2097 7.335131,44.119422,2097 7.335110,44.119486,2097 7.335095,44.119507,2098 7.335082,44.119549,2099 7.335080,44.119596,2100 7.335096,44.119612,2100 7.335117,44.119611,2100 7.335117,44.119603,2100 7.335103,44.119608,2102 7.335108,44.119653,2103 7.335076,44.119719,2102 7.335054,44.119771,2100 7.335080,44.119866,2100 7.335091,44.119890,2099 7.335119,44.119938,2098 7.335150,44.120039,2099 7.335166,44.120085,2100 7.335136,44.120159,2100 7.335171,44.120302,2100 7.335089,44.120430,2099 7.335110,44.120506,2098 7.335107,44.120570,2098 7.335104,44.120618,2097 7.335122,44.120744,2096 7.335080,44.120825,2095 7.335050,44.120911,2093 7.335052,44.120997,2092 7.335024,44.121182,2092 7.335031,44.121258,2091 7.335034,44.121329,2090 7.335049,44.121411,2089 7.335078,44.121443,2089 7.335129,44.121512,2088 7.335184,44.121637,2086 7.335173,44.121722,2085 7.335140,44.121782,2083 7.335104,44.121886,2083 7.335047,44.122065,2084 7.334939,44.122269,2083 7.334975,44.122401,2082 7.335005,44.122496,2081 7.334974,44.122574,2080 7.334982,44.122591,2080 7.334881,44.122713,2079 7.334869,44.122737,2080 7.334808,44.122829,2081 7.334882,44.122959,2081 7.334994,44.123027,2082 7.335025,44.123107,2083 7.335052,44.123168,2083 7.334980,44.123295,2084 7.335044,44.123318,2085 7.335119,44.123376,2086 7.335120,44.123396,2087 7.335123,44.123440,2087 7.335120,44.123500,2088 7.335249,44.123587,2089 7.335261,44.123659,2090 7.335224,44.123731,2091 7.335245,44.123812,2091 7.335249,44.123873,2092 7.335248,44.123928,2093 7.335219,44.123991,2095 7.335205,44.124050,2096 7.335180,44.124115,2096 7.335122,44.124194,2097 7.335038,44.124242,2098 7.335018,44.124259,2098 7.335012,44.124294,2098 7.335003,44.124321,2098 7.334970,44.124440,2099 7.334917,44.124490,2100 7.334908,44.124503,2100 7.334903,44.124600,2101 7.334910,44.124690,2102 7.334816,44.124747,2103 7.334808,44.124835,2103 7.334755,44.124923,2104 7.334674,44.125027,2105 7.334589,44.125134,2105 7.334554,44.125173,2106 7.334483,44.125258,2107 7.334416,44.125323,2108 7.334376,44.125341,2109 7.334315,44.125438,2110 7.334287,44.125478,2111 7.334148,44.125547,2112 7.334106,44.125590,2113 7.334045,44.125644,2113 7.333882,44.125688,2113 7.333724,44.125670,2113 7.333626,44.125658,2114 7.333405,44.125663,2115 7.333291,44.125656,2115 7.333134,44.125696,2113 7.333056,44.125722,2112 7.333049,44.125709,2111 7.333037,44.125732,2110 7.332987,44.125776,2109 7.332899,44.125824,2110 7.332748,44.125856,2110 7.332603,44.125833,2111 7.332482,44.125858,2112 7.332378,44.125892,2111 7.332275,44.125995,2111 7.332290,44.126079,2113 7.332297,44.126093,2114 7.332209,44.126168,2115 7.332181,44.126253,2115 7.332020,44.126302,2115 7.331893,44.126460,2115 7.331806,44.126434,2115 7.331584,44.126390,2116 7.331547,44.126359,2115 7.331513,44.126339,2115 7.331483,44.126314,2116 7.331374,44.126290,2117 7.331263,44.126303,2118 7.331070,44.126281,2120 7.331020,44.126262,2121 7.330960,44.126266,2122 7.330903,44.126278,2122 7.330865,44.126309,2122 7.330975,44.126239,2122 7.330961,44.126218,2123 7.330952,44.126230,2123 7.330887,44.126274,2122 7.330869,44.126276,2122 7.330845,44.126281,2122 7.330823,44.126257,2122 7.330825,44.126267,2122 7.330804,44.126265,2122 7.330802,44.126273,2122 7.330830,44.126255,2121 7.330819,44.126237,2120 7.330754,44.126254,2120 7.330770,44.126244,2120 7.330847,44.126225,2119 7.330835,44.126234,2120 7.331002,44.126243,2120 7.330838,44.126329,2119 7.330823,44.126295,2120 7.330812,44.126276,2120 7.330832,44.126283,2119 7.330792,44.126153,2119 7.330799,44.126281,2120 7.330713,44.126229,2120 7.330698,44.126228,2120 7.330699,44.126232,2120 7.330686,44.126226,2120 7.330660,44.126225,2120 7.330687,44.126216,2120 7.330771,44.126195,2120 7.330760,44.126191,2120 7.330715,44.126246,2120 7.330727,44.126255,2120 7.330735,44.126262,2120 7.330741,44.126297,2120 7.330762,44.126287,2120 7.330722,44.126326,2119 7.330731,44.126310,2119 7.330797,44.126255,2120 7.330788,44.126220,2119 7.330775,44.126224,2119 7.330779,44.126265,2119 7.330793,44.126299,2119 7.330788,44.126305,2119 7.330813,44.126317,2118 7.330850,44.126334,2119 7.330777,44.126283,2118 7.330783,44.126267,2118 7.330791,44.126268,2118 7.330780,44.126274,2118 7.330788,44.126290,2118 7.330822,44.126287,2118 7.330772,44.126299,2118 7.330785,44.126311,2118 7.330802,44.126330,2118 7.330802,44.126279,2118 7.330836,44.126257,2118 7.330832,44.126274,2118 7.330776,44.126291,2118 7.330787,44.126293,2118 7.330796,44.126291,2118 7.330826,44.126300,2118 7.330854,44.126281,2118 7.330907,44.126285,2117 7.330819,44.126255,2117 7.330786,44.126249,2117 7.330746,44.126247,2117 7.330702,44.126262,2117 7.330680,44.126272,2117 7.330732,44.126281,2117 7.330833,44.126290,2117 7.330815,44.126291,2117 7.330819,44.126286,2117 7.330801,44.126277,2117 7.330771,44.126281,2117 7.330664,44.126292,2116 7.330704,44.126255,2116 7.330727,44.126278,2117 7.330705,44.126265,2117 7.330760,44.126256,2117 7.330798,44.126267,2116 7.330799,44.126293,2116 7.330802,44.126293,2116 7.330816,44.126307,2116 7.330837,44.126320,2116 7.330831,44.126343,2116 7.330805,44.126304,2116 7.330883,44.126308,2116 7.330899,44.126304,2116 7.330938,44.126306,2116 7.330808,44.126317,2116 7.330759,44.126314,2116 7.330642,44.126310,2116 7.330715,44.126304,2116 7.330738,44.126291,2116 7.330766,44.126267,2116 7.330782,44.126275,2116 7.330832,44.126273,2116 7.330867,44.126335,2116 7.330870,44.126355,2116 7.330845,44.126345,2116 7.330816,44.126322,2116 7.330753,44.126250,2116 7.330750,44.126247,2116 7.330775,44.126253,2116 7.330809,44.126266,2116 7.330828,44.126269,2116 7.330773,44.126282,2116 7.330777,44.126319,2116 7.330807,44.126348,2117 7.330781,44.126290,2116 7.330946,44.126320,2116 7.330924,44.126299,2116 7.330833,44.126240,2116 7.330810,44.126205,2116 7.330757,44.126195,2116 7.330744,44.126191,2116 7.330628,44.126185,2116 7.330790,44.126253,2116 7.330987,44.126296,2116 7.331006,44.126316,2116 7.331003,44.126319,2116 7.330949,44.126317,2116 7.330930,44.126298,2115 7.330749,44.126241,2115 7.330770,44.126242,2115 7.330813,44.126208,2115 7.330773,44.126250,2115 7.330683,44.126252,2115 7.330707,44.126318,2115 7.330877,44.126316,2114 7.330871,44.126307,2115 7.330830,44.126292,2115 7.330755,44.126251,2115 7.330704,44.126229,2115 7.330814,44.126248,2115 7.330663,44.126263,2115 7.330757,44.126278,2115 7.330843,44.126309,2115 7.330960,44.126343,2114 7.330946,44.126344,2114 7.330879,44.126322,2114 7.330833,44.126308,2114 7.330819,44.126289,2114 7.330709,44.126222,2114 7.330679,44.126219,2114 7.330721,44.126247,2114 7.330721,44.126230,2115 7.330740,44.126215,2114 7.330778,44.126239,2115 7.330655,44.126243,2115 7.330732,44.126264,2115 7.330763,44.126272,2115 7.330759,44.126269,2114 7.330793,44.126272,2115 7.330774,44.126249,2114 7.330726,44.126250,2115 7.330790,44.126238,2115 7.330764,44.126273,2114 7.330819,44.126294,2114 7.330810,44.126281,2115 7.330713,44.126248,2115 7.330738,44.126232,2115 7.330731,44.126237,2115 7.330714,44.126191,2115 7.330749,44.126211,2115 7.330753,44.126215,2115 7.330703,44.126224,2116 7.330708,44.126221,2116 7.330737,44.126218,2116 7.330752,44.126200,2115 7.330817,44.126229,2115 7.330807,44.126254,2115 7.330768,44.126258,2115 7.330809,44.126263,2115 7.330745,44.126264,2115 7.330788,44.126251,2115 7.330804,44.126256,2115 7.330843,44.126269,2115 7.330860,44.126274,2114 7.330881,44.126251,2113 7.330880,44.126237,2113 7.330869,44.126234,2113 7.330854,44.126233,2113 7.330871,44.126213,2113 7.330864,44.126234,2113 7.330907,44.126238,2113 7.330911,44.126233,2113 7.330927,44.126241,2113 7.330926,44.126260,2112 7.330906,44.126241,2112 7.330908,44.126228,2112 7.330968,44.126202,2112 7.330968,44.126206,2112 7.330915,44.126195,2113 7.330931,44.126192,2113 7.330918,44.126293,2113 7.330901,44.126314,2113 7.330950,44.126435,2111 7.330956,44.126461,2111 7.330935,44.126375,2112 7.330908,44.126346,2112 7.330912,44.126328,2113 7.330897,44.126342,2114 7.330924,44.126358,2114 7.330726,44.126363,2114 7.330749,44.126333,2114 7.330738,44.126354,2114 7.330818,44.126387,2114 7.331170,44.126535,2114 7.331280,44.126618,2115 7.331271,44.126627,2115 7.331183,44.126568,2114 7.330930,44.126432,2115 7.330776,44.126431,2114 7.330977,44.126413,2114 7.331093,44.126463,2114 7.331119,44.126484,2114 7.331255,44.126532,2114 7.331171,44.126463,2114 7.331085,44.126454,2114 7.330977,44.126475,2114 7.330927,44.126562,2114 7.330918,44.126515,2114 7.330941,44.126496,2114 7.330871,44.126403,2114 7.330826,44.126367,2114 7.330677,44.126337,2114 7.330668,44.126335,2114 7.330672,44.126311,2114 7.330975,44.126304,2112 7.330886,44.126305,2112 7.330858,44.126273,2112 7.330919,44.126274,2112 7.330910,44.126237,2112 7.330893,44.126249,2112 7.330925,44.126246,2112 7.330935,44.126245,2111 7.330952,44.126217,2111 7.331015,44.126197,2111 7.331003,44.126141,2112 7.330943,44.126133,2112 7.330962,44.126141,2112 7.330944,44.126160,2112 7.330926,44.126157,2112 7.330904,44.126179,2112 7.330909,44.126179,2112 7.330831,44.126182,2112 7.330867,44.126167,2112 7.330880,44.126169,2112 7.330988,44.126144,2111 7.330960,44.126127,2111 7.331019,44.126143,2111 7.330978,44.126147,2111 7.330958,44.126143,2111 7.330906,44.126138,2111 7.330915,44.126135,2111 7.330898,44.126152,2111 7.330909,44.126158,2111 7.330945,44.126170,2111 7.330939,44.126191,2111 7.330911,44.126306,2111 7.330884,44.126443,2110 7.330932,44.126589,2110 7.331127,44.126756,2110 7.331126,44.126818,2111 7.331136,44.126867,2112 7.331169,44.126929,2114 7.331194,44.126977,2115 7.331210,44.127002,2115 7.331243,44.127083,2114 7.331315,44.127237,2113 7.331338,44.127328,2113 7.331310,44.127391,2114 7.331255,44.127450,2115 7.331267,44.127549,2116 7.331377,44.127649,2116 7.331304,44.127726,2116 7.331176,44.127862,2115 7.331171,44.127958,2116 7.331185,44.128082,2116 7.331226,44.128169,2117 7.331304,44.128250,2117 7.331433,44.128301,2117 7.331489,44.128354,2118 7.331518,44.128470,2118 7.331540,44.128535,2119 7.331618,44.128620,2119 7.331694,44.128665,2120 7.331791,44.128731,2121 7.331902,44.128758,2121 7.331906,44.128786,2121 7.331880,44.128761,2122 7.331902,44.128752,2122 7.331917,44.128769,2122 7.331915,44.128775,2122 7.332018,44.128807,2124 7.332025,44.128828,2125 7.332077,44.128885,2126 7.332093,44.128925,2127 7.332076,44.128936,2129 7.332069,44.128972,2130 7.332069,44.129018,2131 7.332088,44.129084,2133 7.332159,44.129102,2134 7.332191,44.129111,2135 7.332186,44.129087,2136 7.332208,44.129084,2137 7.332203,44.129110,2138 7.332199,44.129122,2139 7.332196,44.129151,2140 7.332236,44.129165,2141 7.332317,44.129186,2143 7.332365,44.129220,2145 7.332428,44.129235,2146 7.332382,44.129234,2147 7.332430,44.129232,2148 7.332442,44.129227,2150 7.332473,44.129228,2150 7.332460,44.129253,2151 7.332478,44.129253,2152 7.332525,44.129271,2153 7.332542,44.129273,2154 7.332515,44.129254,2154 7.332525,44.129338,2155 7.332530,44.129348,2157 7.332529,44.129395,2158 7.332521,44.129412,2160 7.332474,44.129443,2161 7.332440,44.129461,2162 7.332461,44.129464,2163 7.332498,44.129495,2164 7.332492,44.129507,2165 7.332488,44.129533,2166 7.332451,44.129543,2167 7.332488,44.129522,2166 7.332487,44.129520,2166 7.332531,44.129545,2166 7.332505,44.129534,2165 7.332520,44.129511,2165 7.332568,44.129493,2165 7.332604,44.129535,2166 7.332637,44.129525,2168 7.332611,44.129484,2169 7.332613,44.129465,2170 7.332609,44.129458,2171 7.332655,44.129461,2171 7.332665,44.129464,2172 7.332693,44.129462,2173 7.332726,44.129506,2174 7.332711,44.129507,2175 7.332739,44.129543,2175 7.332807,44.129551,2175 7.332811,44.129541,2176 7.332837,44.129569,2177 7.332931,44.129600,2178 7.333099,44.129580,2179 7.333150,44.129566,2179 7.333206,44.129541,2180 7.333277,44.129486,2181 7.333303,44.129449,2181 7.333359,44.129377,2182 7.333398,44.129355,2183 7.333414,44.129341,2183 7.333479,44.129322,2184 7.333540,44.129290,2185 7.333598,44.129213,2185 7.333622,44.129202,2186 7.333633,44.129198,2186 7.333683,44.129231,2189 7.333750,44.129237,2190 7.333828,44.129219,2192 7.333844,44.129241,2192 7.333804,44.129254,2193 7.333795,44.129297,2195 7.333773,44.129339,2196 7.333761,44.129363,2197 7.333777,44.129367,2197 7.333855,44.129353,2199 7.333822,44.129389,2200 7.333817,44.129439,2201 7.333868,44.129458,2202 7.333877,44.129473,2203 7.333962,44.129501,2203 7.333979,44.129518,2202 7.334019,44.129479,2201 7.334016,44.129463,2201 7.334095,44.129512,2200 7.334111,44.129556,2200 7.334174,44.129582,2201 7.334137,44.129668,2201 7.334156,44.129689,2200 7.334211,44.129759,2201 7.334389,44.129777,2201 7.334536,44.129834,2200 7.334511,44.129853,2200 7.334528,44.129871,2199 7.334566,44.129860,2199 7.334583,44.129824,2199 7.334675,44.129855,2200 7.334721,44.129876,2199 7.334805,44.129872,2198 7.334893,44.129835,2199 7.334903,44.129810,2200 7.334895,44.129812,2200 7.334956,44.129810,2201 7.335133,44.129905,2201 7.335253,44.130000,2201 7.335305,44.130090,2202 7.335320,44.130106,2203 7.335320,44.130155,2204 7.335340,44.130202,2205 7.335343,44.130221,2206 7.335327,44.130241,2207 7.335372,44.130215,2208 7.335412,44.130246,2210 7.335470,44.130285,2211 7.335500,44.130291,2212 7.335587,44.130358,2214 7.335618,44.130395,2215 7.335662,44.130396,2216 7.335693,44.130362,2218 7.335733,44.130366,2219 7.335753,44.130356,2221 7.335753,44.130365,2222 7.335754,44.130349,2224 7.335766,44.130357,2225 7.335835,44.130407,2228 7.335885,44.130437,2229 7.335886,44.130403,2230 7.335930,44.130397,2231 7.335937,44.130418,2232 7.335951,44.130408,2234 7.335996,44.130426,2235 7.336041,44.130450,2236 7.336050,44.130451,2237 7.336128,44.130431,2238 7.336162,44.130462,2239 7.336158,44.130531,2240 7.336225,44.130829,2239 7.336240,44.130951,2240 7.336318,44.131285,2240 7.336435,44.131588,2240 7.336473,44.131616,2240 7.336454,44.131517,2239 7.336422,44.131281,2239 7.336406,44.131113,2239 7.336394,44.131053,2238 7.336316,44.130881,2238 7.336237,44.130724,2237 7.336147,44.130643,2236 7.336025,44.130465,2237 7.335986,44.130445,2237 7.336025,44.130439,2237 7.336010,44.130440,2235 7.335965,44.130448,2234 7.335934,44.130463,2232 7.335927,44.130483,2230 7.335926,44.130506,2229 7.335933,44.130538,2228 7.336004,44.130580,2226 7.336014,44.130609,2225 7.335994,44.130649,2223 7.335937,44.130665,2221 7.335895,44.130663,2220 7.335865,44.130702,2219 7.335823,44.130707,2218 7.335817,44.130721,2217 7.335776,44.130735,2215 7.335769,44.130744,2214 7.335727,44.130763,2213 7.335679,44.130810,2212 7.335707,44.130829,2211 7.335777,44.130912,2210 7.335730,44.130975,2210 7.335715,44.131015,2211 7.335765,44.131041,2212 7.335821,44.131075,2213 7.335851,44.131078,2214 7.335835,44.131104,2215 7.335840,44.131082,2215 7.335841,44.131090,2215 7.335835,44.131111,2215 7.335854,44.131143,2216 7.335850,44.131268,2217 7.335802,44.131316,2218 7.335742,44.131402,2218 7.335639,44.131447,2217 7.335621,44.131497,2216 7.335598,44.131546,2215 7.335560,44.131597,2214 7.335548,44.131629,2213 7.335533,44.131666,2213 7.335504,44.131712,2214 7.335467,44.131755,2214 7.335367,44.131792,2214 7.335212,44.131928,2215 7.335180,44.131966,2216 7.335117,44.132010,2217 7.335070,44.132075,2219 7.335040,44.132079,2220 7.335001,44.132124,2222 7.335055,44.132187,2223 7.335004,44.132218,2225 7.334978,44.132244,2226 7.334962,44.132270,2226 7.334965,44.132250,2227 7.335009,44.132271,2227 7.335058,44.132347,2228 7.335031,44.132391,2231 7.335062,44.132432,2232 7.335018,44.132383,2233 7.335001,44.132405,2233 7.335026,44.132407,2233 7.335022,44.132450,2234 7.335000,44.132507,2235 7.334959,44.132526,2236 7.334901,44.132526,2237 7.334865,44.132525,2238 7.334844,44.132543,2239 7.334792,44.132566,2240 7.334736,44.132548,2241 7.334673,44.132541,2242 7.334654,44.132570,2244 7.334642,44.132596,2245 7.334598,44.132599,2247 7.334545,44.132610,2248 7.334490,44.132629,2249 7.334478,44.132672,2251 7.334471,44.132685,2252 7.334469,44.132688,2253 7.334387,44.132699,2256 7.334342,44.132695,2257 7.334313,44.132704,2258 7.334299,44.132732,2259 7.334305,44.132761,2260 7.334306,44.132765,2261 7.334286,44.132806,2263 7.334262,44.132810,2264 7.334254,44.132825,2265 7.334247,44.132843,2267 7.334173,44.132843,2269 7.334143,44.132849,2270 7.334141,44.132855,2271 7.334099,44.132888,2272 7.334076,44.132903,2274 7.334060,44.132946,2275 7.334047,44.132965,2276 7.334054,44.132966,2277 7.334010,44.132969,2278 7.333978,44.132942,2279 7.334001,44.132962,2280 7.333973,44.132938,2280 7.333940,44.132985,2280 7.333956,44.132993,2281 7.333953,44.133019,2282 7.333923,44.133029,2283 7.333905,44.133035,2284 7.333920,44.133037,2285 7.333904,44.133040,2285 7.333864,44.133056,2287 7.333887,44.133072,2288 7.333904,44.133102,2289 7.333844,44.133098,2290 7.333794,44.133128,2292 7.333805,44.133146,2293 7.333778,44.133164,2294 7.333771,44.133179,2295 7.333772,44.133203,2297 7.333784,44.133228,2298 7.333778,44.133259,2299 7.333776,44.133251,2300 7.333786,44.133256,2301 7.333810,44.133276,2302 7.333772,44.133275,2304 7.333755,44.133295,2305 7.333764,44.133321,2306 7.333752,44.133345,2307 7.333752,44.133388,2308 7.333715,44.133397,2309 7.333738,44.133389,2310 7.333743,44.133363,2311 7.333713,44.133379,2312 7.333640,44.133361,2313 7.333660,44.133391,2314 7.333779,44.133449,2315 7.333800,44.133468,2316 7.333739,44.133467,2318 7.333703,44.133475,2319 7.333690,44.133470,2320 7.333649,44.133459,2321 7.333615,44.133437,2322 7.333597,44.133439,2323 7.333677,44.133520,2324 7.333712,44.133572,2325 7.333688,44.133575,2326 7.333674,44.133590,2326 7.333687,44.133604,2327 7.333708,44.133607,2327 7.333704,44.133623,2329 7.333687,44.133649,2329 7.333776,44.133658,2330 7.333855,44.133692,2331 7.333852,44.133706,2332 7.333839,44.133725,2333 7.333828,44.133760,2334 7.333829,44.133796,2335 7.333854,44.133815,2336 7.333869,44.133817,2337 7.333866,44.133820,2337 7.333845,44.133808,2338 7.333863,44.133811,2338 7.333890,44.133832,2338 7.333849,44.133797,2338 7.333844,44.133800,2338 7.333800,44.133783,2338 7.333873,44.133817,2338 7.333908,44.133831,2338 7.333860,44.133838,2337 7.333728,44.133821,2339 7.333760,44.133843,2340 7.333748,44.133851,2340 7.333731,44.133869,2341 7.333702,44.133884,2342 7.333625,44.133867,2343 7.333616,44.133860,2344 7.333613,44.133858,2344 7.333599,44.133859,2344 7.333566,44.133861,2346 7.333569,44.133853,2346 7.333531,44.133878,2348 7.333526,44.133905,2349 7.333477,44.133938,2350 7.333468,44.133954,2351 7.333497,44.133982,2353 7.333508,44.134033,2354 7.333480,44.134059,2355 7.333479,44.134082,2356 7.333455,44.134097,2357 7.333429,44.134132,2359 7.333419,44.134159,2360 7.333407,44.134188,2361 7.333386,44.134236,2363 7.333346,44.134266,2365 7.333340,44.134281,2365 7.333358,44.134273,2366 7.333363,44.134273,2366 7.333317,44.134297,2367 7.333297,44.134317,2368 7.333277,44.134345,2369 7.333248,44.134404,2371 7.333208,44.134449,2372 7.333205,44.134484,2374 7.333174,44.134509,2375 7.333186,44.134524,2375 7.333145,44.134558,2376 7.333140,44.134564,2376 7.333113,44.134607,2378 7.333093,44.134615,2378 7.333074,44.134629,2379 7.333000,44.134634,2380 7.332982,44.134641,2382 7.332981,44.134682,2383 7.332981,44.134707,2384 7.332933,44.134719,2384 7.332856,44.134720,2386 7.332767,44.134727,2386 7.332787,44.134777,2388 7.332802,44.134804,2389 7.332783,44.134867,2391 7.332779,44.134882,2392 7.332755,44.134886,2393 7.332748,44.134874,2394 7.332746,44.134889,2395 7.332743,44.134896,2396 7.332714,44.134935,2397 7.332652,44.134966,2398 7.332597,44.134996,2399 7.332589,44.135009,2400 7.332567,44.135064,2403 7.332497,44.135099,2404 7.332478,44.135130,2405 7.332442,44.135141,2406 7.332415,44.135150,2407 7.332366,44.135202,2408 7.332313,44.135249,2409 7.332281,44.135272,2410 7.332176,44.135293,2410 7.332119,44.135355,2411 7.332040,44.135386,2413 7.331980,44.135461,2413 7.331984,44.135492,2414 7.331967,44.135508,2416 7.331940,44.135548,2418 7.331925,44.135590,2418 7.331846,44.135613,2418 7.331887,44.135622,2418 7.331914,44.135647,2418 7.331895,44.135611,2419 7.331875,44.135614,2419 7.331896,44.135623,2419 7.331890,44.135631,2419 7.331800,44.135655,2418 7.331705,44.135671,2417 7.331592,44.135789,2417 7.331510,44.135833,2418 7.331444,44.135818,2418 7.331345,44.135906,2419 7.331325,44.135918,2419 7.331259,44.136037,2420 7.331284,44.136163,2420 7.331293,44.136220,2421 7.331269,44.136266,2422 7.331248,44.136307,2423 7.331270,44.136314,2423 7.331292,44.136344,2423 7.331360,44.136376,2424 7.331299,44.136427,2425 7.331323,44.136457,2426 7.331360,44.136470,2427 7.331347,44.136511,2428 7.331387,44.136541,2429 7.331439,44.136566,2430 7.331407,44.136569,2431 7.331383,44.136580,2432 7.331381,44.136626,2433 7.331433,44.136692,2434 7.331508,44.136793,2435 7.331583,44.136829,2435 7.331608,44.136847,2437 7.331672,44.136887,2438 7.331703,44.136934,2439 7.331732,44.136971,2440 7.331768,44.136975,2442 7.331797,44.136974,2443 7.331786,44.136984,2444 7.331892,44.137053,2446 7.331902,44.137062,2446 7.331884,44.137054,2447 7.331870,44.137057,2448 7.331903,44.137061,2450 7.331876,44.137061,2451 7.331939,44.137084,2452 7.331963,44.137144,2454 7.332026,44.137169,2454 7.331994,44.137164,2454 7.331972,44.137188,2454 7.331994,44.137230,2454 7.332021,44.137275,2455 7.332016,44.137302,2456 7.332030,44.137304,2457 7.332056,44.137333,2458 7.332070,44.137346,2459 7.332068,44.137346,2460 7.332073,44.137325,2461 7.332121,44.137345,2462 7.332146,44.137352,2463 7.332189,44.137362,2464 7.332226,44.137375,2464 7.332210,44.137370,2465 7.332256,44.137339,2465 7.332203,44.137348,2466 7.332220,44.137365,2468 7.332224,44.137397,2469 7.332243,44.137432,2470 7.332231,44.137435,2470 7.332242,44.137446,2471 7.332279,44.137430,2472 7.332274,44.137442,2473 7.332315,44.137462,2474 7.332402,44.137532,2475 7.332356,44.137511,2476 7.332357,44.137536,2477 7.332384,44.137547,2478 7.332371,44.137564,2478 7.332361,44.137587,2480 7.332337,44.137614,2480 7.332315,44.137630,2481 7.332289,44.137646,2481 7.332316,44.137656,2481 7.332354,44.137671,2481 7.332394,44.137678,2482 7.332427,44.137673,2483 7.332413,44.137685,2484 7.332438,44.137687,2485 7.332466,44.137679,2488 7.332510,44.137655,2489 7.332529,44.137669,2490 7.332555,44.137670,2491 7.332577,44.137684,2492 7.332588,44.137711,2493 7.332607,44.137751,2495 7.332636,44.137770,2496 7.332659,44.137777,2497 7.332653,44.137794,2498 7.332652,44.137808,2499 7.332676,44.137827,2500 7.332695,44.137872,2501 7.332702,44.137909,2502 7.332699,44.137917,2503 7.332727,44.137945,2504 7.332739,44.137947,2505 7.332760,44.137970,2507 7.332774,44.138004,2508 7.332771,44.138012,2509 7.332830,44.138066,2510 7.332843,44.138066,2510 7.332853,44.138079,2511 7.332834,44.138142,2513 7.332868,44.138154,2514 7.332895,44.138125,2515 7.332917,44.138114,2516 7.332923,44.138119,2517 7.332972,44.138130,2518 7.332961,44.138142,2518 7.332912,44.138101,2518 7.332938,44.138134,2518 7.332946,44.138198,2518 7.332934,44.138192,2518 7.332958,44.138182,2518 7.332943,44.138146,2518 7.332987,44.138157,2518 7.332933,44.138154,2518 7.332958,44.138154,2518 7.332974,44.138167,2518 7.332983,44.138158,2519 7.333001,44.138112,2519 7.333000,44.138126,2519 7.332979,44.138139,2519 7.332945,44.138135,2518 7.332903,44.138115,2517 7.332871,44.138110,2516 7.332904,44.138111,2515 7.332866,44.138115,2514 7.332871,44.138081,2513 7.332835,44.138070,2511 7.332827,44.138042,2509 7.332802,44.137999,2509 7.332790,44.137983,2508 7.332758,44.137951,2506 7.332752,44.137945,2506 7.332747,44.137931,2504 7.332751,44.137893,2503 7.332714,44.137831,2502 7.332685,44.137827,2501 7.332682,44.137801,2500 7.332644,44.137728,2498 7.332631,44.137705,2496 7.332625,44.137708,2495 7.332549,44.137683,2493 7.332566,44.137632,2492 7.332560,44.137627,2491 7.332533,44.137633,2491 7.332471,44.137632,2489 7.332493,44.137611,2488 7.332469,44.137619,2487 7.332453,44.137625,2487 7.332400,44.137622,2486 7.332381,44.137631,2484 7.332376,44.137631,2484 7.332362,44.137631,2484 7.332365,44.137632,2483 7.332325,44.137595,2482 7.332345,44.137576,2481 7.332358,44.137537,2481 7.332356,44.137540,2481 7.332353,44.137542,2480 7.332378,44.137508,2479 7.332333,44.137470,2478 7.332328,44.137456,2477 7.332328,44.137437,2476 7.332287,44.137450,2475 7.332316,44.137447,2475 7.332261,44.137435,2474 7.332282,44.137402,2473 7.332264,44.137379,2472 7.332216,44.137372,2471 7.332184,44.137360,2470 7.332185,44.137356,2468 7.332163,44.137321,2468 7.332110,44.137342,2466 7.332090,44.137352,2465 7.332067,44.137340,2464 7.332077,44.137315,2463 7.332031,44.137321,2462 7.332005,44.137317,2461 7.331959,44.137337,2460 7.331856,44.137334,2459 7.331778,44.137353,2459 7.331770,44.137376,2459 7.331693,44.137348,2458 7.331629,44.137378,2458 7.331546,44.137365,2458 7.331484,44.137343,2457 7.331434,44.137336,2456 7.331297,44.137381,2456 7.331274,44.137383,2455 7.331276,44.137371,2455 7.331226,44.137354,2454 7.331197,44.137333,2454 7.331065,44.137287,2454 7.331034,44.137285,2454 7.331029,44.137307,2455 7.331017,44.137305,2455 7.330949,44.137292,2456 7.330924,44.137274,2456 7.330881,44.137280,2456 7.330806,44.137311,2456 7.330787,44.137317,2457 7.330685,44.137308,2457 7.330626,44.137321,2456 7.330638,44.137350,2456 7.330566,44.137351,2457 7.330535,44.137339,2458 7.330503,44.137304,2458 7.330501,44.137304,2459 7.330434,44.137295,2460 7.330430,44.137300,2461 7.330383,44.137293,2461 7.330326,44.137318,2461 7.330291,44.137306,2460 7.330230,44.137343,2461 7.330193,44.137349,2463 7.330194,44.137345,2464 7.330181,44.137357,2465 7.330170,44.137382,2465 7.330172,44.137378,2465 7.330169,44.137360,2465 7.330161,44.137399,2466 7.330179,44.137429,2466 7.330166,44.137449,2467 7.330146,44.137461,2468 7.330119,44.137479,2469 7.330094,44.137462,2470 7.330080,44.137462,2471 7.330078,44.137457,2471 7.330054,44.137501,2471 7.330054,44.137525,2472 7.330051,44.137512,2474 7.330041,44.137542,2473 7.330040,44.137546,2474 7.330020,44.137559,2475 7.329986,44.137558,2476 7.329979,44.137584,2477 7.329959,44.137597,2478 7.329961,44.137599,2478 7.329963,44.137598,2478 7.329966,44.137606,2479 7.329928,44.137639,2479 7.329926,44.137625,2481 7.329867,44.137632,2480 7.329846,44.137622,2480 7.329841,44.137603,2479 7.329780,44.137619,2480 7.329733,44.137648,2480 7.329641,44.137632,2480 7.329601,44.137638,2482 7.329574,44.137634,2483 7.329521,44.137644,2484 7.329419,44.137695,2484 7.329382,44.137709,2485 7.329367,44.137707,2485 7.329358,44.137713,2485 7.329326,44.137761,2485 7.329316,44.137755,2485 7.329258,44.137750,2486 7.329182,44.137741,2487 7.329133,44.137739,2487 7.329089,44.137770,2488 7.329094,44.137795,2489 7.329096,44.137796,2489 7.329085,44.137820,2492 7.329098,44.137810,2493 7.329050,44.137825,2494 7.329010,44.137882,2496 7.329013,44.137888,2497 7.328989,44.137903,2498 7.328943,44.137910,2500 7.328894,44.137945,2501 7.328883,44.137962,2503 7.328793,44.137991,2505 7.328759,44.138016,2505 7.328726,44.138086,2507 7.328687,44.138151,2508 7.328658,44.138127,2509 7.328645,44.138136,2509 7.328616,44.138112,2509 7.328612,44.138107,2509 7.328652,44.138135,2509 7.328640,44.138139,2509 7.328720,44.138202,2507 7.328727,44.138209,2506 7.328724,44.138193,2504 7.328788,44.138188,2504 7.328857,44.138262,2503 7.328909,44.138263,2502 7.328935,44.138288,2500 7.328921,44.138263,2500 7.328941,44.138273,2499 7.328991,44.138290,2501 7.329035,44.138311,2502 7.329022,44.138262,2500 7.329053,44.138274,2499 7.329108,44.138311,2499 7.329166,44.138328,2499 7.329200,44.138344,2498 7.329188,44.138335,2497 7.329200,44.138336,2497 7.329216,44.138346,2496 7.329290,44.138399,2496 7.329270,44.138458,2496 7.329252,44.138522,2497 7.329255,44.138520,2497 7.329257,44.138568,2497 7.329209,44.138541,2498 7.329194,44.138588,2498 7.329146,44.138679,2499 7.329175,44.138737,2499 7.329212,44.138757,2499 7.329215,44.138773,2500 7.329216,44.138803,2502 7.329254,44.138831,2503 7.329261,44.138822,2502 7.329316,44.138820,2503 7.329292,44.138853,2504 7.329293,44.138882,2504 7.329286,44.138914,2505 7.329339,44.138995,2506 7.329389,44.139070,2505 7.329413,44.139088,2505 7.329420,44.139102,2506 7.329426,44.139114,2507 7.329435,44.139106,2508 7.329453,44.139098,2508 7.329506,44.139122,2509 7.329523,44.139132,2510 7.329493,44.139137,2511 7.329470,44.139170,2512 7.329485,44.139194,2514 7.329511,44.139228,2515 7.329531,44.139258,2516 7.329543,44.139270,2517 7.329535,44.139281,2518 7.329557,44.139312,2519 7.329561,44.139349,2520 7.329542,44.139364,2521 7.329510,44.139397,2523 7.329523,44.139386,2523 7.329549,44.139383,2522 7.329502,44.139429,2524 7.329494,44.139459,2525 7.329497,44.139484,2526 7.329519,44.139477,2528 7.329540,44.139490,2529 7.329531,44.139505,2530 7.329542,44.139533,2531 7.329519,44.139544,2530 7.329533,44.139530,2530 7.329521,44.139534,2529 7.329504,44.139537,2530 7.329496,44.139559,2532 7.329485,44.139589,2533 7.329488,44.139602,2535 7.329489,44.139624,2536 7.329516,44.139663,2537 7.329513,44.139690,2538 7.329514,44.139694,2539 7.329511,44.139699,2540 7.329518,44.139723,2541 7.329518,44.139728,2541 7.329506,44.139738,2542 7.329500,44.139751,2542 7.329478,44.139738,2543 7.329432,44.139745,2545 7.329432,44.139781,2546 7.329437,44.139814,2546 7.329429,44.139776,2545 7.329384,44.139800,2545 7.329434,44.139794,2545 7.329436,44.139787,2544 7.329428,44.139788,2544 7.329431,44.139802,2544 7.329435,44.139766,2544 7.329426,44.139750,2544 7.329420,44.139741,2545 7.329421,44.139743,2545 7.329444,44.139766,2544 7.329462,44.139770,2545 7.329393,44.139759,2545 7.329400,44.139782,2544 7.329404,44.139778,2544 7.329414,44.139767,2544 7.329460,44.139793,2544 7.329441,44.139780,2544 7.329430,44.139772,2544 7.329451,44.139775,2544 7.329420,44.139793,2544 7.329425,44.139757,2544 7.329432,44.139774,2543 7.329429,44.139778,2543 7.329401,44.139771,2543 7.329377,44.139845,2544 7.329384,44.139796,2543 7.329420,44.139780,2542 7.329419,44.139777,2543 7.329390,44.139799,2543 7.329436,44.139804,2542 7.329378,44.139802,2541 7.329404,44.139861,2541 7.329474,44.139852,2541 7.329491,44.139847,2540 7.329437,44.139788,2540 7.329394,44.139783,2540 7.329388,44.139765,2540 7.329459,44.139786,2540 7.329476,44.139785,2540 7.329477,44.139788,2540 7.329401,44.139777,2540 7.329390,44.139803,2540 7.329387,44.139806,2540 7.329422,44.139786,2540 7.329427,44.139817,2540 7.329400,44.139797,2540 7.329397,44.139771,2540 7.329428,44.139814,2540 7.329427,44.139789,2539 7.329439,44.139811,2539 7.329425,44.139795,2539 7.329418,44.139809,2540 7.329506,44.139722,2540 7.329445,44.139767,2540 7.329423,44.139793,2540 7.329435,44.139797,2540 7.329433,44.139758,2540 7.329426,44.139789,2540 7.329459,44.139829,2540 7.329406,44.139805,2540 7.329401,44.139800,2542 7.329391,44.139779,2541 7.329396,44.139849,2540 7.329396,44.139903,2539 7.329361,44.140023,2540 7.329312,44.140078,2538 7.329318,44.140097,2537 7.329286,44.140115,2536 7.329219,44.140136,2536 7.329156,44.140188,2534 7.329153,44.140271,2535 7.329165,44.140320,2535 7.329157,44.140341,2535 7.329135,44.140376,2536 7.329104,44.140395,2536 7.329101,44.140410,2536 7.329093,44.140423,2537 7.329091,44.140417,2537 7.329065,44.140470,2539 7.329059,44.140481,2540 7.329052,44.140493,2541 7.329033,44.140463,2541 7.329002,44.140548,2543 7.328996,44.140562,2544 7.328941,44.140553,2545 7.328889,44.140584,2546 7.328878,44.140679,2545 7.328868,44.140741,2547 7.328859,44.140783,2548 7.328860,44.140838,2548 7.328841,44.140880,2547 7.328830,44.140929,2547 7.328826,44.140954,2547 7.328818,44.140978,2547 7.328823,44.141029,2546 7.328819,44.141067,2545 7.328838,44.141106,2545 7.328828,44.141126,2544 7.328817,44.141124,2544 7.328815,44.141126,2545 7.328847,44.141158,2544 7.328847,44.141176,2544 7.328826,44.141176,2544 7.328839,44.141178,2544 7.328896,44.141202,2543 7.328941,44.141232,2545 7.328939,44.141254,2546 7.328896,44.141290,2546 7.328889,44.141312,2547 7.328870,44.141326,2547 7.328846,44.141352,2548 7.328839,44.141400,2548 7.328822,44.141430,2549 7.328861,44.141459,2550 7.328888,44.141458,2551 7.328918,44.141486,2552 7.328943,44.141497,2553 7.328933,44.141521,2554 7.328916,44.141544,2555 7.328880,44.141554,2556 7.328847,44.141559,2556 7.328802,44.141614,2556 7.328755,44.141648,2556 7.328717,44.141666,2557 7.328677,44.141685,2557 7.328678,44.141696,2558 7.328659,44.141711,2559 7.328662,44.141754,2560 7.328657,44.141746,2560 7.328715,44.141807,2561 7.328699,44.141896,2561 7.328670,44.141922,2561 7.328661,44.141938,2562 7.328659,44.141938,2563 7.328661,44.141992,2564 7.328676,44.142029,2565 7.328705,44.142030,2565 7.328765,44.142042,2566 7.328777,44.142042,2567 7.328790,44.142065,2568 7.328869,44.142089,2569 7.328865,44.142093,2569 7.328903,44.142089,2570 7.328934,44.142104,2571 7.329006,44.142137,2572 7.329010,44.142163,2573 7.328995,44.142177,2574 7.329020,44.142146,2575 7.329056,44.142158,2575 7.329050,44.142171,2576 7.329032,44.142176,2577 7.329034,44.142173,2576 7.328989,44.142202,2576 7.328989,44.142206,2576 7.329006,44.142245,2576 7.328957,44.142273,2576 7.328956,44.142288,2576 7.328929,44.142306,2577 7.328832,44.142340,2577 7.328741,44.142355,2576 7.328711,44.142399,2575 7.328695,44.142402,2574 7.328666,44.142411,2573 7.328633,44.142453,2574 7.328552,44.142484,2574 7.328522,44.142531,2575 7.328546,44.142584,2575 7.328581,44.142645,2577 7.328584,44.142611,2577 7.328599,44.142613,2578 7.328603,44.142632,2578 7.328570,44.142657,2578 7.328546,44.142674,2580 7.328532,44.142708,2582 7.328535,44.142729,2583 7.328518,44.142730,2583 7.328479,44.142738,2584 7.328483,44.142786,2585 7.328481,44.142806,2586 7.328466,44.142831,2587 7.328455,44.142853,2587 7.328449,44.142868,2588 7.328412,44.142882,2589 7.328412,44.142871,2590 7.328406,44.142891,2591 7.328411,44.142897,2593 7.328460,44.142961,2593 7.328470,44.142972,2594 7.328465,44.143014,2595 7.328453,44.143048,2597 7.328446,44.143065,2598 7.328453,44.143067,2598 7.328419,44.143090,2598 7.328422,44.143117,2599 7.328432,44.143160,2601 7.328427,44.143160,2601 7.328390,44.143183,2602 7.328387,44.143198,2604 7.328403,44.143224,2605 7.328401,44.143237,2607 7.328433,44.143253,2608 7.328438,44.143263,2609 7.328448,44.143275,2610 7.328441,44.143300,2611 7.328517,44.143341,2612 7.328484,44.143366,2613 7.328459,44.143382,2614 7.328432,44.143412,2616 7.328398,44.143433,2617 7.328460,44.143486,2618 7.328457,44.143481,2618 7.328469,44.143499,2619 7.328458,44.143514,2619 7.328459,44.143517,2620 7.328452,44.143521,2620 7.328397,44.143579,2622 7.328441,44.143581,2623 7.328471,44.143595,2624 7.328461,44.143608,2625 7.328474,44.143630,2626 7.328489,44.143650,2627 7.328496,44.143689,2628 7.328390,44.143685,2628 7.328462,44.143679,2629 7.328496,44.143703,2629 7.328569,44.143759,2631 7.328586,44.143771,2632 7.328582,44.143789,2633 7.328545,44.143798,2635 7.328539,44.143819,2636 7.328561,44.143825,2637 7.328559,44.143861,2637 7.328567,44.143867,2638 7.328587,44.143879,2640 7.328619,44.143889,2641 7.328615,44.143878,2642 7.328601,44.143893,2643 7.328609,44.143909,2644 7.328646,44.143912,2645 7.328632,44.143921,2646 7.328633,44.143925,2647 7.328613,44.143928,2648 7.328600,44.143940,2649 7.328602,44.143943,2649 7.328618,44.143958,2651 7.328618,44.143961,2651 7.328621,44.143968,2652 7.328648,44.143992,2653 7.328644,44.143978,2654 7.328657,44.143999,2655 7.328660,44.143995,2656 7.328642,44.144015,2657 7.328624,44.144036,2658 7.328607,44.144051,2659 7.328594,44.144055,2660 7.328571,44.144064,2661 7.328553,44.144072,2662 7.328557,44.144105,2664 7.328585,44.144090,2665 7.328580,44.144091,2665 7.328568,44.144125,2667 7.328550,44.144139,2668 7.328542,44.144139,2669 7.328528,44.144154,2669 7.328526,44.144181,2670 7.328576,44.144215,2671 7.328586,44.144208,2671 7.328623,44.144196,2672 7.328609,44.144210,2673 7.328576,44.144219,2673 7.328554,44.144208,2675 7.328553,44.144205,2676 7.328538,44.144234,2678 7.328533,44.144251,2679 7.328488,44.144243,2680 7.328480,44.144254,2681 7.328458,44.144283,2682 7.328467,44.144307,2683 7.328479,44.144291,2685 7.328464,44.144285,2685 7.328440,44.144323,2686 7.328440,44.144343,2687 7.328413,44.144367,2688 7.328420,44.144384,2688 7.328403,44.144364,2690 7.328385,44.144384,2691 7.328377,44.144390,2691 7.328343,44.144395,2692 7.328357,44.144382,2693 7.328334,44.144411,2694 7.328333,44.144428,2695 7.328328,44.144454,2696 7.328333,44.144473,2697 7.328317,44.144465,2698 7.328287,44.144489,2699 7.328275,44.144503,2701 7.328262,44.144517,2701 7.328268,44.144535,2702 7.328248,44.144542,2703 7.328228,44.144555,2704 7.328221,44.144562,2705 7.328217,44.144575,2706 7.328174,44.144580,2707 7.328158,44.144578,2707 7.328153,44.144601,2708 7.328138,44.144623,2709 7.328139,44.144631,2710 7.328139,44.144617,2711 7.328109,44.144621,2712 7.328089,44.144648,2712 7.328096,44.144654,2713 7.328058,44.144682,2713 7.328114,44.144674,2713 7.328099,44.144687,2712 7.328124,44.144733,2713 7.328118,44.144721,2714 7.328119,44.144697,2714 7.328118,44.144698,2714 7.328103,44.144675,2713 7.328070,44.144659,2713 7.328051,44.144695,2715 7.328078,44.144698,2716 7.328096,44.144697,2717 7.328075,44.144721,2718 7.328088,44.144744,2719 7.328089,44.144761,2719 7.328095,44.144774,2720 7.328094,44.144784,2721 7.328107,44.144796,2722 7.328167,44.144801,2723 7.328195,44.144816,2724 7.328210,44.144872,2725 7.328185,44.144871,2726 7.328158,44.144874,2725 7.328124,44.144879,2725 7.328133,44.144876,2725 7.328138,44.144872,2724 7.328155,44.144920,2724 7.328161,44.144912,2724 7.328155,44.144891,2724 7.328181,44.144888,2723 7.328250,44.144912,2723 7.328274,44.144934,2725 7.328325,44.144958,2724 7.328337,44.144948,2725 7.328325,44.144910,2724 7.328308,44.144915,2725 7.328338,44.144942,2725 7.328324,44.144929,2724 7.328309,44.144918,2724 7.328361,44.144950,2724 7.328338,44.144934,2724 7.328284,44.144933,2724 7.328272,44.144920,2725 7.328335,44.144953,2725 7.328324,44.144945,2725 7.328342,44.144951,2725 7.328353,44.144928,2725 7.328371,44.144937,2725 7.328321,44.144919,2725 7.328306,44.144910,2725 7.328334,44.144935,2725 7.328347,44.144930,2724 7.328350,44.144898,2724 7.328337,44.144885,2724 7.328341,44.144941,2725 7.328341,44.144940,2724 7.328327,44.144943,2724 7.328323,44.144918,2723 7.328323,44.144910,2723 7.328319,44.144913,2722 7.328316,44.144917,2722 7.328324,44.144931,2722 7.328325,44.144926,2721 7.328343,44.144927,2721 7.328338,44.144933,2720 7.328326,44.144946,2720 7.328358,44.144951,2719 7.328359,44.144933,2718 7.328353,44.144937,2718 7.328373,44.144928,2717 7.328360,44.144911,2717 7.328361,44.144911,2717 7.328358,44.144981,2717 7.328341,44.144972,2716 7.328330,44.144958,2716 7.328304,44.144944,2716 7.328341,44.144906,2715 7.328356,44.144922,2714 7.328353,44.144925,2714 7.328356,44.144937,2714 7.328352,44.144930,2713 7.328336,44.144960,2713 7.328338,44.144968,2712 7.328338,44.144955,2712 7.328337,44.144917,2712 7.328384,44.144945,2712 7.328367,44.144952,2713 7.328343,44.144946,2712 7.328219,44.144834,2711 7.328162,44.144745,2711 7.328147,44.144723,2711 7.328194,44.144693,2710 7.328172,44.144664,2710 7.328301,44.144950,2710 7.328369,44.144950,2710 7.328358,44.144935,2710 7.328369,44.144948,2709 7.328340,44.144973,2708 7.328374,44.144984,2708 7.328370,44.144947,2707 7.328390,44.144987,2707 7.328401,44.144954,2707 7.328411,44.144959,2706 7.328397,44.144953,2706 7.328368,44.144968,2706 7.328369,44.144969,2706 7.328366,44.144934,2705 7.328364,44.144933,2705 7.328350,44.144928,2705 7.328347,44.144926,2705 7.328328,44.144958,2705 7.328383,44.144976,2705 7.328373,44.144959,2704 7.328345,44.144949,2704 7.328366,44.144949,2704 7.328355,44.144934,2705 7.328346,44.144930,2705 7.328318,44.144931,2705 7.328344,44.144905,2704 7.328266,44.144874,2704 7.328367,44.144962,2703 7.328380,44.144978,2703 7.328367,44.144958,2703 7.328333,44.144832,2702 7.328340,44.144838,2702 7.328351,44.144842,2702 7.328323,44.144932,2703 7.328342,44.144968,2703 7.328342,44.144947,2703 7.328324,44.144945,2703 7.328323,44.144969,2703 7.328323,44.144929,2703 7.328315,44.144930,2703 7.328317,44.144954,2704 7.328321,44.144940,2703 7.328342,44.144927,2703 7.328343,44.144930,2702 7.328331,44.144921,2702 7.328332,44.144947,2702 7.328322,44.144955,2702 7.328329,44.144954,2702 7.328339,44.144971,2703 7.328370,44.144968,2702 7.328337,44.144918,2702 7.328350,44.144908,2701 7.328349,44.144894,2700 7.328355,44.144947,2699 7.328401,44.144976,2698 7.328484,44.144928,2697 7.328540,44.144956,2697 7.328602,44.144940,2697 7.328618,44.144935,2697 7.328703,44.144942,2696 7.328814,44.144956,2695 7.328887,44.144986,2694 7.328983,44.144994,2693 7.329055,44.145002,2692 7.329081,44.144975,2691 7.329126,44.144958,2690 7.329242,44.144988,2689 7.329271,44.145000,2688 7.329228,44.144995,2686 7.329117,44.144985,2684 7.329113,44.145028,2684 7.329110,44.145029,2684 7.329118,44.145005,2683 7.329188,44.145023,2682 7.329277,44.145056,2682 7.329301,44.145024,2681 7.329308,44.145023,2680 7.329317,44.145050,2680 7.329390,44.145041,2679 7.329410,44.145039,2677 7.329522,44.145114,2676 7.329484,44.145110,2675 7.329514,44.145101,2674 7.329554,44.145106,2672 7.329623,44.145122,2671 7.329662,44.145130,2670 7.329729,44.145172,2669 7.329756,44.145192,2667 7.329688,44.145169,2666 7.329632,44.145143,2666 7.329629,44.145146,2665 7.329610,44.145153,2664 7.329553,44.145215,2663 7.329453,44.145194,2661 7.329419,44.145207,2661 7.329391,44.145208,2660 7.329343,44.145215,2659 7.329299,44.145225,2658 7.329240,44.145231,2657 7.329190,44.145246,2657 7.329112,44.145280,2656 7.329138,44.145274,2654 7.329207,44.145298,2652 7.329263,44.145306,2650 7.329296,44.145306,2649 7.329423,44.145360,2648 7.329492,44.145368,2647 7.329538,44.145361,2646 7.329601,44.145374,2645 7.329663,44.145378,2644 7.329603,44.145406,2642 7.329562,44.145440,2641 7.329544,44.145475,2639 7.329518,44.145478,2637 7.329467,44.145448,2636 7.329420,44.145477,2635 7.329367,44.145489,2635 7.329306,44.145507,2634 7.329275,44.145509,2632 7.329248,44.145518,2631 7.329262,44.145524,2630 7.329289,44.145526,2628 7.329299,44.145537,2628 7.329338,44.145544,2627 7.329317,44.145566,2626 7.329268,44.145610,2625 7.329307,44.145631,2623 7.329331,44.145600,2623 7.329304,44.145603,2622 7.329306,44.145607,2622 7.329404,44.145612,2622 7.329432,44.145602,2620 7.329472,44.145651,2620 7.329515,44.145682,2619 7.329426,44.145642,2617 7.329424,44.145674,2616 7.329484,44.145704,2615 7.329500,44.145737,2613 7.329465,44.145778,2612 7.329446,44.145799,2611 7.329410,44.145799,2610 7.329379,44.145823,2608 7.329407,44.145874,2607 7.329429,44.145897,2606 7.329411,44.145889,2605 7.329452,44.145902,2603 7.329377,44.145872,2602 7.329341,44.145915,2601 7.329358,44.145939,2600 7.329385,44.145967,2599 7.329395,44.145980,2598 7.329405,44.145980,2597 7.329422,44.145993,2595 7.329358,44.145979,2594 7.329323,44.146029,2594 7.329292,44.146047,2592 7.329232,44.146057,2591 7.329271,44.146041,2590 7.329434,44.146082,2588 7.329417,44.146115,2587 7.329359,44.146122,2587 7.329314,44.146158,2586 7.329270,44.146161,2584 7.329258,44.146165,2583 7.329285,44.146172,2581 7.329310,44.146210,2580 7.329333,44.146221,2579 7.329368,44.146243,2578 7.329424,44.146298,2577 7.329433,44.146342,2576 7.329409,44.146320,2575 7.329357,44.146297,2574 7.329309,44.146281,2573 7.329207,44.146286,2571 7.328921,44.147250,2520 7.328882,44.147296,2520 7.328895,44.147317,2519 7.328895,44.147337,2517 7.328891,44.147348,2516 7.328864,44.147376,2515 7.328886,44.147394,2514 7.328862,44.147414,2513 7.328885,44.147420,2512 7.328924,44.147403,2510 7.328910,44.147448,2510 7.328889,44.147463,2509 7.328927,44.147490,2507 7.328880,44.147490,2506 7.328875,44.147520,2505 7.328903,44.147539,2504 7.328906,44.147616,2503 7.328852,44.147632,2502 7.328801,44.147614,2501 7.328827,44.147619,2501 7.328866,44.147622,2499 7.328945,44.147605,2499 7.328971,44.147614,2498 7.329016,44.147664,2496 7.329005,44.147676,2496 7.329000,44.147716,2495 7.329022,44.147733,2494 7.329045,44.147773,2493 7.329090,44.147817,2493 7.329089,44.147849,2492 7.329075,44.147873,2491 7.329030,44.147984,2490 7.329029,44.148044,2490 7.329017,44.148067,2490 7.328998,44.148071,2490 7.329011,44.148157,2489 7.328986,44.148199,2489 7.328997,44.148217,2487 7.328992,44.148227,2487 7.328939,44.148255,2486 7.328921,44.148270,2485 7.328902,44.148305,2484 7.328909,44.148339,2483 7.328918,44.148366,2482 7.328926,44.148395,2480 7.328961,44.148424,2479 7.329029,44.148440,2478 7.329039,44.148454,2476 7.329063,44.148518,2475 7.329080,44.148531,2474 7.329084,44.148542,2473 7.329073,44.148556,2471 7.329083,44.148575,2469 7.329106,44.148578,2468 7.329146,44.148638,2466 7.329157,44.148663,2464 7.329101,44.148656,2463 7.329054,44.148643,2463 7.328974,44.148651,2462 7.328910,44.148639,2460 7.328841,44.148607,2459 7.328722,44.148598,2457 7.328666,44.148600,2457 7.328622,44.148598,2456 7.328525,44.148598,2455 7.328479,44.148596,2453 7.328515,44.148607,2451 7.328591,44.148631,2450 7.328611,44.148648,2449 7.328653,44.148679,2448 7.328693,44.148738,2447 7.328730,44.148761,2446 7.328782,44.148795,2445 7.328853,44.148870,2443 7.328891,44.148900,2440 7.328914,44.148921,2439 7.328950,44.148961,2438 7.328987,44.148996,2437 7.329064,44.149022,2436 7.329134,44.149111,2435 7.329119,44.149115,2434 7.329087,44.149114,2433 7.329112,44.149134,2431 7.329110,44.149165,2429 7.329092,44.149179,2428 7.329061,44.149200,2427 7.329018,44.149219,2425 7.328996,44.149251,2424 7.328952,44.149291,2422 7.328905,44.149330,2420 7.328890,44.149342,2419 7.328867,44.149367,2417 7.328840,44.149423,2414 7.328820,44.149465,2413 7.328778,44.149494,2411 7.328706,44.149537,2410 7.328765,44.149575,2409 7.328743,44.149615,2408 7.328630,44.149633,2406 7.328542,44.149643,2404 7.328495,44.149667,2402 7.328420,44.149702,2400 7.328376,44.149720,2398 7.328364,44.149730,2397 7.328371,44.149758,2395 7.328399,44.149807,2394 7.328429,44.149825,2393 7.328497,44.149878,2392 7.328539,44.149912,2391 7.328566,44.149927,2389 7.328647,44.149966,2388 7.328698,44.149996,2386 7.328829,44.150034,2385 7.328904,44.150041,2384 7.328952,44.150051,2383 7.329009,44.150095,2382 7.328909,44.150153,2380 7.328878,44.150165,2378 7.328899,44.150138,2376 7.328971,44.150154,2375 7.329048,44.150170,2374 7.329086,44.150185,2373 7.328951,44.150206,2373 7.328888,44.150215,2372 7.328828,44.150239,2369 7.328877,44.150237,2368 7.328936,44.150252,2367 7.329099,44.150274,2365 7.329090,44.150293,2364 7.329045,44.150322,2363 7.328974,44.150352,2362 7.328943,44.150351,2360 7.328984,44.150372,2359 7.329028,44.150399,2358 7.328998,44.150426,2357 7.328941,44.150427,2356 7.328862,44.150444,2354 7.328816,44.150453,2353 7.328749,44.150479,2352 7.328808,44.150481,2351 7.328855,44.150499,2350 7.328872,44.150520,2348 7.328920,44.150547,2347 7.328968,44.150596,2345 7.328998,44.150630,2344 7.328966,44.150644,2343 7.328954,44.150683,2342 7.328986,44.150722,2341 7.329006,44.150770,2339 7.328991,44.150790,2338 7.328962,44.150808,2337 7.328951,44.150852,2335 7.328992,44.150851,2334 7.328958,44.150879,2333 7.328935,44.150907,2332 7.328986,44.150933,2330 7.329042,44.150971,2329 7.329006,44.151017,2328 7.328977,44.151049,2326 7.329009,44.151040,2325 7.329041,44.151050,2325 7.328999,44.151098,2324 7.328910,44.151119,2323 7.328940,44.151120,2321 7.329045,44.151138,2320 7.329058,44.151155,2319 7.329012,44.151197,2318 7.328970,44.151233,2316 7.328894,44.151252,2315 7.328830,44.151278,2314 7.328838,44.151302,2313 7.328772,44.151303,2312 7.328725,44.151264,2311 7.328736,44.151287,2310 7.328721,44.151334,2308 7.328665,44.151334,2307 7.328641,44.151304,2305 7.328632,44.151288,2304 7.328622,44.151312,2303 7.328606,44.151368,2302 7.328583,44.151384,2301 7.328540,44.151352,2299 7.328545,44.151361,2298 7.328526,44.151412,2297 7.328529,44.151431,2295 7.328504,44.151491,2293 7.328471,44.151473,2292 7.328454,44.151451,2291 7.328418,44.151395,2290 7.328347,44.151330,2288 7.328229,44.151278,2287 7.328198,44.151311,2286 7.328235,44.151355,2286 7.328258,44.151370,2285 7.328261,44.151395,2284 7.328265,44.151494,2281 7.328271,44.151527,2281 7.328242,44.151509,2280 7.328183,44.151506,2279 7.328124,44.151531,2277 7.328140,44.151562,2276 7.328129,44.151594,2274 7.328164,44.151638,2273 7.328189,44.151650,2272 7.328153,44.151630,2271 7.328106,44.151656,2270 7.327965,44.151667,2268 7.327944,44.151666,2267 7.327951,44.151683,2265 7.328013,44.151711,2264 7.328051,44.151778,2263 7.327976,44.151815,2262 7.327933,44.151802,2261 7.327920,44.151800,2259 7.327994,44.151828,2258 7.328081,44.151878,2257 7.328123,44.151909,2256 7.328042,44.151889,2255 7.327999,44.151907,2254 7.327994,44.151937,2253 7.328091,44.151956,2251 7.328104,44.151980,2250 7.328033,44.151990,2249 7.327974,44.152017,2248 7.327985,44.152028,2246 7.328023,44.152033,2245 7.328092,44.152054,2243 7.328158,44.152073,2242 7.328178,44.152083,2241 7.328239,44.152103,2240 7.328286,44.152098,2238 7.328337,44.152093,2236 7.328362,44.152125,2236 7.328334,44.152167,2235 7.328314,44.152192,2234 7.328277,44.152220,2232 7.328259,44.152227,2231 7.328216,44.152251,2229 7.328181,44.152262,2228 7.328248,44.152250,2226 7.328293,44.152286,2224 7.328335,44.152338,2223 7.328317,44.152361,2222 7.328259,44.152395,2221 7.328222,44.152421,2220 7.328199,44.152444,2218 7.328183,44.152467,2217 7.328194,44.152490,2215 7.328266,44.152501,2214 7.328267,44.152539,2213 7.328251,44.152564,2212 7.328209,44.152604,2211 7.328124,44.152662,2210 7.328118,44.152675,2209 7.328143,44.152710,2207 7.328095,44.152733,2206 7.328088,44.152788,2203 7.328071,44.152862,2202 7.328042,44.152899,2201 7.328011,44.152941,2199 7.327983,44.152982,2196 7.327988,44.153022,2195 7.328005,44.153010,2195 7.327987,44.153046,2194 7.327953,44.153097,2193 7.327932,44.153075,2193 7.327908,44.153109,2192 7.327915,44.153186,2190 7.327887,44.153231,2189 7.327850,44.153256,2189 7.327848,44.153263,2188 7.327866,44.153260,2187 7.327852,44.153257,2188 7.327822,44.153314,2187 7.327802,44.153353,2185 7.327790,44.153361,2184 7.327774,44.153401,2183 7.327701,44.153476,2181 7.327598,44.153585,2183 7.327566,44.153619,2184 7.327542,44.153659,2184 7.327512,44.153720,2184 7.327382,44.153888,2183 7.327175,44.153949,2183 7.327088,44.153937,2182 7.327045,44.153954,2180 7.327062,44.153987,2179 7.327128,44.154050,2178 7.327175,44.154096,2177 7.327030,44.154169,2177 7.326837,44.154174,2177 7.326656,44.154206,2177 7.326562,44.154272,2178 7.326586,44.154265,2178 7.326672,44.154215,2178 7.326647,44.154218,2178 7.326491,44.154292,2178 7.326363,44.154306,2179 7.326328,44.154294,2179 7.326270,44.154328,2179 7.326307,44.154395,2181 7.326358,44.154411,2182 7.326404,44.154431,2183 7.326554,44.154474,2182 7.326635,44.154535,2182 7.326696,44.154592,2179 7.326750,44.154623,2178 7.326794,44.154639,2176 7.326777,44.154656,2175 7.326780,44.154689,2173 7.326788,44.154707,2172 7.326776,44.154751,2171 7.326773,44.154779,2170 7.326792,44.154842,2167 7.326804,44.154864,2166 7.326807,44.154929,2165 7.326804,44.154987,2165 7.326816,44.155022,2164 7.326858,44.155064,2163 7.326901,44.155112,2161 7.326928,44.155126,2160 7.326976,44.155132,2160 7.327006,44.155176,2159 7.326941,44.155260,2157 7.326949,44.155288,2155 7.326998,44.155310,2154 7.327048,44.155352,2151 7.327053,44.155381,2150 7.327069,44.155410,2149 7.327011,44.155437,2147 7.326986,44.155448,2146 7.326929,44.155484,2145 7.326886,44.155503,2144 7.326751,44.155506,2142 7.326654,44.155515,2141 7.326563,44.155531,2140 7.326518,44.155534,2139 7.326423,44.155543,2138 7.326387,44.155571,2137 7.326340,44.155642,2134 7.326308,44.155665,2132 7.326202,44.155722,2131 7.326169,44.155762,2130 7.326115,44.155838,2129 7.326156,44.155853,2127 7.326218,44.155867,2126 7.326369,44.155917,2126 7.326440,44.155943,2124 7.326501,44.155970,2123 7.326470,44.155990,2122 7.326386,44.156008,2120 7.326298,44.156045,2119 7.326221,44.156093,2118 7.326139,44.156131,2117 7.326080,44.156167,2116 7.326130,44.156189,2115 7.326141,44.156231,2113 7.326103,44.156285,2112 7.326086,44.156313,2111 7.326132,44.156298,2110 7.326155,44.156317,2109 7.326157,44.156311,2108 7.326208,44.156341,2107 7.326282,44.156332,2106 7.326415,44.156328,2106 7.326429,44.156367,2105 7.326455,44.156436,2103 7.326441,44.156449,2102 7.326366,44.156492,2100 7.326282,44.156561,2099 7.326271,44.156621,2098 7.326229,44.156661,2097 7.326213,44.156706,2096 7.326328,44.156771,2095 7.326378,44.156791,2093 7.326454,44.156807,2092 7.326474,44.156823,2091 7.326591,44.156913,2089 7.326654,44.156979,2088 7.326718,44.157030,2087 7.326758,44.157058,2086 7.326819,44.157111,2085 7.326906,44.157139,2084 7.327017,44.157177,2083 7.327065,44.157164,2082 7.327168,44.157179,2081 7.327247,44.157197,2080 7.327406,44.157173,2078 7.327394,44.157165,2077 7.327456,44.157120,2076 7.327493,44.157081,2075 7.327510,44.157049,2075 7.327564,44.157012,2073 7.327613,44.156982,2071 7.327613,44.156988,2071 7.327577,44.156984,2071 7.327602,44.156966,2071 7.327588,44.157003,2071 7.327585,44.157002,2071 7.327616,44.157000,2071 7.327633,44.157014,2070 7.327634,44.156969,2069 7.327677,44.156949,2068 7.327709,44.156948,2067 7.327807,44.156876,2065 7.327829,44.156870,2064 7.327832,44.156876,2063 7.327850,44.156945,2062 7.327868,44.156984,2060 7.327906,44.157025,2059 7.327896,44.157055,2058 7.327895,44.157080,2057 7.327909,44.157127,2056 7.327939,44.157179,2055 7.327971,44.157187,2054 7.328041,44.157076,2053 7.328092,44.157112,2052 7.328102,44.157192,2051 7.328102,44.157208,2050 7.328148,44.157149,2048 7.328204,44.157130,2046 7.328226,44.157155,2045 7.328224,44.157245,2043 7.328230,44.157287,2042 7.328245,44.157332,2041 7.328254,44.157353,2039 7.328272,44.157372,2039 7.328284,44.157401,2038 7.328270,44.157443,2037 7.328295,44.157491,2036 7.328268,44.157540,2035 7.328269,44.157623,2033 7.328309,44.157652,2033 7.328334,44.157676,2031 7.328370,44.157729,2030 7.328425,44.157757,2031 7.328497,44.157765,2032 7.328572,44.157819,2030 7.328558,44.157815,2030 7.328602,44.157854,2029 7.328645,44.157899,2028 7.328715,44.158049,2026 7.328733,44.158016,2026 7.328763,44.157949,2024 7.328858,44.157843,2024 7.328950,44.157830,2022 7.329038,44.157812,2021 7.329129,44.157825,2020 7.329315,44.157824,2019 7.329371,44.157816,2018 7.329432,44.157788,2017 7.329575,44.157796,2016 7.329647,44.157817,2016 7.329822,44.157758,2015 7.329822,44.157746,2015 7.329905,44.157776,2014 7.330047,44.157843,2015 7.330214,44.157834,2015 7.330337,44.157818,2015 7.330481,44.157834,2015 7.330497,44.157801,2014 7.330522,44.157842,2014 7.330517,44.157870,2014 7.330509,44.157872,2014 7.330527,44.157860,2013 7.330542,44.157880,2013 7.330524,44.157886,2013 7.330495,44.157872,2012 7.330512,44.157869,2012 7.330522,44.157827,2012 7.330517,44.157882,2012 7.330498,44.157881,2011 7.330512,44.157869,2011 7.330544,44.157869,2011 7.330528,44.157868,2011 7.330517,44.157871,2011 7.330516,44.157859,2011 7.330514,44.157864,2011 7.330510,44.157875,2011 7.330491,44.157898,2011 7.330442,44.157899,2011 7.330480,44.157895,2011 7.330526,44.157875,2011 7.330525,44.157886,2011 7.330519,44.157882,2012 7.330524,44.157858,2011 7.330520,44.157867,2012 7.330537,44.157890,2012 7.330553,44.157883,2011 7.330542,44.157868,2011 7.330542,44.157893,2012 7.330566,44.157855,2011 7.330567,44.157898,2011 7.330556,44.157881,2011 7.330551,44.157855,2011 7.330558,44.157837,2011 7.330554,44.157862,2011 7.330557,44.157859,2011 7.330585,44.157875,2010 7.330611,44.157876,2010 7.330576,44.157857,2010 7.330578,44.157867,2009 7.330591,44.157864,2009 7.330608,44.157872,2009 7.330639,44.157862,2009 7.330615,44.157871,2009 7.330602,44.157887,2009 7.330580,44.157877,2009 7.330637,44.157867,2009 7.330791,44.157878,1895 7.330655,44.157828,2009 7.330616,44.157813,2011 7.330605,44.157821,2016 7.330585,44.157852,2020 7.330593,44.157860,2019 7.330603,44.157876,2018 7.330614,44.157868,2013 7.330641,44.157855,2010 7.330626,44.157872,2008 7.330611,44.157878,1992 7.330624,44.157913,1984 7.330581,44.157897,1985 7.330559,44.157895,1985 7.330545,44.157872,1987 7.330528,44.157888,1988 7.330513,44.157873,1991 7.330511,44.157871,1993 7.330528,44.157845,1996 7.330551,44.157839,1997 7.330574,44.157835,1998 7.330555,44.157863,1997 7.330545,44.157865,1995 7.330533,44.157871,1993 7.330542,44.157886,1989 7.330556,44.157866,1989 7.330529,44.157862,1991 7.330520,44.157868,1994 7.330508,44.157867,1999 7.330511,44.157873,1997 7.330504,44.157879,1995 7.330500,44.157883,1993 7.330491,44.157886,1993 7.330494,44.157873,1995 7.330485,44.157877,1998 7.330493,44.157897,2000 7.330498,44.157911,2002 7.330501,44.157912,2003 7.330513,44.157906,2006 7.330513,44.157897,2007 7.330494,44.157837,2005 7.330490,44.157835,2005 7.330481,44.157841,2006 7.330504,44.157863,2007 7.330493,44.157888,2005 7.330495,44.157882,2002 7.330509,44.157900,2011 7.330516,44.157864,2004 7.330511,44.157840,2002 7.330480,44.157854,1999 7.330472,44.157830,2000 7.330466,44.157830,2003 7.330463,44.157848,2006 7.330464,44.157848,2007 7.330469,44.157876,2008 7.330477,44.157917,2006 7.330480,44.157851,2004 7.330479,44.157876,2002 7.330490,44.157864,2003 7.330508,44.157865,2004 7.330518,44.157870,2005 7.330519,44.157868,2007 7.330515,44.157871,2008 7.330485,44.157872,2006 7.330501,44.157889,2006 7.330472,44.157890,2006 7.330469,44.157894,2003 7.330410,44.157892,2002 7.330441,44.157883,2004 7.330510,44.157882,2005 7.330518,44.157859,2008 7.330504,44.157850,2007 7.330483,44.157836,2001 7.330500,44.157835,2003 7.330513,44.157839,2002 7.330550,44.157863,2002 7.330504,44.157830,2003 7.330478,44.157822,2003 7.330485,44.157829,2003 7.330491,44.157873,2003 7.330489,44.157865,2002 7.330484,44.157893,2003 7.330569,44.157889,2003 7.330533,44.157854,2003 7.330475,44.157832,2003 7.330508,44.157870,2003 7.330519,44.157889,2002 7.330552,44.157885,2003 7.330526,44.157895,2002 7.330514,44.157896,2003 7.330510,44.157851,2003 7.330502,44.157862,2003 7.330503,44.157923,2003 7.330539,44.157852,2004 7.330531,44.157891,2004 7.330522,44.157865,2004 7.330524,44.157832,2004 7.330494,44.157882,2004 7.330495,44.157876,2004 7.330502,44.157845,2005 7.330491,44.157876,2005 7.330476,44.157832,2005 7.330497,44.157836,2005 7.330505,44.157877,2005 7.330499,44.157836,2005 7.330505,44.157864,2006 7.330489,44.157824,2006 7.330477,44.157881,2006 7.330485,44.157877,2006 7.330525,44.157883,2005 7.330550,44.157900,2005 7.330501,44.157932,2006 7.330478,44.157971,2007 7.330431,44.157976,2007 7.330382,44.157985,2006 7.330341,44.158015,2007 7.330328,44.158038,2006 7.330470,44.158143,2006 7.330536,44.158214,2007 7.330663,44.158275,2007 7.330666,44.158324,2007 7.330679,44.158356,2007 7.330804,44.158437,2007 7.330859,44.158519,2006 7.330859,44.158629,2007 7.330854,44.158660,2008 7.330893,44.158688,2006 7.330979,44.158708,2006 7.331020,44.158746,2005 7.331032,44.158802,2006 7.331068,44.158880,2007 7.331164,44.158939,2008 7.331270,44.159032,2008 7.331258,44.159009,2008 7.331249,44.159038,2009 7.331236,44.159037,2010 7.331204,44.159057,2011 7.331175,44.159098,2011 7.331144,44.159115,2012 7.331134,44.159173,2013 7.331119,44.159201,2014 7.331095,44.159243,2015 7.331056,44.159276,2014 7.331048,44.159360,2014 7.331101,44.159447,2013 7.331167,44.159539,2013 7.331185,44.159569,2012 7.331186,44.159565,2012 7.331232,44.159591,2012 7.331286,44.159613,2012 7.331502,44.159692,2011 7.331616,44.159742,2010 7.331696,44.159808,2009 7.331690,44.159821,2009 7.331740,44.159831,2009 7.331957,44.159931,2010 7.332063,44.159982,2010 7.332236,44.160117,2010 7.332350,44.160182,2011 7.332510,44.160321,2011 7.332628,44.160448,2010 7.332779,44.160461,2010 7.332879,44.160567,2011 7.333045,44.160666,2010 7.333262,44.160788,2012 7.333350,44.160867,2012 7.333408,44.160958,2012 7.333597,44.161024,2011 7.333757,44.161032,2011 7.333956,44.161109,2013 7.334014,44.161112,2014 7.334105,44.161085,2015 7.334195,44.161019,2016 7.334302,44.161013,2016 7.334387,44.161073,2017 7.334379,44.161071,2017 7.334381,44.161086,2017 7.334332,44.161135,2016 7.334364,44.161103,2016 7.334396,44.161082,2016 7.334340,44.161133,2016 7.334304,44.161128,2015 7.334295,44.161150,2015 7.334337,44.161138,2015 7.334337,44.161139,2015 7.334270,44.161094,2015 7.334246,44.161077,2015 7.334254,44.161087,2014 7.334359,44.161047,2014 7.334368,44.161070,2014 7.334386,44.161095,2014 7.334302,44.161139,2014 7.334204,44.161155,2013 7.334192,44.161142,2013 7.334321,44.161102,2013 7.334347,44.161123,2012 7.334337,44.161156,2012 7.334352,44.161157,2012 7.334409,44.161136,2012 7.334477,44.161112,2013 7.334376,44.161202,2012 7.334413,44.161144,2012 7.334411,44.161132,2012 7.334436,44.161098,2012 7.334475,44.161119,2012 7.334468,44.161285,2012 7.334500,44.161310,2011 7.334486,44.161310,2011 7.334437,44.161332,2011 7.334371,44.161233,2011 7.334352,44.161216,2010 7.334180,44.161296,2011 7.334189,44.161274,2011 7.334234,44.161327,2011 7.334310,44.161204,2010 7.334267,44.161251,2009 7.334247,44.161278,2009 7.334308,44.161225,2009 7.334314,44.161244,2009 7.334277,44.161283,2009 7.334265,44.161298,2009 7.334258,44.161217,2008 7.334268,44.161146,2008 7.334327,44.161127,2008 7.334362,44.161089,2009 7.334445,44.161140,2007 7.334253,44.161206,2006 7.334286,44.161090,2006 7.334287,44.161075,2006 7.334277,44.161066,2005 7.334276,44.161011,2005 7.334186,44.160913,2005 7.334194,44.160756,2006 7.334151,44.160652,2006 7.334185,44.160816,2006 7.334241,44.160983,2006 7.334266,44.161092,2007 7.334278,44.161202,2007 7.334212,44.161178,2004 7.334284,44.161252,1992 7.334282,44.161188,1990 7.334280,44.161160,1986 7.334247,44.161131,1986 7.334308,44.161207,1994 7.334302,44.161240,2000 7.334288,44.161228,2002 7.334252,44.161175,2003 7.334236,44.161096,2004 7.334221,44.161053,2004 7.334181,44.160969,2005 7.334214,44.160979,2004 7.334244,44.160973,2001 7.334253,44.160965,2003 7.334189,44.160891,2005 7.334181,44.160886,2007 7.334200,44.160956,2007 7.334223,44.160990,2008 7.334197,44.161044,2003 7.334196,44.161101,2001 7.334196,44.161113,1998 7.334223,44.161130,1999 7.334294,44.161209,1997 7.334318,44.161254,1994 7.334344,44.161282,1998 7.334354,44.161289,2001 7.334343,44.161292,2003 7.334308,44.161278,2002 7.334272,44.161154,1996 7.334242,44.161121,1995 7.334237,44.161059,2000 7.334238,44.161052,2002 7.334209,44.161045,1996 7.334253,44.161082,1992 7.334309,44.161113,1990 7.334317,44.161112,1989 7.334309,44.161114,1991 7.334247,44.160994,2004 7.334115,44.160752,2004 7.334133,44.160877,2002 7.334109,44.160865,2004 7.334103,44.160902,2002 7.334106,44.160844,1999 7.334109,44.160840,2000 7.334128,44.160931,2001 7.334192,44.161072,1995 7.334225,44.161154,1998 7.334255,44.161205,1999 7.334292,44.161259,2003 7.334294,44.161257,2002 7.334284,44.161282,2003 7.334299,44.161336,2007 7.334302,44.161345,2011 7.334297,44.161341,2009 7.334314,44.161381,2009 7.334320,44.161406,2011 7.334332,44.161421,2011 7.334308,44.161381,2009 7.334287,44.161253,2003 7.334301,44.161268,2005 7.334270,44.161167,2006 7.334234,44.161161,2003 7.334230,44.161139,2005 7.334225,44.161122,2007 7.334237,44.161118,2008 7.334283,44.161206,2007 7.334293,44.161246,2008 7.334326,44.161326,2005 7.334331,44.161351,2007 7.334352,44.161294,2008 7.334388,44.161361,2006 7.334397,44.161343,2005 7.334422,44.161285,2005 7.334411,44.161328,2004 7.334392,44.161318,2003 7.334382,44.161301,2001 7.334314,44.161193,2002 7.334308,44.161281,2006 7.334269,44.161244,2008 7.334247,44.161138,1999 7.334310,44.161171,1998 7.334417,44.161135,1998 7.334345,44.160931,1997 7.334357,44.160938,1999 7.334292,44.160988,2000 7.334324,44.161247,2000 7.334316,44.161258,1998 7.334295,44.161145,2001 7.334282,44.161100,2004 7.334268,44.161043,2006 7.334247,44.160982,2005 7.334252,44.161023,2007 7.334309,44.161141,2008 7.334308,44.161144,2009 7.334302,44.161136,2008 7.334294,44.161149,2009 7.334242,44.161188,2008 7.334258,44.161264,2010 7.334273,44.161301,2014 7.334302,44.161373,2014 7.334304,44.161312,2009 7.334330,44.161368,2006 7.334380,44.161447,2007 7.334388,44.161405,2008 7.334382,44.161365,2008 7.334412,44.161403,2002 7.334425,44.161417,2003 7.334431,44.161431,2006 7.334419,44.161395,2007 7.334373,44.161320,2005 7.334370,44.161331,2004 7.334340,44.161289,2001 7.334316,44.161277,1997 7.334265,44.161173,2001 7.334257,44.161168,2005 7.334255,44.161178,2006 7.334262,44.161187,2005 7.334272,44.161209,2003 7.334265,44.161236,2005 7.334274,44.161245,2007 7.334291,44.161391,2009 7.334333,44.161462,2008 7.334363,44.161494,2008 7.334393,44.161532,2006 7.334382,44.161413,2006 7.334360,44.161331,2005 7.334297,44.161227,2005 7.334283,44.161196,2005 7.334259,44.161161,2005 7.334255,44.161129,2005 7.334293,44.161163,2004 7.334293,44.161170,2005 7.334266,44.161221,2005 7.334242,44.161246,2004 7.334237,44.161189,2004 7.334248,44.161177,2004 7.334250,44.161151,2004 7.334311,44.161171,2004 7.334308,44.160996,2005 7.334276,44.160941,2005 7.334304,44.161066,2005 7.334224,44.160987,2004 7.334166,44.160977,2003 7.334231,44.160963,2003 7.334331,44.161012,2004 7.334407,44.161024,2004 7.334420,44.161164,2004 7.334401,44.161266,2004 7.334349,44.161455,2005 7.334288,44.161536,2005 7.334290,44.161532,2005 7.334266,44.161311,2004 7.334287,44.161227,2004 7.334291,44.161177,2004 7.334305,44.161158,2004 7.334325,44.161152,2004 7.334329,44.161114,2004 7.334314,44.161052,2004 7.334345,44.161073,2004 7.334329,44.161120,2004 7.334313,44.161163,2004 7.334294,44.161147,2004 7.334305,44.161099,2004 7.334335,44.161056,2004 7.334350,44.161094,2004 7.334340,44.161096,2004 7.334304,44.161103,2004 7.334255,44.161061,2004 7.334248,44.160922,2004 7.334336,44.160806,2004 7.334420,44.160927,2004 7.334474,44.161057,2004 7.334488,44.161128,2004 7.334458,44.161198,2004 7.334437,44.161172,2004 7.334394,44.161136,2004 7.334357,44.161124,2004 7.334310,44.161111,2005 7.334250,44.161068,2004 7.334316,44.161153,2005 7.334356,44.161171,2004 7.334357,44.161228,2005 7.334358,44.161144,2004 7.334346,44.161097,2004 7.334377,44.161007,2004 7.334370,44.161053,2003 7.334375,44.161050,2003 7.334400,44.161071,2003 7.334377,44.161130,2002 7.334357,44.161157,2002 7.334337,44.161030,2002</coordinates></LineString></Placemark></Document></kml>