<?xml version="1.0" encoding="UTF-8"?>
<kml xmlns="http://www.opengis.net/kml/2.2"><Document><name>Alta Linea Continua – Stage 23: Vallone di Soustra to Pian del Re</name><Style id="l"><LineStyle><color>ff2b30c4</color><width>4</width></LineStyle></Style><Placemark><name>Alta Linea Continua – Stage 23: Vallone di Soustra to Pian del Re</name><styleUrl>#l</styleUrl><LineString><tessellate>1</tessellate><altitudeMode>clampToGround</altitudeMode><coordinates>7.047974,44.677014,2536 7.047964,44.676951,2536 7.047953,44.676950,2536 7.047924,44.676985,2537 7.047955,44.677175,2538 7.047966,44.677241,2538 7.047965,44.677275,2540 7.047959,44.677298,2541 7.047932,44.677330,2542 7.047954,44.677391,2543 7.048075,44.677462,2544 7.048125,44.677450,2545 7.048147,44.677486,2546 7.048200,44.677518,2547 7.048273,44.677599,2548 7.048322,44.677615,2549 7.048347,44.677615,2550 7.048362,44.677640,2551 7.048372,44.677728,2552 7.048417,44.677772,2553 7.048457,44.677813,2554 7.048531,44.677867,2555 7.048581,44.677871,2556 7.048662,44.677905,2558 7.048741,44.677949,2559 7.048786,44.677959,2561 7.048877,44.677969,2562 7.048937,44.677974,2563 7.049112,44.677918,2564 7.049139,44.677911,2565 7.049168,44.677901,2565 7.049190,44.677891,2566 7.049241,44.677859,2567 7.049273,44.677846,2568 7.049298,44.677860,2569 7.049462,44.677827,2572 7.049488,44.677798,2573 7.049553,44.677789,2574 7.049610,44.677809,2575 7.049594,44.677863,2577 7.049578,44.677876,2578 7.049549,44.677925,2579 7.049536,44.677974,2581 7.049530,44.677998,2582 7.049500,44.678059,2584 7.049479,44.678078,2585 7.049493,44.678088,2586 7.049482,44.678124,2586 7.049539,44.678133,2587 7.049582,44.678133,2589 7.049660,44.678121,2591 7.049732,44.678119,2592 7.049765,44.678120,2594 7.049772,44.678118,2595 7.049823,44.678120,2596 7.049883,44.678122,2597 7.049914,44.678108,2598 7.049947,44.678087,2599 7.049981,44.678111,2600 7.050010,44.678125,2601 7.050081,44.678117,2603 7.050126,44.678119,2604 7.050141,44.678115,2605 7.050220,44.678119,2606 7.050200,44.678114,2607 7.050255,44.678117,2608 7.050356,44.678139,2610 7.050397,44.678128,2611 7.050479,44.678107,2612 7.050473,44.678105,2613 7.050572,44.678122,2615 7.050632,44.678155,2617 7.050713,44.678148,2618 7.050726,44.678114,2620 7.050757,44.678095,2621 7.050842,44.678140,2622 7.050857,44.678163,2623 7.050916,44.678175,2625 7.051046,44.678136,2626 7.051111,44.678125,2627 7.051199,44.678139,2628 7.051283,44.678140,2629 7.051362,44.678114,2630 7.051453,44.678100,2631 7.051512,44.678108,2632 7.051547,44.678075,2633 7.051545,44.678016,2634 7.051541,44.677986,2635 7.051545,44.677965,2636 7.051585,44.677930,2637 7.051627,44.677916,2638 7.051650,44.677906,2639 7.051677,44.677943,2640 7.051723,44.677977,2641 7.051757,44.678006,2642 7.051782,44.678053,2643 7.051809,44.678100,2646 7.051832,44.678124,2647 7.051860,44.678109,2648 7.051908,44.678107,2649 7.051952,44.678117,2650 7.051942,44.678105,2650 7.052014,44.678141,2650 7.051987,44.678120,2650 7.051955,44.678125,2650 7.051926,44.678095,2649 7.051934,44.678100,2649 7.051997,44.678156,2649 7.052003,44.678183,2648 7.051997,44.678228,2648 7.052009,44.678147,2649 7.051977,44.678110,2649 7.051966,44.678126,2649 7.051983,44.678127,2650 7.051978,44.678124,2649 7.051978,44.678121,2650 7.051986,44.678110,2649 7.052008,44.678127,2650 7.051978,44.678116,2650 7.051945,44.678138,2650 7.051991,44.677998,2649 7.052130,44.677930,2649 7.052396,44.677833,2651 7.052423,44.677813,2651 7.052513,44.677754,2653 7.052610,44.677708,2654 7.052698,44.677667,2655 7.052781,44.677636,2656 7.052829,44.677587,2658 7.052853,44.677531,2659 7.052850,44.677492,2660 7.052847,44.677447,2661 7.052812,44.677374,2663 7.052796,44.677306,2664 7.052772,44.677298,2665 7.052777,44.677240,2666 7.052773,44.677201,2667 7.052769,44.677095,2668 7.052775,44.677088,2669 7.052832,44.677147,2670 7.052898,44.677131,2671 7.052915,44.677145,2673 7.052954,44.677161,2674 7.052969,44.677181,2675 7.053009,44.677150,2676 7.053042,44.677141,2678 7.053095,44.677174,2679 7.053123,44.677188,2681 7.053177,44.677211,2682 7.053219,44.677202,2683 7.053318,44.677218,2684 7.053422,44.677238,2686 7.053497,44.677259,2687 7.053558,44.677300,2688 7.053681,44.677345,2688 7.053742,44.677357,2689 7.053808,44.677348,2690 7.053832,44.677323,2692 7.053860,44.677309,2693 7.053879,44.677268,2694 7.053938,44.677263,2695 7.053993,44.677265,2697 7.054041,44.677250,2698 7.054074,44.677229,2699 7.054101,44.677240,2700 7.054146,44.677251,2701 7.054180,44.677255,2702 7.054223,44.677271,2703 7.054219,44.677312,2704 7.054225,44.677348,2705 7.054261,44.677388,2706 7.054329,44.677406,2708 7.054388,44.677431,2709 7.054430,44.677467,2711 7.054476,44.677503,2712 7.054482,44.677554,2713 7.054488,44.677581,2714 7.054498,44.677595,2715 7.054521,44.677604,2716 7.054558,44.677546,2717 7.054571,44.677489,2718 7.054595,44.677402,2719 7.054585,44.677341,2720 7.054602,44.677240,2720 7.054629,44.677248,2721 7.054687,44.677234,2723 7.054762,44.677238,2724 7.054822,44.677218,2725 7.054850,44.677196,2727 7.054910,44.677183,2728 7.054937,44.677178,2729 7.054935,44.677221,2731 7.054920,44.677280,2732 7.054929,44.677362,2734 7.054949,44.677410,2735 7.055009,44.677438,2736 7.055041,44.677461,2737 7.055107,44.677491,2738 7.055158,44.677508,2739 7.055223,44.677495,2741 7.055316,44.677468,2742 7.055378,44.677446,2743 7.055437,44.677445,2745 7.055471,44.677424,2746 7.055519,44.677414,2747 7.055579,44.677415,2748 7.055632,44.677413,2749 7.055704,44.677446,2751 7.055775,44.677467,2753 7.055829,44.677467,2754 7.055870,44.677464,2755 7.055902,44.677479,2756 7.055936,44.677521,2757 7.055987,44.677523,2758 7.056082,44.677560,2759 7.056159,44.677565,2760 7.056267,44.677561,2761 7.056405,44.677551,2762 7.056488,44.677571,2762 7.056583,44.677559,2764 7.056627,44.677539,2765 7.056660,44.677535,2766 7.056702,44.677538,2767 7.056720,44.677548,2768 7.056739,44.677536,2769 7.056773,44.677514,2770 7.056816,44.677484,2771 7.056832,44.677476,2771 7.056856,44.677478,2773 7.056869,44.677481,2773 7.056890,44.677468,2774 7.056884,44.677439,2775 7.056916,44.677461,2776 7.056956,44.677446,2777 7.056955,44.677440,2778 7.057004,44.677476,2780 7.057077,44.677453,2781 7.057090,44.677460,2781 7.057125,44.677498,2783 7.057171,44.677555,2785 7.057228,44.677535,2786 7.057272,44.677503,2787 7.057302,44.677475,2788 7.057344,44.677451,2789 7.057394,44.677462,2790 7.057424,44.677504,2791 7.057468,44.677541,2792 7.057488,44.677548,2793 7.057505,44.677572,2794 7.057508,44.677610,2796 7.057503,44.677682,2797 7.057517,44.677745,2798 7.057515,44.677789,2800 7.057513,44.677830,2801 7.057573,44.677884,2803 7.057593,44.677909,2804 7.057623,44.677940,2805 7.057648,44.677982,2806 7.057694,44.677954,2806 7.057732,44.677921,2806 7.057808,44.677794,2808 7.057846,44.677706,2809 7.057886,44.677651,2810 7.057930,44.677592,2811 7.057961,44.677590,2812 7.058008,44.677551,2813 7.058025,44.677516,2815 7.058039,44.677470,2816 7.058066,44.677460,2817 7.058107,44.677429,2818 7.058138,44.677403,2820 7.058197,44.677376,2822 7.058211,44.677332,2823 7.058217,44.677293,2825 7.058250,44.677264,2826 7.058249,44.677235,2827 7.058268,44.677241,2828 7.058297,44.677233,2829 7.058324,44.677202,2830 7.058344,44.677169,2831 7.058347,44.677155,2832 7.058332,44.677168,2832 7.058361,44.677137,2834 7.058367,44.677119,2835 7.058386,44.677100,2836 7.058411,44.677089,2836 7.058427,44.677062,2837 7.058430,44.677026,2838 7.058452,44.677028,2839 7.058479,44.677011,2840 7.058490,44.676980,2841 7.058488,44.676956,2842 7.058508,44.676943,2843 7.058508,44.676922,2844 7.058499,44.676871,2846 7.058507,44.676855,2847 7.058500,44.676809,2849 7.058516,44.676813,2850 7.058528,44.676795,2851 7.058548,44.676809,2852 7.058573,44.676814,2853 7.058640,44.676839,2855 7.058661,44.676819,2856 7.058686,44.676808,2857 7.058693,44.676787,2858 7.058715,44.676754,2860 7.058704,44.676722,2861 7.058734,44.676713,2862 7.058748,44.676687,2863 7.058771,44.676673,2864 7.058781,44.676609,2866 7.058724,44.676526,2866 7.058642,44.676563,2867 7.058663,44.676578,2866 7.058658,44.676592,2867 7.058652,44.676622,2868 7.058633,44.676556,2866 7.058673,44.676543,2866 7.058644,44.676570,2866 7.058698,44.676553,2865 7.058688,44.676549,2864 7.058614,44.676528,2865 7.058623,44.676520,2865 7.058627,44.676541,2865 7.058650,44.676562,2864 7.058646,44.676555,2864 7.058642,44.676538,2865 7.058654,44.676538,2865 7.058678,44.676572,2865 7.058670,44.676549,2865 7.058672,44.676573,2865 7.058695,44.676573,2865 7.058726,44.676573,2866 7.058758,44.676581,2866 7.058796,44.676590,2867 7.058811,44.676557,2868 7.058825,44.676535,2869 7.058838,44.676522,2871 7.058864,44.676514,2872 7.058909,44.676397,2872 7.058856,44.676281,2873 7.058908,44.676213,2873 7.058919,44.676147,2874 7.058887,44.676051,2873 7.058877,44.676077,2873 7.058879,44.676074,2873 7.058850,44.676092,2872 7.058878,44.676110,2872 7.058918,44.676058,2871 7.058937,44.675983,2869 7.058930,44.675981,2869 7.058904,44.675954,2869 7.058921,44.675881,2868 7.058903,44.675886,2868 7.058912,44.675965,2868 7.058925,44.675955,2868 7.058959,44.675931,2867 7.058940,44.675878,2866 7.058935,44.675813,2864 7.058904,44.675793,2863 7.058932,44.675759,2861 7.058962,44.675668,2859 7.058945,44.675654,2858 7.058939,44.675635,2856 7.058945,44.675585,2854 7.058961,44.675538,2853 7.058949,44.675512,2852 7.058888,44.675449,2850 7.058860,44.675444,2849 7.058844,44.675437,2848 7.058860,44.675415,2847 7.058805,44.675396,2846 7.058769,44.675371,2844 7.058721,44.675354,2842 7.058736,44.675334,2841 7.058814,44.675296,2839 7.058867,44.675262,2838 7.058745,44.675252,2836 7.058676,44.675258,2835 7.058598,44.675253,2834 7.058563,44.675242,2833 7.058542,44.675211,2832 7.058524,44.675186,2831 7.058505,44.675167,2829 7.058567,44.675165,2828 7.058564,44.675129,2827 7.058525,44.675097,2826 7.058505,44.675058,2824 7.058488,44.675022,2823 7.058466,44.675015,2822 7.058417,44.674977,2820 7.058403,44.674941,2819 7.058417,44.674896,2817 7.058408,44.674876,2816 7.058375,44.674859,2815 7.058330,44.674803,2813 7.058345,44.674766,2811 7.058346,44.674732,2810 7.058317,44.674707,2809 7.058258,44.674687,2808 7.058216,44.674631,2806 7.058192,44.674600,2805 7.058157,44.674544,2804 7.058118,44.674511,2802 7.058073,44.674478,2801 7.058042,44.674435,2800 7.057996,44.674365,2798 7.057953,44.674316,2797 7.057939,44.674299,2796 7.057935,44.674262,2796 7.057891,44.674194,2794 7.057908,44.674175,2793 7.057949,44.674145,2791 7.058023,44.674110,2790 7.057901,44.674068,2789 7.057891,44.674036,2787 7.057889,44.673997,2786 7.057874,44.673958,2785 7.057837,44.673915,2784 7.057838,44.673886,2782 7.057840,44.673814,2781 7.057857,44.673755,2780 7.057878,44.673730,2778 7.057920,44.673762,2777 7.057984,44.673837,2776 7.058120,44.673974,2776 7.058192,44.674054,2776 7.058277,44.674129,2775 7.058348,44.674182,2775 7.058492,44.674301,2776 7.058629,44.674336,2777 7.058719,44.674351,2777 7.058800,44.674365,2778 7.058933,44.674340,2778 7.059072,44.674270,2778 7.059129,44.674188,2777 7.059226,44.674099,2775 7.059358,44.674048,2775 7.059458,44.674042,2777 7.059556,44.674012,2778 7.059694,44.674008,2777 7.059848,44.674049,2777 7.059838,44.674064,2777 7.059863,44.674048,2776 7.059861,44.674060,2775 7.059869,44.674071,2774 7.059876,44.674096,2773 7.059865,44.674130,2773 7.059988,44.674119,2772 7.059921,44.674124,2772 7.059896,44.674135,2772 7.059972,44.674156,2769 7.060015,44.674174,2768 7.060120,44.674209,2766 7.060154,44.674241,2765 7.060258,44.674308,2763 7.060323,44.674365,2761 7.060361,44.674397,2760 7.060375,44.674431,2759 7.060405,44.674493,2758 7.060483,44.674621,2758 7.060512,44.674714,2760 7.060548,44.674753,2760 7.060579,44.674791,2761 7.060596,44.674858,2761 7.060671,44.674949,2762 7.060704,44.675009,2763 7.060706,44.675087,2765 7.060702,44.675130,2766 7.060767,44.675178,2768 7.060776,44.675187,2768 7.060780,44.675243,2769 7.060825,44.675286,2770 7.060899,44.675329,2771 7.060942,44.675391,2772 7.060948,44.675398,2774 7.061062,44.675417,2774 7.061160,44.675451,2773 7.061210,44.675499,2772 7.061263,44.675531,2773 7.061320,44.675577,2774 7.061332,44.675626,2775 7.061348,44.675688,2776 7.061372,44.675707,2778 7.061389,44.675754,2779 7.061473,44.675827,2780 7.061502,44.675882,2782 7.061519,44.675925,2782 7.061580,44.675986,2783 7.061610,44.676068,2784 7.061724,44.676153,2785 7.061871,44.676163,2786 7.061943,44.676203,2787 7.061998,44.676253,2789 7.062027,44.676263,2789 7.062097,44.676280,2790 7.062164,44.676301,2791 7.062170,44.676301,2791 7.062190,44.676304,2791 7.062169,44.676292,2791 7.062172,44.676302,2790 7.062226,44.676332,2791 7.062318,44.676390,2791 7.062390,44.676434,2791 7.062498,44.676502,2790 7.062554,44.676560,2790 7.062685,44.676610,2791 7.062798,44.676577,2790 7.062925,44.676550,2789 7.062998,44.676564,2791 7.062992,44.676595,2792 7.063000,44.676617,2793 7.063003,44.676635,2794 7.062993,44.676667,2795 7.062998,44.676689,2796 7.062994,44.676708,2797 7.062982,44.676758,2798 7.062984,44.676775,2799 7.063026,44.676810,2800 7.063066,44.676823,2801 7.063090,44.676846,2802 7.063120,44.676861,2803 7.063124,44.676898,2804 7.063121,44.676947,2806 7.063111,44.677016,2807 7.063124,44.677053,2808 7.063154,44.677118,2809 7.063158,44.677148,2810 7.063153,44.677195,2812 7.063154,44.677237,2813 7.063194,44.677324,2813 7.063207,44.677344,2813 7.063248,44.677347,2812 7.063272,44.677332,2811 7.063356,44.677317,2810 7.063502,44.677427,2810 7.063574,44.677474,2811 7.063681,44.677509,2812 7.063891,44.677548,2812 7.063987,44.677461,2811 7.064041,44.677439,2810 7.064079,44.677461,2809 7.064105,44.677478,2807 7.064152,44.677499,2806 7.064196,44.677522,2805 7.064271,44.677547,2804 7.064372,44.677545,2806 7.064386,44.677548,2807 7.064409,44.677570,2809 7.064467,44.677593,2810 7.064573,44.677650,2811 7.064627,44.677670,2812 7.064695,44.677694,2812 7.064746,44.677706,2814 7.064782,44.677712,2814 7.064890,44.677738,2815 7.064965,44.677756,2816 7.065004,44.677764,2817 7.065021,44.677772,2817 7.065094,44.677825,2818 7.065235,44.677928,2819 7.065308,44.677968,2820 7.065358,44.678014,2821 7.065406,44.678075,2822 7.065447,44.678133,2824 7.065536,44.678203,2825 7.065589,44.678245,2826 7.065670,44.678319,2827 7.065769,44.678352,2828 7.065820,44.678385,2830 7.065868,44.678419,2831 7.065887,44.678427,2831 7.065904,44.678438,2832 7.065907,44.678447,2832 7.065912,44.678465,2833 7.065936,44.678482,2834 7.065987,44.678557,2837 7.066044,44.678585,2838 7.066111,44.678593,2839 7.066191,44.678656,2841 7.066240,44.678687,2842 7.066262,44.678700,2843 7.066275,44.678803,2845 7.066324,44.678873,2846 7.066369,44.678873,2847 7.066380,44.678913,2849 7.066399,44.678943,2850 7.066447,44.678983,2852 7.066458,44.678999,2853 7.066449,44.679008,2853 7.066466,44.679007,2853 7.066489,44.679024,2852 7.066490,44.679025,2851 7.066573,44.679061,2849 7.066651,44.679083,2848 7.066704,44.679073,2847 7.066795,44.679027,2844 7.066969,44.679070,2845 7.067220,44.679051,2843 7.067498,44.679058,2844 7.067664,44.679000,2841 7.067823,44.679035,2841 7.068000,44.679011,2840 7.068096,44.678988,2839 7.068164,44.678987,2838 7.068173,44.678971,2837 7.068243,44.678951,2835 7.068278,44.678968,2834 7.068331,44.678986,2833 7.068400,44.679018,2831 7.068574,44.679141,2832 7.068765,44.679157,2830 7.068925,44.679186,2830 7.068966,44.679200,2829 7.069026,44.679229,2830 7.069106,44.679256,2832 7.069208,44.679336,2833 7.069255,44.679376,2834 7.069344,44.679420,2833 7.069511,44.679516,2832 7.069568,44.679586,2830 7.069637,44.679599,2829 7.069677,44.679582,2828 7.069753,44.679558,2827 7.069895,44.679568,2826 7.070015,44.679630,2825 7.070085,44.679725,2825 7.070150,44.679793,2826 7.070160,44.679790,2826 7.070218,44.679822,2826 7.070204,44.679810,2827 7.070254,44.679855,2828 7.070397,44.679862,2828 7.070442,44.679866,2829 7.070505,44.679838,2831 7.070551,44.679809,2832 7.070592,44.679795,2833 7.070626,44.679797,2834 7.070653,44.679787,2834 7.070678,44.679768,2835 7.070725,44.679776,2836 7.070725,44.679781,2837 7.070725,44.679781,2837 7.070746,44.679777,2836 7.070805,44.679768,2836 7.070852,44.679747,2838 7.070903,44.679753,2838 7.070903,44.679749,2838 7.070900,44.679749,2838 7.070901,44.679725,2839 7.070931,44.679719,2840 7.070980,44.679708,2841 7.071045,44.679686,2843 7.071079,44.679680,2844 7.071120,44.679646,2845 7.071174,44.679621,2846 7.071201,44.679584,2847 7.071234,44.679582,2848 7.071259,44.679588,2848 7.071310,44.679586,2849 7.071368,44.679572,2850 7.071385,44.679555,2851 7.071396,44.679543,2852 7.071425,44.679537,2854 7.071440,44.679545,2855 7.071464,44.679543,2855 7.071484,44.679528,2855 7.071508,44.679540,2856 7.071534,44.679550,2857 7.071531,44.679543,2858 7.071543,44.679543,2859 7.071570,44.679553,2860 7.071641,44.679550,2861 7.071623,44.679547,2862 7.071659,44.679556,2863 7.071680,44.679534,2864 7.071719,44.679496,2865 7.071748,44.679492,2866 7.071774,44.679474,2867 7.071787,44.679498,2867 7.071809,44.679537,2868 7.071817,44.679561,2869 7.071804,44.679556,2870 7.071801,44.679562,2870 7.071801,44.679592,2871 7.071794,44.679612,2872 7.071791,44.679667,2872 7.071804,44.679674,2873 7.071851,44.679663,2874 7.071870,44.679667,2876 7.071861,44.679702,2877 7.071876,44.679711,2877 7.071927,44.679700,2877 7.071949,44.679704,2878 7.071964,44.679712,2879 7.071981,44.679717,2879 7.072053,44.679747,2880 7.072084,44.679714,2881 7.072092,44.679722,2882 7.072134,44.679724,2883 7.072161,44.679725,2884 7.072210,44.679735,2885 7.072217,44.679761,2886 7.072228,44.679773,2886 7.072257,44.679792,2887 7.072282,44.679779,2888 7.072311,44.679779,2888 7.072309,44.679827,2889 7.072304,44.679836,2890 7.072326,44.679843,2891 7.072343,44.679850,2892 7.072335,44.679847,2893 7.072338,44.679867,2894 7.072364,44.679902,2894 7.072420,44.679923,2895 7.072434,44.679916,2897 7.072445,44.679915,2898 7.072465,44.679930,2898 7.072454,44.679918,2899 7.072495,44.679903,2900 7.072532,44.679938,2901 7.072511,44.679952,2902 7.072493,44.679954,2903 7.072548,44.679968,2905 7.072571,44.679992,2906 7.072590,44.679999,2906 7.072589,44.679981,2905 7.072564,44.679998,2907 7.072583,44.680015,2908 7.072563,44.680028,2908 7.072584,44.680042,2909 7.072601,44.680061,2910 7.072610,44.680082,2911 7.072628,44.680082,2912 7.072651,44.680096,2913 7.072654,44.680143,2914 7.072670,44.680163,2915 7.072718,44.680150,2916 7.072755,44.680121,2917 7.072817,44.680127,2918 7.072828,44.680134,2919 7.072822,44.680143,2919 7.072824,44.680157,2920 7.072848,44.680186,2920 7.072859,44.680197,2921 7.072896,44.680209,2922 7.072946,44.680193,2922 7.072966,44.680232,2921 7.073016,44.680240,2923 7.073069,44.680241,2923 7.073131,44.680250,2925 7.073173,44.680275,2926 7.073190,44.680286,2927 7.073187,44.680295,2927 7.073192,44.680306,2928 7.073187,44.680338,2929 7.073190,44.680358,2930 7.073210,44.680388,2930 7.073257,44.680402,2931 7.073276,44.680365,2932 7.073283,44.680401,2931 7.073310,44.680376,2931 7.073295,44.680389,2930 7.073358,44.680368,2930 7.073364,44.680372,2931 7.073350,44.680382,2931 7.073341,44.680414,2933 7.073328,44.680421,2933 7.073336,44.680461,2933 7.073352,44.680473,2934 7.073369,44.680509,2934 7.073377,44.680508,2935 7.073410,44.680508,2936 7.073452,44.680480,2936 7.073497,44.680469,2937 7.073495,44.680470,2937 7.073478,44.680479,2937 7.073501,44.680469,2936 7.073507,44.680470,2937 7.073497,44.680481,2937 7.074174,44.680744,2955 7.074177,44.680737,2955 7.074193,44.680753,2955 7.074247,44.680800,2956 7.074241,44.680823,2958 7.074281,44.680840,2959 7.074316,44.680842,2959 7.074293,44.680843,2960 7.074302,44.680890,2961 7.074324,44.680899,2962 7.074346,44.680909,2963 7.074366,44.680920,2964 7.074349,44.680897,2965 7.074350,44.680902,2965 7.074397,44.680957,2966 7.074397,44.680970,2967 7.074407,44.680973,2968 7.074413,44.680974,2969 7.074417,44.680972,2970 7.074471,44.680985,2971 7.074455,44.680994,2973 7.074476,44.680979,2973 7.074468,44.680963,2974 7.074466,44.680978,2975 7.074526,44.681023,2976 7.074528,44.681039,2976 7.074533,44.681064,2977 7.074539,44.681065,2977 7.074564,44.681101,2978 7.074569,44.681065,2978 7.074570,44.681061,2978 7.074580,44.681070,2979 7.074596,44.681063,2980 7.074623,44.681045,2981 7.074594,44.681045,2981 7.074628,44.681053,2981 7.074645,44.681033,2982 7.074678,44.681023,2983 7.074692,44.681021,2984 7.074708,44.681003,2985 7.074713,44.680994,2984 7.074750,44.680949,2985 7.074771,44.680930,2986 7.074789,44.680922,2987 7.074817,44.680906,2987 7.074843,44.680865,2988 7.074850,44.680855,2988 7.074843,44.680855,2988 7.074856,44.680825,2989 7.074861,44.680828,2989 7.074851,44.680886,2990 7.074875,44.680864,2990 7.074884,44.680834,2990 7.074908,44.680823,2991 7.074921,44.680821,2991 7.074961,44.680823,2993 7.074983,44.680833,2993 7.074993,44.680823,2993 7.075015,44.680834,2994 7.075035,44.680829,2994 7.075032,44.680763,2994 7.075029,44.680785,2994 7.075013,44.680760,2994 7.075006,44.680773,2993 7.075003,44.680752,2994 7.074974,44.680759,2994 7.074989,44.680761,2994 7.074961,44.680765,2994 7.074986,44.680760,2994 7.074952,44.680757,2994 7.074944,44.680772,2994 7.074965,44.680820,2994 7.074976,44.680748,2994 7.075000,44.680783,2994 7.075030,44.680789,2994 7.075038,44.680772,2994 7.074994,44.680810,2994 7.074981,44.680812,2994 7.074970,44.680782,2993 7.074989,44.680707,2993 7.075009,44.680746,2993 7.074975,44.680797,2993 7.074977,44.680809,2993 7.074988,44.680819,2993 7.074989,44.680770,2993 7.074980,44.680750,2993 7.074970,44.680750,2993 7.074963,44.680793,2993 7.074978,44.680772,2994 7.075012,44.680766,2993 7.075001,44.680782,2993 7.074987,44.680793,2993 7.074983,44.680803,2993 7.074949,44.680768,2993 7.074982,44.680770,2993 7.074981,44.680722,2993 7.074960,44.680714,2993 7.074968,44.680769,2993 7.074979,44.680797,2993 7.074999,44.680777,2993 7.074982,44.680727,2993 7.074956,44.680713,2993 7.074958,44.680754,2993 7.074969,44.680767,2993 7.074978,44.680751,2993 7.074988,44.680742,2993 7.074982,44.680746,2993 7.075009,44.680784,2993 7.074941,44.680769,2993 7.074939,44.680809,2993 7.074974,44.680768,2993 7.074976,44.680770,2993 7.074976,44.680807,2993 7.075010,44.680747,2993 7.074976,44.680758,2993 7.075029,44.680737,2993 7.075027,44.680739,2993 7.075020,44.680838,2993 7.075014,44.680832,2993 7.075010,44.680819,2993 7.074987,44.680811,2993 7.074978,44.680830,2993 7.075014,44.680761,2993 7.074992,44.680844,2993 7.074978,44.680811,2992 7.074966,44.680803,2992 7.074968,44.680803,2992 7.074930,44.680798,2992 7.074925,44.680792,2992 7.074972,44.680775,2992 7.074987,44.680787,2992 7.074997,44.680732,2992 7.074998,44.680840,2992 7.075002,44.680808,2992 7.075004,44.680801,2992 7.075010,44.680828,2992 7.075011,44.680831,2992 7.074982,44.680777,2992 7.075004,44.680771,2992 7.074989,44.680780,2991 7.075014,44.680775,2992 7.074969,44.680745,2992 7.074997,44.680769,2991 7.075000,44.680754,2991 7.075019,44.680810,2991 7.075047,44.680789,2991 7.074992,44.680775,2992 7.074968,44.680805,2992 7.075032,44.680803,2992 7.075028,44.680813,2992 7.075016,44.680818,2992 7.075013,44.680811,2992 7.074994,44.680762,2992 7.074986,44.680756,2991 7.074993,44.680784,2991 7.074970,44.680841,2991 7.074959,44.680768,2991 7.074980,44.680627,2991 7.075001,44.680631,2990 7.075012,44.680669,2990 7.075090,44.680661,2990 7.075092,44.680686,2990 7.075091,44.680706,2990 7.075121,44.680738,2990 7.075205,44.680668,3007 7.075183,44.680588,3007 7.075135,44.680605,3006 7.075165,44.680624,3006 7.075151,44.680655,3005 7.075117,44.680644,3005 7.075105,44.680641,3005 7.075121,44.680635,3005 7.075245,44.680660,3004 7.075299,44.680609,3004 7.075302,44.680556,3004 7.075288,44.680550,3004 7.075219,44.680579,3003 7.075195,44.680526,3003 7.075194,44.680540,3003 7.075269,44.680537,3002 7.075308,44.680566,3002 7.075294,44.680562,3002 7.075184,44.680584,3002 7.075091,44.680589,3002 7.075050,44.680597,3001 7.075075,44.680613,3001 7.075115,44.680615,3001 7.075132,44.680609,3001 7.075122,44.680586,3000 7.075092,44.680581,3000 7.075052,44.680586,2999 7.075059,44.680588,2999 7.075048,44.680605,2999 7.075149,44.680665,2999 7.075123,44.680629,2998 7.075148,44.680607,2998 7.075147,44.680604,2998 7.075186,44.680621,2997 7.075142,44.680562,2997 7.075145,44.680583,2997 7.075170,44.680593,2997 7.075214,44.680611,2996 7.075217,44.680603,2996 7.075182,44.680596,2996 7.075191,44.680579,2997 7.075198,44.680596,2997 7.075182,44.680627,2998 7.075215,44.680615,2998 7.075206,44.680645,2998 7.075145,44.680634,3000 7.075124,44.680635,3001 7.075112,44.680636,3002 7.075012,44.680604,3002 7.075005,44.680600,3002 7.075035,44.680609,3003 7.075061,44.680616,3003 7.075083,44.680599,3003 7.075057,44.680608,3002 7.075065,44.680577,3002 7.075063,44.680564,3002 7.075068,44.680567,3003 7.075049,44.680592,3003 7.075065,44.680561,3004 7.075048,44.680589,3003 7.075049,44.680582,3003 7.075059,44.680614,3003 7.075047,44.680595,3003 7.075090,44.680612,3002 7.075081,44.680612,3002 7.075104,44.680624,3002 7.075089,44.680622,3002 7.075083,44.680624,3002 7.075084,44.680617,3002 7.075044,44.680598,3001 7.075025,44.680584,3001 7.075075,44.680617,3000 7.075053,44.680617,3000 7.075054,44.680609,3000 7.075056,44.680610,3000 7.075053,44.680634,2999 7.075023,44.680606,2999 7.075064,44.680592,2999 7.075063,44.680599,2999 7.075013,44.680567,2999 7.075072,44.680598,2999 7.075109,44.680605,3000 7.075115,44.680604,3000 7.075115,44.680593,3002 7.075119,44.680606,3002 7.075126,44.680591,3002 7.075138,44.680576,3002 7.075140,44.680572,3002 7.075112,44.680593,3002 7.075176,44.680581,3003 7.075150,44.680600,3003 7.075166,44.680612,3002 7.075167,44.680593,3002 7.075145,44.680578,3002 7.075148,44.680579,3002 7.075180,44.680579,3002 7.075204,44.680577,3003 7.075182,44.680580,3004 7.075188,44.680584,3003 7.075218,44.680568,3004 7.075206,44.680573,3004 7.075213,44.680565,3004 7.075271,44.680569,3007 7.075293,44.680568,3008 7.075283,44.680572,3008 7.075297,44.680566,3009 7.075324,44.680584,3008 7.075326,44.680586,3008 7.075308,44.680572,3008 7.075300,44.680565,3008 7.075279,44.680510,3008 7.075337,44.680627,3008 7.075288,44.680567,3008 7.075288,44.680557,3008 7.075272,44.680507,3007 7.075230,44.680512,3007 7.075219,44.680538,3006 7.075240,44.680573,3006 7.075279,44.680581,3006 7.075264,44.680586,3006 7.075306,44.680598,3005 7.075297,44.680531,3005 7.075220,44.680525,3005 7.075179,44.680513,3004 7.075204,44.680504,3004 7.075274,44.680536,3004 7.075294,44.680535,3005 7.075317,44.680542,3005 7.075300,44.680537,3004 7.075299,44.680564,3004 7.075311,44.680555,3004 7.075308,44.680563,3005 7.075340,44.680572,3007 7.075352,44.680569,3006 7.075362,44.680585,3006 7.075404,44.680597,3007 7.075405,44.680591,3007 7.075457,44.680581,3007 7.075408,44.680562,3008 7.075372,44.680539,3007 7.075388,44.680542,3008 7.075389,44.680552,3008 7.075368,44.680573,3008 7.075410,44.680575,3009 7.075441,44.680552,3009 7.075499,44.680574,3010 7.075525,44.680539,3009 7.075582,44.680499,3009 7.075549,44.680480,3009 7.075515,44.680458,3009 7.075535,44.680425,3009 7.075541,44.680461,3009 7.075512,44.680506,3008 7.075508,44.680486,3008 7.075467,44.680483,3007 7.075456,44.680521,3007 7.075475,44.680552,3009 7.075487,44.680568,3009 7.075501,44.680546,3010 7.075534,44.680563,3010 7.075547,44.680569,3010 7.075558,44.680572,3011 7.075520,44.680568,3012 7.075512,44.680559,3012 7.075497,44.680588,3013 7.075543,44.680614,3014 7.075564,44.680593,3014 7.075487,44.680582,3015 7.075510,44.680583,3016 7.075500,44.680605,3016 7.075473,44.680583,3016 7.075479,44.680586,3016 7.075488,44.680590,3016 7.075477,44.680596,3016 7.075493,44.680585,3015 7.075462,44.680607,3015 7.075448,44.680604,3014 7.075491,44.680588,3014 7.075486,44.680594,3014 7.075457,44.680609,3014 7.075465,44.680585,3014 7.075465,44.680572,3014 7.075463,44.680590,3013 7.075469,44.680599,3014 7.075530,44.680582,3013 7.075486,44.680602,3014 7.075490,44.680571,3013 7.075499,44.680580,3013 7.075509,44.680583,3013 7.075457,44.680605,3013 7.075475,44.680587,3013 7.075464,44.680593,3013 7.075466,44.680572,3013 7.075483,44.680567,3013 7.075456,44.680581,3012 7.075461,44.680581,3012 7.075477,44.680574,3012 7.075493,44.680566,3012 7.075494,44.680580,3012 7.075492,44.680602,3012 7.075481,44.680602,3012 7.075477,44.680605,3013 7.075514,44.680623,3012 7.075498,44.680620,3013 7.075510,44.680625,3013 7.075534,44.680622,3014 7.075547,44.680619,3014 7.075548,44.680614,3014 7.075537,44.680604,3015 7.075553,44.680610,3017 7.075561,44.680620,3017 7.075572,44.680626,3016 7.075558,44.680630,3016 7.075553,44.680632,3016 7.075535,44.680655,3018 7.075549,44.680643,3018 7.075546,44.680659,3018 7.075563,44.680669,3018 7.075537,44.680647,3018 7.075536,44.680656,3018 7.075526,44.680647,3018 7.075581,44.680661,3019 7.075565,44.680643,3019 7.075573,44.680659,3020 7.075567,44.680672,3020 7.075568,44.680680,3021 7.075551,44.680681,3022 7.075575,44.680676,3023 7.075582,44.680658,3023 7.075555,44.680678,3024 7.075574,44.680687,3025 7.075569,44.680680,3026 7.075579,44.680682,3027 7.075579,44.680689,3027 7.075562,44.680667,3028 7.075578,44.680684,3028 7.075572,44.680686,3027 7.075579,44.680687,3028 7.075609,44.680690,3029 7.075640,44.680694,3029 7.075642,44.680706,3031 7.075662,44.680706,3031 7.075656,44.680704,3032 7.075655,44.680704,3033 7.075647,44.680700,3033 7.075700,44.680719,3034 7.075693,44.680730,3034 7.075733,44.680711,3035 7.075752,44.680735,3035 7.075751,44.680738,3035 7.075767,44.680728,3035 7.075805,44.680737,3036 7.075797,44.680740,3037 7.075763,44.680727,3038 7.075784,44.680733,3039 7.075804,44.680745,3040 7.075820,44.680749,3041 7.075829,44.680728,3041 7.075832,44.680752,3042 7.075839,44.680755,3042 7.075851,44.680757,3043 7.075856,44.680757,3043 7.075865,44.680766,3044 7.075887,44.680749,3044 7.075886,44.680781,3046 7.075900,44.680777,3046 7.075898,44.680761,3047 7.075913,44.680767,3047 7.075942,44.680781,3049 7.075952,44.680782,3050 7.075962,44.680789,3050 7.075953,44.680780,3050 7.075951,44.680770,3051 7.075964,44.680800,3051 7.075967,44.680795,3051 7.075963,44.680790,3052 7.075939,44.680784,3052 7.075943,44.680798,3052 7.075946,44.680784,3052 7.075959,44.680769,3052 7.075949,44.680737,3052 7.075991,44.680788,3053 7.075983,44.680798,3054 7.075995,44.680787,3055 7.075999,44.680770,3056 7.076024,44.680790,3056 7.075998,44.680791,3058 7.075985,44.680793,3058 7.075974,44.680780,3058 7.076014,44.680781,3059 7.076037,44.680810,3060 7.076042,44.680805,3061 7.075997,44.680804,3063 7.076002,44.680811,3064 7.075965,44.680841,3064 7.075966,44.680843,3064 7.075963,44.680863,3065 7.075962,44.680858,3066 7.075991,44.680858,3067 7.076041,44.680850,3068 7.076065,44.680841,3068 7.076081,44.680848,3069 7.076074,44.680837,3070 7.076079,44.680849,3071 7.076092,44.680854,3071 7.076099,44.680851,3072 7.076101,44.680850,3072 7.076113,44.680853,3073 7.076139,44.680843,3074 7.076137,44.680851,3075 7.076140,44.680851,3075 7.076147,44.680858,3076 7.076167,44.680872,3077 7.076162,44.680858,3077 7.076141,44.680863,3078 7.076182,44.680886,3079 7.076140,44.680830,3079 7.076178,44.680868,3079 7.076176,44.680877,3080 7.076212,44.680874,3081 7.076227,44.680851,3081 7.076235,44.680868,3082 7.076242,44.680864,3082 7.076247,44.680863,3083 7.076258,44.680872,3083 7.076274,44.680871,3083 7.076260,44.680877,3083 7.076255,44.680876,3083 7.076249,44.680860,3084 7.076271,44.680869,3085 7.076298,44.680873,3086 7.076306,44.680882,3087 7.076337,44.680878,3088 7.076336,44.680864,3090 7.076344,44.680863,3090 7.076338,44.680860,3090 7.076362,44.680881,3090 7.076363,44.680884,3090 7.076339,44.680859,3090 7.076333,44.680849,3091 7.076339,44.680860,3091 7.076347,44.680859,3091 7.076328,44.680863,3091 7.076328,44.680875,3092 7.076339,44.680865,3092 7.076356,44.680838,3092 7.076348,44.680856,3092 7.076336,44.680876,3092 7.076368,44.680884,3093 7.076383,44.680881,3094 7.076404,44.680884,3095 7.076386,44.680872,3096 7.076392,44.680887,3097 7.076370,44.680892,3099 7.076414,44.680905,3099 7.076387,44.680894,3100 7.076387,44.680901,3099 7.076407,44.680894,3100 7.076397,44.680895,3101 7.076394,44.680894,3101 7.076393,44.680896,3102 7.076396,44.680894,3102 7.076419,44.680912,3102 7.076437,44.680920,3104 7.076439,44.680943,3105 7.076464,44.680915,3105 7.076448,44.680915,3106 7.076439,44.680924,3107 7.076443,44.680974,3107 7.076447,44.680967,3108 7.076451,44.680961,3108 7.076438,44.680961,3108 7.076471,44.680984,3109 7.076483,44.680953,3111 7.076500,44.680945,3111 7.076521,44.680950,3112 7.076538,44.680957,3112 7.076507,44.680956,3112 7.076519,44.680953,3112 7.076537,44.680952,3113 7.076555,44.680960,3114 7.076522,44.680944,3113 7.076550,44.680971,3114 7.076495,44.680968,3114 7.076532,44.680947,3114 7.076547,44.680980,3116 7.076540,44.680973,3116 7.076534,44.680971,3116 7.076570,44.680987,3117 7.076559,44.680997,3118 7.076541,44.681004,3119 7.076555,44.681007,3120 7.076528,44.681021,3120 7.076555,44.681026,3120 7.076574,44.681006,3120 7.076606,44.681023,3121 7.076640,44.681046,3121 7.076626,44.681051,3121 7.076642,44.681033,3121 7.076671,44.681009,3122 7.076660,44.681017,3123 7.076707,44.681013,3124 7.076723,44.681025,3125 7.076721,44.681045,3127 7.076734,44.681045,3127 7.076736,44.681046,3126 7.076730,44.681055,3125 7.076728,44.681059,3125 7.076703,44.681068,3126 7.076694,44.681082,3126 7.076746,44.681056,3126 7.076764,44.681072,3125 7.076769,44.681078,3125 7.076772,44.681080,3125 7.076813,44.681050,3126 7.076792,44.681028,3127 7.076807,44.681029,3127 7.076803,44.680994,3127 7.076809,44.681016,3127 7.076846,44.680999,3127 7.076863,44.681000,3128 7.076915,44.680986,3128 7.076918,44.680965,3128 7.076913,44.680964,3128 7.076938,44.680957,3127 7.076983,44.680965,3129 7.077053,44.680977,3130 7.077092,44.680980,3130 7.077058,44.680977,3130 7.077061,44.680964,3129 7.077079,44.680966,3127 7.077072,44.680989,3127 7.077079,44.680955,3126 7.077063,44.680942,3126 7.077055,44.680939,3126 7.077109,44.680932,3126 7.077150,44.680897,3127 7.077151,44.680914,3127 7.077156,44.680910,3127 7.077173,44.680895,3128 7.077177,44.680904,3127 7.077177,44.680904,3126 7.077177,44.680904,3125 7.077177,44.680904,3124 7.077215,44.680876,3125 7.077214,44.680865,3126 7.077236,44.680860,3128 7.077274,44.680849,3129 7.077285,44.680847,3130 7.077298,44.680842,3131 7.077317,44.680843,3132 7.077335,44.680830,3133 7.077366,44.680815,3135 7.077393,44.680806,3137 7.077433,44.680790,3138 7.077440,44.680787,3139 7.077472,44.680781,3141 7.077477,44.680767,3142 7.077482,44.680758,3143 7.077523,44.680722,3145 7.077550,44.680727,3146 7.077584,44.680720,3147 7.077591,44.680735,3148 7.077587,44.680756,3150 7.077628,44.680792,3151 7.077608,44.680773,3151 7.077618,44.680764,3151 7.077603,44.680795,3151 7.077611,44.680787,3150 7.077629,44.680763,3151 7.077614,44.680773,3151 7.077606,44.680760,3151 7.077592,44.680767,3151 7.077610,44.680753,3151 7.077619,44.680766,3152 7.077622,44.680765,3152 7.077606,44.680757,3151 7.077603,44.680757,3152 7.077627,44.680765,3153 7.077621,44.680770,3154 7.077639,44.680768,3154 7.077636,44.680775,3154 7.077614,44.680766,3154 7.077613,44.680753,3153 7.077609,44.680759,3153 7.077610,44.680759,3153 7.077639,44.680755,3153 7.077639,44.680766,3153 7.077607,44.680753,3154 7.077607,44.680764,3155 7.077609,44.680759,3155 7.077611,44.680764,3155 7.077617,44.680771,3155 7.077609,44.680760,3155 7.077630,44.680770,3155 7.077600,44.680768,3155 7.076755,44.681033,3119 7.076745,44.681036,3119 7.076708,44.681024,3117 7.076719,44.681036,3116 7.076653,44.681026,3116 7.076643,44.681014,3115 7.076649,44.681012,3115 7.076645,44.681027,3114 7.076636,44.681022,3114 7.076644,44.681022,3114 7.076652,44.681024,3114 7.076633,44.681041,3114 7.076634,44.681041,3113 7.076645,44.681017,3113 7.076613,44.681004,3113 7.076614,44.681022,3112 7.076624,44.681031,3112 7.076597,44.681014,3111 7.076583,44.681017,3109 7.076597,44.681016,3108 7.076616,44.681029,3108 7.076579,44.680990,3107 7.076609,44.680983,3106 7.076619,44.680971,3105 7.076653,44.680995,3105 7.076652,44.680992,3105 7.076604,44.680987,3105 7.076606,44.680972,3104 7.076603,44.680985,3103 7.076618,44.680970,3103 7.076578,44.680975,3103 7.076600,44.680975,3103 7.076599,44.680972,3102 7.076566,44.680957,3101 7.076572,44.680962,3101 7.076563,44.680951,3100 7.076515,44.680964,3099 7.076448,44.680972,3098 7.076477,44.680970,3098 7.076468,44.680977,3098 7.076482,44.680973,3098 7.076460,44.680983,3098 7.076477,44.681005,3098 7.076480,44.681005,3098 7.076471,44.680998,3098 7.076459,44.681008,3098 7.076452,44.681009,3098 7.076452,44.681001,3098 7.076452,44.680966,3098 7.076465,44.680998,3098 7.076462,44.680971,3098 7.076447,44.681002,3098 7.076473,44.680996,3098 7.076454,44.681010,3098 7.076472,44.681000,3098 7.076453,44.680989,3097 7.076437,44.681012,3097 7.076386,44.681014,3096 7.076385,44.680995,3095 7.076391,44.681009,3095 7.076435,44.681003,3095 7.076469,44.680975,3094 7.076415,44.681013,3094 7.076444,44.680990,3093 7.076454,44.680954,3092 7.076420,44.680943,3091 7.076415,44.680944,3091 7.076417,44.680940,3090 7.076433,44.680899,3089 7.076415,44.680910,3088 7.076419,44.680905,3087 7.076413,44.680902,3087 7.076394,44.680908,3086 7.076374,44.680894,3086 7.076370,44.680904,3085 7.076378,44.680888,3086 7.076389,44.680898,3086 7.076399,44.680902,3086 7.076379,44.680904,3086 7.076375,44.680891,3087 7.076399,44.680906,3087 7.076396,44.680907,3087 7.076428,44.680886,3087 7.076345,44.680901,3087 7.076384,44.680890,3086 7.076335,44.680904,3086 7.076323,44.680896,3085 7.076307,44.680899,3085 7.076278,44.680905,3083 7.076327,44.680900,3083 7.076341,44.680903,3082 7.076261,44.680899,3082 7.076218,44.680884,3081 7.076237,44.680898,3082 7.076230,44.680889,3081 7.076204,44.680882,3081 7.076157,44.680866,3080 7.076175,44.680892,3080 7.076209,44.680879,3080 7.076206,44.680883,3080 7.076199,44.680886,3080 7.076207,44.680884,3080 7.076169,44.680883,3080 7.076162,44.680878,3078 7.076150,44.680896,3078 7.076123,44.680893,3078 7.076114,44.680888,3078 7.076112,44.680889,3078 7.076133,44.680889,3077 7.076110,44.680886,3076 7.076074,44.680872,3075 7.076064,44.680876,3075 7.076051,44.680877,3075 7.076045,44.680880,3075 7.076028,44.680887,3075 7.076007,44.680870,3074 7.076016,44.680870,3075 7.076031,44.680895,3074 7.076015,44.680886,3074 7.076013,44.680882,3074 7.076030,44.680882,3074 7.076031,44.680872,3074 7.076033,44.680864,3074 7.076003,44.680901,3074 7.076053,44.680865,3073 7.076037,44.680863,3073 7.076017,44.680882,3073 7.076013,44.680891,3073 7.076014,44.680895,3073 7.076018,44.680889,3072 7.076033,44.680873,3071 7.076030,44.680865,3070 7.076063,44.680861,3070 7.076022,44.680859,3070 7.075976,44.680872,3069 7.075968,44.680872,3069 7.075922,44.680865,3067 7.075982,44.680845,3067 7.075990,44.680850,3066 7.075978,44.680856,3067 7.076003,44.680864,3066 7.076039,44.680864,3067 7.076047,44.680838,3067 7.075998,44.680820,3065 7.076017,44.680834,3065 7.076016,44.680833,3065 7.076024,44.680842,3064 7.075996,44.680835,3064 7.075952,44.680805,3063 7.075913,44.680824,3062 7.075931,44.680806,3061 7.075893,44.680788,3061 7.075875,44.680797,3060 7.075890,44.680805,3059 7.075878,44.680792,3059 7.075901,44.680789,3059 7.075877,44.680774,3059 7.075857,44.680734,3058 7.075860,44.680764,3058 7.075878,44.680775,3058 7.075869,44.680768,3058 7.075853,44.680776,3058 7.075874,44.680772,3058 7.075896,44.680758,3057 7.075863,44.680791,3057 7.075805,44.680798,3057 7.075816,44.680754,3057 7.075845,44.680750,3056 7.075837,44.680754,3055 7.075827,44.680773,3054 7.075819,44.680760,3054 7.075821,44.680755,3054 7.075810,44.680763,3053 7.075776,44.680748,3052 7.075793,44.680744,3051 7.075761,44.680773,3050 7.075722,44.680762,3050 7.075697,44.680757,3049 7.075721,44.680758,3049 7.075714,44.680748,3048 7.075691,44.680747,3047 7.075672,44.680724,3047 7.075665,44.680732,3046 7.075680,44.680732,3045 7.075677,44.680732,3045 7.075667,44.680722,3044 7.075667,44.680717,3043 7.075663,44.680721,3043 7.075676,44.680723,3042 7.075652,44.680726,3041 7.075631,44.680726,3040 7.075567,44.680705,3039 7.075602,44.680732,3040 7.075620,44.680709,3040 7.075644,44.680712,3041 7.075584,44.680718,3040 7.075588,44.680714,3039 7.075591,44.680718,3038 7.075637,44.680716,3038 7.075551,44.680717,3037 7.075601,44.680700,3036 7.075590,44.680676,3035 7.075581,44.680697,3035 7.075583,44.680689,3034 7.075580,44.680701,3033 7.075575,44.680697,3032 7.075580,44.680707,3032 7.075571,44.680720,3031 7.075584,44.680677,3031 7.075562,44.680667,3030 7.075551,44.680673,3030 7.075563,44.680658,3029 7.075568,44.680657,3029 7.075582,44.680671,3028 7.075601,44.680653,3027 7.075455,44.680648,3026 7.075540,44.680659,3026 7.075556,44.680654,3025 7.075498,44.680643,3024 7.075507,44.680627,3023 7.075497,44.680596,3023 7.075592,44.680580,3023 7.075572,44.680597,3023 7.075521,44.680615,3023 7.075530,44.680617,3023 7.075549,44.680613,3023 7.075544,44.680632,3023 7.075523,44.680652,3023 7.075538,44.680634,3023 7.075560,44.680624,3022 7.075571,44.680619,3022 7.075556,44.680626,3022 7.075552,44.680618,3021 7.075583,44.680641,3020 7.075555,44.680636,3019 7.075554,44.680596,3018 7.075567,44.680616,3018 7.075583,44.680625,3018 7.075520,44.680616,3017 7.075561,44.680614,3016 7.075586,44.680609,3016 7.075579,44.680592,3016 7.075556,44.680573,3015 7.075550,44.680615,3015 7.075580,44.680632,3015 7.075608,44.680586,3015 7.075612,44.680597,3016 7.075616,44.680598,3016 7.075579,44.680582,3016 7.075548,44.680589,3015 7.075503,44.680580,3015 7.075380,44.680554,3015 7.075537,44.680545,3015 7.075525,44.680559,3015 7.075503,44.680577,3016 7.075462,44.680555,3015 7.075488,44.680552,3015 7.075473,44.680571,3015 7.075485,44.680570,3014 7.075508,44.680555,3013 7.075512,44.680564,3013 7.075496,44.680563,3012 7.075501,44.680565,3012 7.075486,44.680573,3011 7.075462,44.680579,3011 7.075429,44.680589,3010 7.075401,44.680577,3011 7.075414,44.680583,3011 7.075466,44.680591,3011 7.075465,44.680575,3011 7.075395,44.680599,3010 7.075370,44.680575,3010 7.075377,44.680599,3009 7.075412,44.680583,3007 7.075421,44.680592,3006 7.075381,44.680584,3005 7.075358,44.680605,3004 7.075336,44.680621,3003 7.075368,44.680635,3003 7.075338,44.680635,3003 7.075369,44.680627,3003 7.075384,44.680629,3002 7.075398,44.680619,3002 7.075363,44.680620,3003 7.075392,44.680629,3003 7.075388,44.680625,3003 7.075319,44.680632,3004 7.075344,44.680628,3003 7.075388,44.680616,3004 7.075387,44.680623,3004 7.075383,44.680624,3004 7.075310,44.680599,3004 7.075338,44.680602,3004 7.075379,44.680657,3003 7.075428,44.680690,3002 7.075387,44.680607,3002 7.075341,44.680619,3003 7.075433,44.680676,3003 7.075301,44.680584,3002 7.075367,44.680600,3002 7.075308,44.680613,3003 7.075322,44.680605,3002 7.075359,44.680608,3002 7.075413,44.680636,3002 7.075407,44.680638,3002 7.075354,44.680629,3003 7.075286,44.680615,3002 7.075312,44.680605,3002 7.075372,44.680620,3002 7.075355,44.680633,3002 7.075396,44.680647,3002 7.075358,44.680636,3002 7.075335,44.680635,3002 7.075373,44.680612,3002 7.075358,44.680618,3001 7.075382,44.680606,3001 7.075372,44.680617,3001 7.075384,44.680608,3002 7.075373,44.680598,3002 7.075378,44.680608,3002 7.075373,44.680618,3003 7.075366,44.680600,3003 7.075353,44.680613,3003 7.075384,44.680621,3003 7.075366,44.680618,3002 7.075369,44.680604,3003 7.075358,44.680593,3003 7.075358,44.680589,3003 7.075349,44.680616,3003 7.075374,44.680595,3002 7.075391,44.680615,3002 7.075335,44.680586,3002 7.075324,44.680611,3002 7.075366,44.680634,3003 7.075373,44.680588,3002 7.075308,44.680545,3002 7.075299,44.680558,3002 7.075312,44.680577,3002 7.075356,44.680586,3002 7.075343,44.680607,3002 7.075370,44.680604,3002 7.075290,44.680610,3001 7.075338,44.680628,3001 7.075375,44.680592,3001 7.075341,44.680626,3001 7.075288,44.680569,3001 7.075292,44.680592,3000 7.075281,44.680584,3001 7.075364,44.680638,3001 7.075339,44.680595,3001 7.075409,44.680590,3000 7.075411,44.680592,3000 7.075388,44.680573,3000 7.075393,44.680575,3000 7.075395,44.680588,3000 7.075336,44.680619,3000 7.075388,44.680596,3000 7.075384,44.680617,3000 7.075387,44.680623,3001 7.075368,44.680569,3000 7.075382,44.680619,3001 7.075347,44.680591,3000 7.075349,44.680592,3001 7.075396,44.680610,3002 7.075363,44.680596,3001 7.075273,44.680535,3001 7.075306,44.680550,3001 7.075347,44.680580,3001 7.075309,44.680553,3001 7.075346,44.680583,3001 7.075332,44.680583,3001 7.075335,44.680582,3001 7.075330,44.680586,3000 7.075356,44.680579,3000 7.075362,44.680581,3001 7.075395,44.680587,3001 7.075330,44.680577,3001 7.075312,44.680577,3002 7.075341,44.680588,3002 7.075245,44.680530,3002 7.075309,44.680568,3002 7.075314,44.680588,3002 7.075339,44.680574,3002 7.075366,44.680582,3002 7.075328,44.680527,3002 7.075347,44.680559,3003 7.075322,44.680533,3002 7.075267,44.680432,3003 7.075297,44.680493,3002 7.075337,44.680564,3002 7.075336,44.680590,3002 7.075315,44.680593,3001 7.075270,44.680595,3000 7.075261,44.680588,2999 7.075278,44.680576,2998 7.075272,44.680602,2998 7.075286,44.680633,2997 7.075233,44.680605,2995 7.075198,44.680613,2993 7.075225,44.680613,2992 7.075210,44.680614,2991 7.075191,44.680616,2990 7.075179,44.680609,2988 7.075135,44.680606,2986 7.075112,44.680607,2986 7.075121,44.680653,2986 7.075134,44.680644,2985 7.075165,44.680625,2984 7.075170,44.680619,2984 7.075171,44.680609,2984 7.075126,44.680602,2984 7.075161,44.680597,2986 7.075233,44.680638,2986 7.075166,44.680595,2986 7.075102,44.680599,2987 7.075067,44.680538,2987 7.075094,44.680558,2986 7.075124,44.680591,2986 7.075087,44.680601,2986 7.075139,44.680607,2984 7.075155,44.680600,2983 7.075138,44.680589,2983 7.075089,44.680577,2985 7.075113,44.680563,2984 7.075161,44.680570,2982 7.075167,44.680573,2983 7.075151,44.680579,2983 7.075148,44.680570,2982 7.075146,44.680597,2983 7.075129,44.680615,2984 7.075122,44.680606,2984 7.075117,44.680611,2984 7.075124,44.680614,2983 7.075075,44.680602,2983 7.075085,44.680580,2984 7.075099,44.680563,2983 7.075086,44.680555,2982 7.075101,44.680625,2983 7.075112,44.680634,2984 7.075094,44.680625,2986 7.075087,44.680614,2984 7.075020,44.680630,2983 7.075039,44.680628,2983 7.075044,44.680629,2983 7.075044,44.680634,2984 7.075057,44.680623,2983 7.075045,44.680588,2982 7.075059,44.680566,2982 7.075091,44.680610,2982 7.075084,44.680583,2982 7.075118,44.680577,2982 7.075067,44.680569,2982 7.075040,44.680628,2983 7.075016,44.680611,2983 7.075054,44.680539,2982 7.075031,44.680601,2981 7.075032,44.680639,2981 7.075041,44.680626,2982 7.075071,44.680629,2983 7.075058,44.680612,2981 7.075081,44.680634,2980 7.075086,44.680635,2981 7.075086,44.680647,2982 7.075077,44.680637,2981 7.075095,44.680605,2981 7.075156,44.680554,2981 7.075155,44.680529,2982 7.075100,44.680568,2981 7.075224,44.680641,2980 7.075237,44.680651,2980 7.075243,44.680648,2981 7.075219,44.680644,2982 7.075144,44.680633,2982 7.075149,44.680634,2982 7.075124,44.680620,2982 7.075089,44.680661,2983 7.075090,44.680656,2982 7.075086,44.680590,2983 7.075088,44.680578,2981 7.075096,44.680578,2982 7.075103,44.680596,2981 7.075105,44.680607,2982 7.075100,44.680622,2982 7.075111,44.680614,2982 7.075125,44.680580,2980 7.075157,44.680550,2979 7.075119,44.680507,2980 7.075096,44.680578,2981 7.075087,44.680587,2980 7.075048,44.680596,2981 7.075036,44.680583,2981 7.075027,44.680550,2981 7.075078,44.680599,2983 7.075112,44.680586,2981 7.075114,44.680593,2979 7.075110,44.680604,2981 7.075114,44.680631,2981 7.075081,44.680643,2982 7.075065,44.680601,2981 7.075074,44.680596,2983 7.075050,44.680599,2982 7.075025,44.680578,2982 7.075027,44.680581,2982 7.075044,44.680606,2981 7.075068,44.680664,2981 7.075050,44.680715,2981 7.075040,44.680663,2981 7.075035,44.680630,2981 7.075053,44.680636,2981 7.075061,44.680630,2982 7.075056,44.680582,2981 7.075052,44.680558,2980 7.075063,44.680562,2982 7.075065,44.680557,2981 7.075067,44.680571,2983 7.075102,44.680553,2983 7.075121,44.680558,2982 7.075118,44.680567,2982 7.075039,44.680552,2982 7.075080,44.680559,2981 7.075122,44.680578,2981 7.075112,44.680588,2980 7.075123,44.680600,2979 7.075120,44.680613,2978 7.075150,44.680625,2977 7.075129,44.680614,2976 7.075094,44.680620,2974 7.075089,44.680626,2973 7.075102,44.680618,2972 7.075120,44.680638,2970 7.075115,44.680622,2969 7.075109,44.680579,2969 7.075129,44.680591,2968 7.075127,44.680602,2967 7.075121,44.680628,2966 7.075128,44.680659,2965 7.075136,44.680677,2965 7.075117,44.680705,2964 7.075077,44.680690,2964 7.075109,44.680682,2964 7.075107,44.680672,2965 7.075106,44.680669,2964 7.075102,44.680668,2964 7.075100,44.680676,2965 7.075080,44.680691,2966 7.075068,44.680693,2966 7.075060,44.680721,2966 7.075118,44.680702,2966 7.075119,44.680706,2967 7.075109,44.680705,2967 7.075123,44.680692,2967 7.075120,44.680688,2967 7.075070,44.680730,2966 7.075023,44.680748,2967 7.075047,44.680725,2967 7.075080,44.680710,2966 7.075054,44.680712,2966 7.075048,44.680749,2966 7.075017,44.680785,2966 7.075079,44.680706,2965 7.075089,44.680682,2966 7.075074,44.680698,2966 7.075105,44.680702,2965 7.075071,44.680689,2965 7.075087,44.680672,2965 7.075124,44.680648,2964 7.075103,44.680688,2963 7.075100,44.680709,2962 7.075052,44.680713,2962 7.075096,44.680734,2963 7.075044,44.680737,2963 7.074022,44.680778,2916 7.074016,44.680745,2915 7.073944,44.680702,2915 7.073858,44.680702,2916 7.073824,44.680691,2917 7.073810,44.680686,2917 7.073787,44.680674,2917 7.073780,44.680669,2917 7.073756,44.680669,2916 7.073697,44.680649,2916 7.073694,44.680610,2915 7.073666,44.680586,2914 7.073603,44.680567,2913 7.073556,44.680512,2913 7.073547,44.680537,2913 7.073521,44.680469,2913 7.073554,44.680461,2914 7.073600,44.680486,2914 7.073563,44.680472,2914 7.073570,44.680468,2914 7.073555,44.680466,2915 7.073515,44.680470,2916 7.073481,44.680457,2916 7.073471,44.680451,2917 7.073520,44.680503,2918 7.073530,44.680484,2918 7.073517,44.680463,2918 7.073484,44.680490,2918 7.073522,44.680457,2919 7.073514,44.680452,2920 7.073517,44.680461,2920 7.073467,44.680474,2920 7.073510,44.680470,2920 7.073527,44.680467,2920 7.073571,44.680461,2921 7.073507,44.680485,2921 7.073549,44.680455,2921 7.073501,44.680480,2922 7.073465,44.680443,2922 7.073452,44.680432,2923 7.073495,44.680442,2923 7.073536,44.680462,2923 7.073498,44.680467,2923 7.073584,44.680493,2924 7.073513,44.680478,2924 7.073445,44.680465,2924 7.073478,44.680492,2924 7.073512,44.680499,2924 7.073526,44.680483,2924 7.073522,44.680476,2925 7.073524,44.680467,2924 7.073506,44.680460,2924 7.073520,44.680449,2924 7.073511,44.680465,2925 7.073535,44.680458,2926 7.073543,44.680486,2926 7.073568,44.680466,2926 7.073528,44.680471,2926 7.073495,44.680479,2926 7.073568,44.680480,2926 7.073542,44.680476,2926 7.073524,44.680451,2926 7.073498,44.680483,2926 7.073475,44.680479,2926 7.073473,44.680487,2926 7.073529,44.680480,2927 7.073528,44.680472,2926 7.073520,44.680469,2927 7.073522,44.680475,2927 7.073529,44.680460,2927 7.073494,44.680464,2927 7.073483,44.680456,2927 7.073523,44.680476,2927 7.073526,44.680471,2928 7.073532,44.680460,2931 7.073523,44.680470,2931 7.073572,44.680471,2932 7.073508,44.680490,2932 7.073505,44.680503,2933 7.073492,44.680532,2933 7.073472,44.680549,2934 7.073442,44.680573,2934 7.073423,44.680603,2935 7.073352,44.680646,2936 7.073304,44.680676,2936 7.073300,44.680690,2937 7.073301,44.680726,2938 7.073293,44.680747,2939 7.073306,44.680755,2940 7.073327,44.680775,2942 7.073356,44.680854,2943 7.073407,44.680885,2943 7.073446,44.680917,2945 7.073497,44.680964,2946 7.073535,44.681008,2947 7.073552,44.681027,2948 7.073542,44.681075,2947 7.073575,44.681122,2947 7.073615,44.681177,2947 7.073617,44.681218,2949 7.073602,44.681224,2951 7.073601,44.681230,2952 7.073639,44.681269,2953 7.073655,44.681279,2954 7.073608,44.681317,2954 7.073561,44.681349,2954 7.073578,44.681362,2954 7.073635,44.681418,2954 7.073604,44.681418,2954 7.073602,44.681467,2954 7.073606,44.681492,2956 7.073629,44.681545,2956 7.073623,44.681585,2955 7.073618,44.681604,2955 7.073608,44.681658,2956 7.073576,44.681703,2956 7.073592,44.681741,2956 7.073613,44.681768,2957 7.073590,44.681775,2957 7.073586,44.681785,2957 7.073548,44.681842,2957 7.073520,44.681849,2958 7.073509,44.681862,2958 7.073510,44.681904,2958 7.073556,44.681944,2957 7.073562,44.681972,2957 7.073611,44.682013,2958 7.073627,44.682053,2959 7.073646,44.682050,2959 7.073671,44.682087,2958 7.073668,44.682069,2958 7.073686,44.682138,2957 7.073705,44.682184,2957 7.073744,44.682222,2956 7.073744,44.682221,2956 7.073689,44.682249,2956 7.073721,44.682220,2956 7.073750,44.682236,2956 7.073785,44.682237,2955 7.073816,44.682227,2955 7.073866,44.682233,2955 7.073900,44.682230,2954 7.073898,44.682235,2953 7.073927,44.682263,2953 7.073944,44.682285,2953 7.073891,44.682334,2953 7.073873,44.682366,2953 7.073873,44.682378,2954 7.073872,44.682423,2955 7.073906,44.682462,2956 7.073898,44.682471,2956 7.073925,44.682534,2956 7.073953,44.682550,2957 7.073948,44.682556,2957 7.073961,44.682590,2959 7.073976,44.682605,2960 7.073979,44.682656,2961 7.073982,44.682682,2963 7.074005,44.682723,2963 7.074018,44.682748,2962 7.074073,44.682813,2963 7.074102,44.682810,2964 7.074120,44.682838,2965 7.074122,44.682867,2966 7.074141,44.682889,2967 7.074168,44.682903,2968 7.074197,44.682945,2970 7.074200,44.682974,2971 7.074223,44.682982,2973 7.074237,44.682961,2974 7.074281,44.682968,2975 7.074301,44.682974,2975 7.074312,44.683014,2976 7.074327,44.683015,2977 7.074334,44.683011,2978 7.074399,44.682991,2979 7.074409,44.682948,2980 7.074419,44.682971,2980 7.074462,44.682981,2980 7.074488,44.683021,2981 7.074507,44.683041,2983 7.074541,44.683091,2983 7.074563,44.683067,2984 7.074564,44.683072,2985 7.074611,44.683085,2986 7.074634,44.683073,2986 7.074658,44.683087,2987 7.074721,44.683101,2989 7.074731,44.683088,2989 7.074741,44.683107,2990 7.074730,44.683104,2990 7.074727,44.683105,2992 7.074741,44.683140,2993 7.074750,44.683137,2993 7.074762,44.683140,2995 7.074789,44.683164,2996 7.074808,44.683171,2997 7.074899,44.683165,2999 7.074941,44.683153,3000 7.074929,44.683158,3000 7.074953,44.683163,3001 7.074983,44.683171,3002 7.075056,44.683147,3004 7.075085,44.683140,3005 7.075149,44.683129,3007 7.075110,44.683176,3007 7.075072,44.683174,3008 7.075100,44.683194,3010 7.075108,44.683179,3011 7.075161,44.683211,3012 7.075145,44.683230,3013 7.075148,44.683198,3013 7.075236,44.683209,3014 7.075148,44.683200,3015 7.075168,44.683199,3015 7.075170,44.683204,3016 7.075194,44.683236,3017 7.075176,44.683254,3018 7.075169,44.683238,3019 7.075185,44.683220,3020 7.075208,44.683228,3021 7.075213,44.683242,3021 7.075239,44.683205,3021 7.075252,44.683209,3022 7.075258,44.683222,3022 7.075248,44.683219,3023 7.075228,44.683237,3024 7.075146,44.683323,3024 7.075143,44.683332,3025 7.075172,44.683310,3026 7.075185,44.683335,3026 7.075226,44.683310,3027 7.075222,44.683359,3028 7.075145,44.683430,3029 7.075144,44.683441,3030 7.075210,44.683389,3031 7.075230,44.683417,3032 7.075232,44.683428,3033 7.075216,44.683447,3034 7.075211,44.683452,3035 7.075197,44.683498,3036 7.075177,44.683520,3036 7.075177,44.683525,3037 7.075214,44.683500,3038 7.075244,44.683520,3039 7.075280,44.683531,3040 7.075268,44.683555,3042 7.075270,44.683568,3043 7.075303,44.683562,3044 7.075309,44.683564,3043 7.075340,44.683574,3044 7.075355,44.683574,3044 7.075377,44.683596,3045 7.075410,44.683607,3047 7.075432,44.683605,3048 7.075438,44.683596,3048 7.075485,44.683594,3049 7.075477,44.683622,3050 7.075494,44.683665,3049 7.075467,44.683633,3049 7.075463,44.683625,3048 7.075477,44.683639,3048 7.075498,44.683637,3048 7.075506,44.683626,3047 7.075487,44.683629,3046 7.075444,44.683624,3045 7.075463,44.683642,3044 7.075476,44.683647,3044 7.075509,44.683664,3043 7.075516,44.683686,3043 7.075526,44.683709,3042 7.075542,44.683753,3040 7.075553,44.683762,3040 7.075565,44.683780,3039 7.075532,44.683779,3038 7.075526,44.683799,3037 7.075513,44.683791,3036 7.075500,44.683788,3035 7.075488,44.683789,3034 7.075450,44.683783,3033 7.075435,44.683793,3032 7.075486,44.683795,3031 7.075435,44.683812,3030 7.075446,44.683813,3029 7.075440,44.683827,3029 7.075456,44.683845,3028 7.075456,44.683850,3027 7.075442,44.683860,3027 7.075451,44.683864,3024 7.075452,44.683869,3023 7.075441,44.683870,3023 7.075425,44.683877,3022 7.075441,44.683893,3021 7.075469,44.683949,3021 7.075452,44.683963,3022 7.075492,44.683988,3022 7.075487,44.683992,3022 7.075499,44.683993,3022 7.075512,44.683999,3021 7.075510,44.683989,3021 7.075503,44.683995,3022 7.075515,44.683991,3021 7.075501,44.684013,3021 7.075502,44.684005,3020 7.075500,44.684018,3020 7.075496,44.684033,3020 7.075521,44.684022,3021 7.075529,44.684058,3020 7.075569,44.684071,3021 7.075558,44.684064,3021 7.075569,44.684053,3019 7.075559,44.684038,3019 7.075598,44.684073,3018 7.075588,44.684089,3016 7.075664,44.684163,3015 7.075607,44.684100,3015 7.075588,44.684105,3015 7.075602,44.684094,3015 7.075601,44.684090,3015 7.075583,44.684099,3016 7.075575,44.684108,3016 7.075601,44.684141,3017 7.075602,44.684133,3017 7.075657,44.684179,3018 7.075640,44.684192,3017 7.075646,44.684202,3016 7.075669,44.684208,3015 7.075668,44.684220,3015 7.075727,44.684267,3015 7.075736,44.684295,3014 7.075731,44.684298,3013 7.075714,44.684309,3015 7.075726,44.684325,3013 7.075749,44.684350,3012 7.075749,44.684366,3011 7.075738,44.684373,3010 7.075740,44.684388,3010 7.075723,44.684390,3008 7.075705,44.684401,3007 7.075709,44.684403,3006 7.075711,44.684439,3006 7.075732,44.684454,3005 7.075718,44.684460,3005 7.075728,44.684476,3004 7.075702,44.684481,3003 7.075695,44.684486,3002 7.075677,44.684513,3000 7.075685,44.684507,2999 7.075678,44.684507,3000 7.075674,44.684497,2998 7.075668,44.684518,2996 7.075658,44.684549,2995 7.075704,44.684598,2994 7.075708,44.684631,2993 7.075677,44.684649,2992 7.075682,44.684673,2991 7.075682,44.684665,2990 7.075668,44.684676,2989 7.075661,44.684683,2988 7.075633,44.684705,2987 7.075609,44.684679,2986 7.075622,44.684712,2985 7.075643,44.684750,2984 7.075641,44.684727,2984 7.075629,44.684694,2983 7.075626,44.684667,2983 7.075625,44.684621,2983 7.075623,44.684712,2983 7.075594,44.684733,2982 7.075682,44.684669,2982 7.075692,44.684681,2981 7.075681,44.684676,2981 7.075683,44.684679,2980 7.075679,44.684706,2980 7.075633,44.684750,2979 7.075650,44.684761,2978 7.075682,44.684741,2977 7.075689,44.684745,2976 7.075720,44.684743,2975 7.075732,44.684733,2974 7.075770,44.684728,2973 7.075782,44.684734,2972 7.075887,44.684741,2971 7.076001,44.684721,2971 7.076060,44.684709,2971 7.076076,44.684715,2971 7.076055,44.684736,2970 7.076044,44.684703,2969 7.076053,44.684706,2969 7.076074,44.684723,2968 7.076096,44.684708,2967 7.076116,44.684728,2966 7.076141,44.684747,2965 7.076138,44.684757,2964 7.076066,44.684688,2962 7.076045,44.684634,2962 7.076079,44.684704,2961 7.076045,44.684704,2961 7.076075,44.684771,2960 7.076042,44.684765,2960 7.076043,44.684758,2959 7.076081,44.684792,2958 7.076104,44.684814,2957 7.076124,44.684778,2956 7.076159,44.684778,2955 7.076217,44.684846,2955 7.076152,44.684820,2954 7.076143,44.684833,2953 7.076158,44.684837,2953 7.076153,44.684814,2952 7.076156,44.684817,2951 7.076157,44.684836,2951 7.076173,44.684851,2950 7.076187,44.684860,2949 7.076210,44.684898,2948 7.076224,44.684910,2946 7.076205,44.684925,2945 7.076181,44.684927,2944 7.076237,44.684953,2943 7.076242,44.684980,2941 7.076152,44.685013,2938 7.076172,44.685031,2937 7.076179,44.685046,2937 7.076196,44.685047,2936 7.076225,44.685079,2935 7.076169,44.685056,2935 7.076139,44.685080,2934 7.076078,44.685079,2933 7.076010,44.685052,2933 7.076058,44.685090,2932 7.076073,44.685122,2931 7.076057,44.685112,2931 7.076060,44.685134,2930 7.076064,44.685140,2930 7.076070,44.685149,2930 7.076062,44.685153,2929 7.076090,44.685193,2928 7.076091,44.685209,2927 7.076085,44.685195,2927 7.076128,44.685174,2926 7.076108,44.685184,2926 7.076110,44.685146,2924 7.076071,44.685198,2924 7.076065,44.685238,2924 7.076094,44.685254,2925 7.076075,44.685185,2925 7.076105,44.685183,2925 7.076160,44.685161,2924 7.076122,44.685178,2923 7.076061,44.685234,2922 7.076091,44.685234,2922 7.076139,44.685162,2921 7.076223,44.685025,2922 7.076197,44.685144,2923 7.076105,44.685241,2921 7.076112,44.685227,2921 7.076177,44.685246,2920 7.076137,44.685211,2919 7.076103,44.685194,2918 7.076087,44.685187,2917 7.076111,44.685162,2916 7.076122,44.685259,2916 7.076118,44.685283,2915 7.076138,44.685266,2914 7.076157,44.685253,2914 7.076152,44.685260,2913 7.076095,44.685293,2914 7.076102,44.685309,2914 7.076171,44.685298,2914 7.076200,44.685300,2914 7.076232,44.685293,2914 7.076077,44.685272,2915 7.076058,44.685261,2915 7.076090,44.685274,2914 7.076158,44.685307,2914 7.076157,44.685298,2914 7.079667,44.688726,2645 7.079609,44.688729,2646 7.079661,44.688683,2647 7.079679,44.688714,2646 7.079706,44.688735,2645 7.079771,44.688748,2644 7.079830,44.688768,2643 7.079831,44.688768,2642 7.079846,44.688813,2641 7.079881,44.688853,2639 7.079916,44.688867,2638 7.079953,44.688889,2637 7.079986,44.688940,2635 7.079993,44.688953,2635 7.079998,44.688976,2634 7.079993,44.689024,2633 7.079990,44.689043,2632 7.079972,44.689103,2630 7.079949,44.689128,2629 7.079998,44.689129,2628 7.080054,44.689099,2627 7.080107,44.689018,2626 7.080153,44.688981,2624 7.080178,44.688960,2623 7.080237,44.688928,2622 7.080292,44.688908,2621 7.080317,44.688904,2619 7.080282,44.688974,2618 7.080293,44.689061,2616 7.080292,44.689100,2615 7.080285,44.689141,2614 7.080306,44.689202,2612 7.080337,44.689235,2611 7.080347,44.689269,2610 7.080342,44.689286,2609 7.080324,44.689365,2607 7.080302,44.689390,2606 7.080255,44.689465,2605 7.080213,44.689501,2604 7.080153,44.689568,2603 7.080118,44.689617,2603 7.080093,44.689626,2603 7.080082,44.689640,2604 7.080155,44.689692,2604 7.080196,44.689797,2602 7.080210,44.689843,2601 7.080230,44.689904,2600 7.080257,44.690035,2599 7.080241,44.690054,2599 7.080284,44.690145,2598 7.080298,44.690180,2596 7.080276,44.690246,2596 7.080277,44.690315,2595 7.080268,44.690432,2594 7.080333,44.690489,2592 7.080351,44.690536,2591 7.080348,44.690578,2590 7.080374,44.690655,2589 7.080418,44.690748,2588 7.080462,44.690798,2586 7.080515,44.690880,2585 7.080551,44.690916,2583 7.080598,44.690982,2581 7.080647,44.691056,2580 7.080669,44.691126,2579 7.080696,44.691149,2578 7.080724,44.691227,2577 7.080726,44.691256,2576 7.080730,44.691340,2576 7.080752,44.691425,2575 7.080785,44.691505,2574 7.080810,44.691526,2573 7.080850,44.691603,2571 7.080851,44.691660,2570 7.080913,44.691751,2568 7.080969,44.691762,2567 7.081048,44.691788,2566 7.081057,44.691800,2566 7.081198,44.691842,2565 7.081259,44.691890,2564 7.081374,44.691948,2563 7.081376,44.691941,2563 7.081370,44.691921,2562 7.081482,44.692035,2561 7.081432,44.692015,2561 7.081496,44.692039,2561 7.081601,44.692050,2560 7.081664,44.692078,2559 7.081758,44.692130,2558 7.081835,44.692157,2557 7.081869,44.692159,2556 7.081947,44.692188,2556 7.081994,44.692224,2554 7.082083,44.692256,2552 7.082142,44.692298,2551 7.082163,44.692325,2551 7.082220,44.692337,2550 7.082237,44.692348,2549 7.082274,44.692366,2548 7.082293,44.692335,2548 7.082327,44.692287,2546 7.082345,44.692317,2545 7.082403,44.692341,2544 7.082454,44.692294,2542 7.082531,44.692264,2540 7.082582,44.692288,2539 7.082692,44.692338,2538 7.082750,44.692364,2537 7.082808,44.692368,2535 7.082818,44.692359,2534 7.082883,44.692434,2533 7.082943,44.692501,2531 7.082948,44.692480,2530 7.083005,44.692470,2528 7.083070,44.692471,2527 7.083094,44.692469,2525 7.083117,44.692472,2524 7.083149,44.692459,2523 7.083177,44.692442,2521 7.083213,44.692426,2520 7.083247,44.692444,2519 7.083265,44.692454,2518 7.083323,44.692488,2516 7.083333,44.692478,2515 7.083354,44.692442,2514 7.083400,44.692414,2512 7.083416,44.692389,2511 7.083434,44.692387,2510 7.083483,44.692378,2508 7.083522,44.692377,2506 7.083535,44.692424,2505 7.083574,44.692432,2504 7.083606,44.692370,2503 7.083596,44.692359,2502 7.083631,44.692329,2503 7.083609,44.692277,2502 7.083614,44.692254,2502 7.083643,44.692209,2501 7.083656,44.692103,2498 7.083706,44.692057,2497 7.083755,44.692091,2496 7.083763,44.692073,2495 7.083778,44.692013,2494 7.083888,44.691899,2493 7.083946,44.691890,2492 7.083996,44.691889,2490 7.084003,44.691848,2489 7.084061,44.691809,2488 7.084088,44.691796,2486 7.084147,44.691762,2485 7.084175,44.691723,2484 7.084221,44.691675,2483 7.084262,44.691638,2482 7.084279,44.691673,2481 7.084280,44.691757,2479 7.084291,44.691795,2478 7.084318,44.691763,2477 7.084324,44.691745,2476 7.084385,44.691701,2474 7.084433,44.691686,2473 7.084441,44.691704,2472 7.084445,44.691749,2471 7.084472,44.691773,2469 7.084463,44.691803,2468 7.084446,44.691821,2467 7.084491,44.691830,2466 7.084524,44.691811,2464 7.084587,44.691748,2464 7.084647,44.691713,2463 7.084635,44.691738,2461 7.084636,44.691791,2460 7.084643,44.691825,2460 7.084651,44.691865,2459 7.084671,44.691841,2458 7.084717,44.691825,2456 7.084744,44.691828,2455 7.084760,44.691821,2454 7.084792,44.691807,2452 7.084822,44.691780,2451 7.084842,44.691748,2451 7.084908,44.691706,2450 7.084905,44.691759,2449 7.084912,44.691799,2447 7.084958,44.691863,2445 7.084944,44.691934,2443 7.084974,44.691982,2441 7.085024,44.691968,2440 7.085075,44.691906,2438 7.085090,44.691864,2436 7.085101,44.691856,2436 7.085144,44.691881,2435 7.085170,44.691906,2433 7.085210,44.691956,2431 7.085219,44.691990,2430 7.085232,44.692028,2429 7.085299,44.692002,2427 7.085312,44.692006,2425 7.085350,44.692021,2423 7.085345,44.692030,2422 7.085342,44.692029,2422 7.085359,44.692034,2421 7.085381,44.692048,2421 7.085415,44.692043,2420 7.085437,44.691986,2419 7.085447,44.691986,2418 7.085501,44.691991,2417 7.085498,44.692035,2416 7.085529,44.692047,2415 7.085554,44.692029,2414 7.085625,44.692014,2412 7.085624,44.692056,2411 7.085655,44.692049,2410 7.085673,44.692066,2409 7.085696,44.692078,2408 7.085704,44.692090,2407 7.085785,44.692087,2405 7.085822,44.692122,2404 7.085856,44.692191,2403 7.085915,44.692245,2402 7.085960,44.692236,2401 7.086019,44.692180,2398 7.086088,44.692178,2397 7.086172,44.692198,2395 7.086253,44.692214,2394 7.086285,44.692236,2393 7.086344,44.692243,2392 7.086346,44.692287,2391 7.086399,44.692322,2388 7.086383,44.692342,2387 7.086390,44.692357,2386 7.086428,44.692365,2385 7.086477,44.692411,2384 7.086524,44.692408,2382 7.086507,44.692386,2382 7.086529,44.692400,2381 7.086552,44.692418,2380 7.086570,44.692442,2379 7.086588,44.692462,2379 7.086601,44.692450,2378 7.086593,44.692455,2377 7.086631,44.692452,2375 7.086624,44.692465,2374 7.086661,44.692459,2373 7.086677,44.692457,2372 7.086682,44.692454,2372 7.086656,44.692460,2371 7.086681,44.692478,2370 7.086712,44.692493,2369 7.086712,44.692487,2367 7.086757,44.692505,2366 7.086772,44.692539,2364 7.086751,44.692578,2364 7.086733,44.692580,2363 7.086725,44.692572,2362 7.086712,44.692579,2361 7.086725,44.692575,2360 7.086710,44.692592,2359 7.086697,44.692602,2358 7.086696,44.692607,2357 7.086736,44.692648,2356 7.086729,44.692690,2355 7.086676,44.692676,2354 7.086705,44.692692,2353 7.086724,44.692702,2351 7.086758,44.692711,2350 7.086769,44.692719,2349 7.086768,44.692754,2347 7.086669,44.692792,2346 7.086628,44.692812,2344 7.086653,44.692811,2343 7.086685,44.692855,2342 7.086677,44.692930,2341 7.086683,44.692971,2340 7.086695,44.693010,2339 7.086670,44.693080,2337 7.086666,44.693101,2336 7.086664,44.693126,2335 7.086730,44.693184,2332 7.086757,44.693182,2331 7.086789,44.693213,2330 7.086809,44.693273,2329 7.086827,44.693314,2328 7.086878,44.693354,2327 7.086917,44.693404,2326 7.086992,44.693456,2324 7.087064,44.693478,2322 7.087126,44.693485,2321 7.087194,44.693536,2319 7.087233,44.693534,2318 7.087259,44.693567,2317 7.087320,44.693622,2316 7.087367,44.693645,2315 7.087434,44.693689,2314 7.087528,44.693730,2312 7.087825,44.693744,2311 7.087974,44.693859,2310 7.088047,44.693945,2311 7.088112,44.693986,2312 7.088202,44.694011,2312 7.088407,44.694054,2311 7.088525,44.694183,2312 7.088543,44.694247,2312 7.088658,44.694278,2313 7.088743,44.694293,2315 7.088763,44.694348,2316 7.088815,44.694422,2316 7.088934,44.694502,2316 7.089075,44.694648,2316 7.089237,44.694837,2317 7.089308,44.694965,2317 7.089336,44.695054,2318 7.089367,44.695175,2319 7.089359,44.695280,2319 7.089431,44.695363,2319 7.089588,44.695473,2318 7.089598,44.695557,2319 7.089605,44.695607,2318 7.089634,44.695668,2318 7.089731,44.695723,2317 7.089744,44.695773,2316 7.089754,44.695931,2315 7.089747,44.696042,2314 7.089757,44.696070,2313 7.089855,44.696113,2312 7.089892,44.696176,2311 7.089869,44.696266,2309 7.089837,44.696321,2307 7.089806,44.696379,2306 7.089819,44.696428,2305 7.089840,44.696490,2303 7.089885,44.696535,2301 7.089911,44.696558,2300 7.089921,44.696608,2297 7.089928,44.696621,2296 7.089964,44.696652,2294 7.089992,44.696676,2292 7.090014,44.696720,2290 7.089983,44.696733,2289 7.089998,44.696747,2288 7.090005,44.696766,2287 7.090030,44.696785,2286 7.090075,44.696795,2285 7.090108,44.696814,2283 7.090151,44.696841,2282 7.090195,44.696844,2280 7.090256,44.696878,2278 7.090272,44.696889,2277 7.090303,44.696878,2276 7.090313,44.696918,2275 7.090342,44.696953,2272 7.090395,44.696953,2271 7.090450,44.696949,2270 7.090540,44.696971,2268 7.090599,44.696981,2267 7.090696,44.697011,2265 7.090766,44.696994,2264 7.090831,44.697000,2263 7.090876,44.697029,2262 7.090867,44.697054,2261 7.090876,44.697097,2260 7.090875,44.697116,2259 7.090816,44.697141,2258 7.090793,44.697150,2256 7.090828,44.697157,2255 7.090841,44.697219,2254 7.090820,44.697265,2252 7.090783,44.697302,2251 7.090723,44.697285,2250 7.090606,44.697253,2247 7.090589,44.697260,2246 7.090503,44.697250,2244 7.090475,44.697255,2243 7.090510,44.697292,2242 7.090492,44.697310,2240 7.090476,44.697328,2239 7.090461,44.697356,2237 7.090428,44.697378,2237 7.090431,44.697400,2236 7.090383,44.697428,2234 7.090339,44.697360,2234 7.090301,44.697330,2234 7.090268,44.697331,2234 7.090262,44.697366,2234 7.090201,44.697361,2235 7.090153,44.697396,2234 7.090118,44.697412,2234 7.090106,44.697484,2234 7.090111,44.697511,2235 7.090125,44.697476,2235 7.090129,44.697467,2235 7.090141,44.697419,2235 7.090101,44.697422,2235 7.090077,44.697428,2234 7.089978,44.697532,2233 7.090049,44.697600,2232 7.090108,44.697637,2233 7.090266,44.697742,2232 7.090194,44.697767,2231 7.090138,44.697782,2230 7.090138,44.697813,2228 7.090119,44.697851,2227 7.090094,44.697908,2226 7.090007,44.697943,2225 7.090029,44.697961,2224 7.090019,44.698082,2222 7.090040,44.698130,2221 7.089997,44.698193,2220 7.089927,44.698190,2219 7.089960,44.698244,2218 7.089928,44.698307,2217 7.089951,44.698316,2216 7.089932,44.698335,2215 7.089949,44.698390,2214 7.089948,44.698410,2213 7.089907,44.698442,2212 7.089894,44.698486,2211 7.089886,44.698510,2210 7.089863,44.698516,2210 7.089904,44.698566,2208 7.089865,44.698645,2206 7.089889,44.698677,2205 7.089892,44.698746,2203 7.089898,44.698801,2201 7.089894,44.698846,2200 7.089876,44.698903,2199 7.089886,44.698931,2198 7.089928,44.698961,2196 7.089911,44.698963,2195 7.089923,44.698997,2194 7.089934,44.699055,2192 7.089925,44.699110,2191 7.089890,44.699176,2189 7.089869,44.699216,2188 7.089782,44.699295,2187 7.089816,44.699330,2186 7.089823,44.699333,2185 7.089819,44.699368,2182 7.089840,44.699385,2181 7.089850,44.699419,2181 7.089847,44.699434,2180 7.089830,44.699466,2178 7.089808,44.699529,2177 7.089792,44.699560,2176 7.089774,44.699567,2175 7.089755,44.699589,2173 7.089769,44.699643,2172 7.089787,44.699662,2171 7.089792,44.699681,2170 7.089801,44.699737,2168 7.089788,44.699770,2167 7.089787,44.699801,2167 7.089768,44.699804,2166 7.089686,44.699930,2165 7.089711,44.699991,2163 7.089716,44.700031,2162 7.089718,44.700066,2161 7.089691,44.700137,2160 7.089653,44.700194,2159 7.089661,44.700223,2158 7.089660,44.700239,2157 7.089735,44.700327,2157 7.089684,44.700459,2155 7.089685,44.700501,2153 7.089705,44.700578,2152 7.089697,44.700643,2150 7.089690,44.700705,2149 7.089664,44.700792,2147 7.089649,44.700872,2145 7.089604,44.700959,2146 7.089569,44.701098,2145 7.089541,44.701189,2144 7.089501,44.701269,2143 7.089534,44.701314,2142 7.089565,44.701331,2141 7.089617,44.701358,2139 7.089632,44.701370,2138 7.089665,44.701395,2137 7.089673,44.701446,2135 7.089606,44.701492,2134 7.089588,44.701516,2133 7.089523,44.701619,2133 7.089466,44.701739,2134 7.089420,44.701840,2135 7.089417,44.701894,2136 7.089578,44.701919,2136 7.089739,44.701891,2136 7.089817,44.701921,2134 7.089864,44.701961,2133 7.089902,44.701988,2132 7.089933,44.702013,2131 7.089945,44.702046,2130 7.089985,44.702074,2128 7.090044,44.702097,2127 7.090077,44.702096,2126 7.090097,44.702114,2125 7.090256,44.702132,2123 7.090262,44.702145,2122 7.090283,44.702189,2121 7.090353,44.702220,2118 7.090403,44.702207,2117 7.090486,44.702215,2115 7.090534,44.702222,2114 7.090568,44.702239,2112 7.090590,44.702237,2111 7.090640,44.702255,2110 7.090717,44.702273,2107 7.090749,44.702281,2106 7.090810,44.702289,2105 7.090943,44.702314,2103 7.091075,44.702316,2102 7.091173,44.702312,2101 7.091313,44.702308,2099 7.091375,44.702300,2097 7.091434,44.702297,2096 7.091523,44.702296,2095 7.091645,44.702270,2093 7.091685,44.702275,2092 7.091739,44.702271,2090 7.091818,44.702259,2088 7.091885,44.702251,2087 7.091940,44.702246,2086 7.092059,44.702226,2084 7.092128,44.702228,2083 7.092232,44.702239,2081 7.092380,44.702263,2081 7.092496,44.702240,2080 7.092592,44.702202,2079 7.092714,44.702188,2078 7.092810,44.702192,2076 7.092878,44.702183,2075 7.092968,44.702155,2074 7.093071,44.702125,2072 7.093169,44.702090,2070 7.093347,44.702088,2069 7.093390,44.702115,2069 7.093510,44.702053,2068 7.093602,44.701977,2066 7.093675,44.701947,2065 7.093749,44.701940,2064 7.093804,44.701925,2063 7.093862,44.701894,2062 7.093907,44.701866,2061 7.093935,44.701854,2060 7.094042,44.701819,2057 7.094128,44.701800,2056 7.094184,44.701764,2054 7.094221,44.701744,2053 7.094282,44.701721,2051 7.094397,44.701673,2049 7.094539,44.701653,2047 7.094587,44.701663,2046 7.094634,44.701672,2046 7.094727,44.701672,2045 7.094832,44.701646,2044 7.094927,44.701622,2043 7.095007,44.701598,2041 7.095091,44.701543,2040 7.095179,44.701506,2039 7.095305,44.701472,2037 7.095366,44.701470,2036 7.095397,44.701479,2036 7.095394,44.701463,2036 7.095359,44.701423,2036 7.095522,44.701423,2035 7.095634,44.701371,2034 7.095703,44.701333,2033 7.095773,44.701267,2032 7.095784,44.701233,2031 7.095824,44.701173,2030</coordinates></LineString></Placemark></Document></kml>