<?xml version="1.0" encoding="UTF-8"?>
<kml xmlns="http://www.opengis.net/kml/2.2"><Document><name>Alta Linea Continua – Stage 2: Capanna Morgantini to Laghetto dell'Abisso</name><Style id="l"><LineStyle><color>ff2b30c4</color><width>4</width></LineStyle></Style><Placemark><name>Alta Linea Continua – Stage 2: Capanna Morgantini to Laghetto dell'Abisso</name><styleUrl>#l</styleUrl><LineString><tessellate>1</tessellate><altitudeMode>clampToGround</altitudeMode><coordinates>7.635753,44.177966,2184 7.635716,44.177924,2185 7.635666,44.177919,2186 7.635610,44.177912,2187 7.635566,44.177884,2187 7.635512,44.177796,2188 7.635530,44.177754,2189 7.635579,44.177728,2190 7.635616,44.177718,2191 7.635671,44.177716,2192 7.635753,44.177710,2194 7.635804,44.177666,2195 7.635796,44.177618,2196 7.635795,44.177585,2196 7.635805,44.177557,2198 7.635823,44.177543,2198 7.635856,44.177526,2198 7.635869,44.177505,2199 7.635884,44.177451,2200 7.635903,44.177413,2201 7.635902,44.177372,2202 7.635906,44.177321,2203 7.636067,44.177299,2203 7.636128,44.177274,2203 7.636133,44.177277,2203 7.636143,44.177302,2203 7.635999,44.177302,2203 7.635893,44.177324,2204 7.635889,44.177327,2204 7.635875,44.177310,2204 7.635755,44.177258,2205 7.635622,44.177228,2206 7.635516,44.177213,2207 7.635493,44.177222,2209 7.635466,44.177091,2209 7.635462,44.177033,2210 7.635436,44.177048,2211 7.635447,44.177018,2210 7.635387,44.176936,2210 7.635388,44.176941,2209 7.635366,44.176919,2209 7.635297,44.176846,2209 7.635242,44.176793,2209 7.635231,44.176746,2209 7.635214,44.176706,2211 7.635177,44.176694,2211 7.635135,44.176696,2212 7.635142,44.176695,2212 7.635126,44.176588,2213 7.635114,44.176506,2215 7.635103,44.176447,2216 7.635090,44.176429,2216 7.635053,44.176392,2217 7.635025,44.176369,2218 7.635011,44.176339,2219 7.635004,44.176321,2219 7.634973,44.176308,2220 7.634954,44.176305,2222 7.634928,44.176310,2222 7.634850,44.176289,2222 7.634759,44.176258,2222 7.634717,44.176234,2223 7.634618,44.176202,2225 7.634566,44.176192,2226 7.634555,44.176190,2227 7.634538,44.176186,2227 7.634499,44.176172,2228 7.634465,44.176182,2229 7.634432,44.176162,2231 7.634403,44.176143,2232 7.634411,44.176132,2233 7.634387,44.176118,2234 7.634343,44.176128,2236 7.634279,44.176096,2237 7.634245,44.176074,2238 7.634226,44.176065,2238 7.634219,44.176062,2240 7.634233,44.176055,2240 7.634217,44.176044,2240 7.634255,44.176080,2241 7.634267,44.176053,2241 7.634283,44.176058,2242 7.634261,44.176032,2243 7.634252,44.175996,2245 7.634275,44.175991,2246 7.634293,44.175968,2247 7.634282,44.175928,2248 7.634296,44.175929,2249 7.634278,44.175935,2250 7.634213,44.175914,2251 7.634187,44.175873,2253 7.634219,44.175881,2254 7.634209,44.175862,2256 7.634202,44.175852,2257 7.634171,44.175826,2258 7.634169,44.175784,2260 7.634178,44.175734,2261 7.634146,44.175722,2262 7.634103,44.175731,2263 7.634103,44.175744,2264 7.634100,44.175737,2265 7.634097,44.175710,2265 7.634092,44.175695,2266 7.634078,44.175674,2267 7.634059,44.175632,2269 7.634105,44.175579,2269 7.634130,44.175550,2269 7.634119,44.175494,2271 7.634131,44.175467,2272 7.634102,44.175438,2273 7.634070,44.175421,2274 7.634045,44.175374,2275 7.634031,44.175341,2276 7.634039,44.175350,2277 7.634046,44.175332,2278 7.634007,44.175309,2279 7.633975,44.175293,2280 7.633971,44.175280,2281 7.633930,44.175259,2282 7.633896,44.175253,2283 7.633831,44.175244,2284 7.633802,44.175224,2285 7.633779,44.175218,2287 7.633780,44.175220,2287 7.633792,44.175222,2287 7.633773,44.175212,2287 7.633758,44.175214,2287 7.633761,44.175213,2286 7.633757,44.175216,2286 7.633757,44.175216,2286 7.633758,44.175201,2287 7.633744,44.175169,2288 7.633733,44.175127,2289 7.633721,44.175127,2290 7.633704,44.175096,2292 7.633718,44.175043,2294 7.633727,44.175043,2295 7.633710,44.175019,2296 7.633666,44.175000,2297 7.633640,44.174985,2299 7.633620,44.174964,2299 7.633621,44.174952,2299 7.633622,44.174955,2300 7.633599,44.174928,2301 7.633604,44.174941,2301 7.633641,44.174938,2301 7.633596,44.174891,2302 7.633587,44.174872,2302 7.633567,44.174848,2302 7.633562,44.174836,2303 7.633550,44.174832,2303 7.633529,44.174833,2303 7.633538,44.174830,2303 7.633537,44.174788,2304 7.633514,44.174748,2305 7.633481,44.174706,2306 7.633441,44.174660,2307 7.633394,44.174621,2307 7.633342,44.174589,2308 7.633302,44.174557,2310 7.633283,44.174528,2311 7.633259,44.174501,2311 7.633236,44.174484,2312 7.633236,44.174462,2313 7.633227,44.174425,2314 7.633198,44.174397,2315 7.633169,44.174383,2316 7.633145,44.174351,2317 7.633126,44.174354,2318 7.633097,44.174359,2319 7.633083,44.174353,2320 7.633060,44.174329,2321 7.632998,44.174347,2322 7.632969,44.174375,2323 7.632939,44.174333,2324 7.632937,44.174310,2325 7.632943,44.174277,2326 7.632896,44.174244,2328 7.632895,44.174237,2328 7.632850,44.174222,2329 7.632810,44.174235,2330 7.632801,44.174226,2330 7.632797,44.174207,2331 7.632746,44.174191,2332 7.632736,44.174178,2333 7.632733,44.174149,2334 7.632746,44.174118,2335 7.632753,44.174070,2336 7.632739,44.174046,2337 7.632723,44.174034,2338 7.632701,44.174028,2339 7.632680,44.174019,2340 7.632676,44.174017,2341 7.632638,44.174001,2343 7.632587,44.173999,2344 7.632538,44.173993,2345 7.632542,44.173972,2346 7.632558,44.173946,2347 7.632559,44.173910,2348 7.632558,44.173893,2348 7.632555,44.173864,2349 7.632566,44.173866,2349 7.632567,44.173861,2350 7.632569,44.173848,2350 7.632549,44.173832,2351 7.632524,44.173816,2352 7.632508,44.173820,2353 7.632491,44.173807,2354 7.632445,44.173805,2355 7.632455,44.173796,2355 7.632422,44.173763,2356 7.632392,44.173757,2357 7.632372,44.173753,2358 7.632384,44.173755,2359 7.632355,44.173743,2360 7.632327,44.173738,2360 7.632274,44.173751,2361 7.632245,44.173752,2362 7.632252,44.173743,2362 7.632254,44.173709,2363 7.632211,44.173687,2365 7.632234,44.173688,2365 7.632230,44.173656,2366 7.632195,44.173604,2367 7.632162,44.173577,2368 7.632122,44.173539,2369 7.632104,44.173489,2370 7.632141,44.173396,2370 7.632179,44.173279,2370 7.632220,44.173232,2370 7.632239,44.173193,2369 7.632257,44.173189,2369 7.632283,44.173193,2369 7.632330,44.173153,2367 7.632335,44.173121,2367 7.632339,44.173134,2367 7.632346,44.173137,2367 7.632414,44.173121,2366 7.632409,44.173127,2367 7.632404,44.173128,2366 7.632416,44.173132,2366 7.632401,44.173118,2366 7.632418,44.173106,2365 7.632415,44.173116,2366 7.632413,44.173119,2366 7.632380,44.173117,2366 7.632351,44.173129,2366 7.632359,44.173138,2365 7.632379,44.173132,2365 7.632391,44.173141,2364 7.632360,44.173109,2364 7.632377,44.173144,2364 7.632373,44.173137,2364 7.632365,44.173144,2364 7.632382,44.173134,2364 7.632384,44.173145,2364 7.632368,44.173129,2365 7.632415,44.173121,2366 7.632432,44.173116,2365 7.632403,44.173125,2364 7.632414,44.173109,2364 7.632440,44.173109,2364 7.632441,44.173133,2363 7.632437,44.173127,2363 7.632417,44.173137,2363 7.632416,44.173118,2363 7.632405,44.173131,2363 7.632442,44.173132,2363 7.632430,44.173115,2363 7.632423,44.173126,2363 7.632369,44.173112,2362 7.632374,44.173078,2361 7.632372,44.173043,2358 7.632379,44.173035,2357 7.632392,44.173012,2357 7.632423,44.173001,2355 7.632407,44.172978,2354 7.632380,44.172977,2353 7.632374,44.172970,2352 7.632331,44.172954,2352 7.632297,44.172937,2351 7.632340,44.172909,2350 7.632358,44.172917,2349 7.632319,44.172894,2348 7.632283,44.172884,2347 7.632261,44.172874,2346 7.632250,44.172860,2345 7.632252,44.172846,2344 7.632261,44.172826,2343 7.632270,44.172776,2342 7.632251,44.172732,2340 7.632255,44.172706,2339 7.632263,44.172687,2338 7.632253,44.172651,2336 7.632242,44.172635,2335 7.632242,44.172604,2334 7.632253,44.172549,2333 7.632244,44.172524,2333 7.632191,44.172489,2332 7.632124,44.172471,2331 7.632124,44.172472,2331 7.632132,44.172473,2331 7.632132,44.172473,2332 7.632122,44.172449,2331 7.632086,44.172446,2330 7.632111,44.172430,2330 7.632130,44.172398,2329 7.632122,44.172388,2328 7.632058,44.172392,2327 7.632006,44.172403,2327 7.631965,44.172401,2326 7.631944,44.172381,2325 7.631924,44.172355,2323 7.631888,44.172336,2323 7.631872,44.172319,2321 7.631899,44.172309,2322 7.631907,44.172309,2322 7.631881,44.172315,2322 7.631883,44.172299,2322 7.631811,44.172261,2321 7.631733,44.172196,2320 7.631675,44.172143,2318 7.631622,44.172104,2317 7.631573,44.172061,2316 7.631469,44.172024,2314 7.631435,44.172024,2314 7.631403,44.172028,2312 7.631357,44.172013,2310 7.631342,44.171992,2309 7.631328,44.171967,2308 7.631330,44.171972,2307 7.631305,44.171954,2306 7.631321,44.171942,2305 7.631307,44.171940,2304 7.631321,44.171893,2302 7.631293,44.171862,2301 7.631261,44.171836,2299 7.631255,44.171824,2298 7.631230,44.171822,2297 7.631231,44.171807,2296 7.631207,44.171782,2295 7.631197,44.171775,2294 7.631179,44.171750,2293 7.631180,44.171743,2292 7.631175,44.171715,2291 7.631148,44.171700,2289 7.631136,44.171684,2288 7.631134,44.171690,2286 7.631102,44.171691,2285 7.631075,44.171656,2283 7.631065,44.171649,2283 7.631050,44.171654,2282 7.631039,44.171642,2281 7.631032,44.171641,2280 7.631039,44.171622,2280 7.631002,44.171630,2279 7.630976,44.171616,2277 7.630953,44.171583,2276 7.630949,44.171580,2275 7.630926,44.171555,2274 7.630893,44.171540,2273 7.630866,44.171528,2271 7.630852,44.171511,2270 7.630812,44.171441,2269 7.630801,44.171411,2268 7.630781,44.171408,2267 7.630752,44.171388,2266 7.630674,44.171257,2266 7.630622,44.171207,2265 7.630584,44.171148,2265 7.630605,44.171107,2264 7.630648,44.171030,2262 7.630632,44.170999,2261 7.630572,44.170959,2259 7.630608,44.170930,2258 7.630586,44.170935,2258 7.630567,44.170931,2258 7.630546,44.170962,2258 7.630531,44.170946,2258 7.630611,44.170943,2259 7.630549,44.170949,2259 7.630555,44.170951,2259 7.630627,44.170930,2259 7.630632,44.170964,2259 7.630580,44.170951,2259 7.630616,44.170920,2259 7.630619,44.170938,2259 7.630609,44.170934,2260 7.630609,44.170934,2260 7.630609,44.170934,2260 7.630609,44.170934,2260 7.630609,44.170934,2260 7.630609,44.170934,2260 7.630609,44.170934,2260 7.630609,44.170934,2261 7.630595,44.170940,2261 7.630584,44.170943,2261 7.630579,44.170941,2261 7.630597,44.170945,2261 7.630582,44.170942,2261 7.630595,44.170948,2261 7.630461,44.170926,2261 7.630422,44.170895,2261 7.630377,44.170850,2262 7.630338,44.170859,2262 7.630371,44.170869,2262 7.630371,44.170860,2262 7.630361,44.170859,2263 7.630386,44.170833,2263 7.630475,44.170876,2263 7.630535,44.170918,2264 7.630531,44.170920,2264 7.630559,44.170914,2264 7.630593,44.170842,2261 7.630561,44.170772,2259 7.630543,44.170744,2258 7.630527,44.170744,2257 7.630480,44.170697,2255 7.630390,44.170657,2254 7.630313,44.170652,2253 7.630138,44.170613,2253 7.630063,44.170618,2253 7.629889,44.170525,2253 7.629867,44.170470,2252 7.629881,44.170437,2250 7.629881,44.170409,2249 7.629848,44.170373,2248 7.629822,44.170330,2246 7.629847,44.170299,2244 7.629864,44.170271,2243 7.629923,44.170198,2243 7.629952,44.170128,2241 7.629962,44.170114,2240 7.629962,44.170095,2240 7.629991,44.170076,2239 7.630025,44.170044,2237 7.630039,44.169943,2236 7.630047,44.169990,2237 7.630058,44.169992,2236 7.630058,44.169992,2236 7.630058,44.169992,2237 7.630021,44.169994,2236 7.630107,44.169927,2236 7.630181,44.169872,2235 7.630234,44.169862,2233 7.630302,44.169849,2232 7.630344,44.169861,2230 7.630377,44.169854,2229 7.630435,44.169829,2227 7.630421,44.169845,2226 7.630458,44.169838,2225 7.630458,44.169829,2225 7.630486,44.169813,2223 7.630540,44.169777,2221 7.630601,44.169736,2220 7.630651,44.169648,2219 7.630714,44.169628,2218 7.630705,44.169595,2219 7.630756,44.169555,2220 7.630763,44.169540,2220 7.630788,44.169509,2222 7.630804,44.169509,2223 7.630814,44.169519,2223 7.630868,44.169481,2225 7.630883,44.169467,2226 7.630902,44.169435,2228 7.630927,44.169397,2228 7.630903,44.169433,2228 7.630893,44.169438,2228 7.630897,44.169417,2229 7.630900,44.169394,2229 7.630860,44.169372,2228 7.630851,44.169336,2226 7.630874,44.169297,2225 7.630951,44.169233,2225 7.630951,44.169230,2227 7.630949,44.169183,2226 7.630998,44.169142,2225 7.631002,44.169128,2225 7.631027,44.169149,2224 7.631014,44.169128,2225 7.631034,44.169114,2225 7.631033,44.169113,2225 7.631032,44.169113,2225 7.631036,44.169120,2224 7.631042,44.169144,2223 7.631044,44.169156,2223 7.631044,44.169156,2224 7.631044,44.169156,2224 7.631034,44.169163,2224 7.630986,44.169224,2224 7.630967,44.169247,2224 7.630953,44.169274,2223 7.630902,44.169327,2221 7.630844,44.169405,2223 7.630845,44.169424,2224 7.630815,44.169454,2222 7.630792,44.169476,2221 7.630761,44.169493,2219 7.630744,44.169523,2218 7.630714,44.169542,2216 7.630678,44.169574,2215 7.630652,44.169618,2215 7.630628,44.169737,2216 7.630595,44.169764,2217 7.630565,44.169778,2217 7.630553,44.169822,2218 7.630480,44.169876,2219 7.630445,44.169921,2220 7.630405,44.169958,2221 7.630369,44.169985,2221 7.630349,44.169999,2222 7.630262,44.170048,2223 7.630220,44.170053,2224 7.630214,44.170061,2225 7.630214,44.170084,2226 7.630204,44.170134,2227 7.630153,44.170165,2228 7.630125,44.170164,2229 7.630094,44.170182,2230 7.630050,44.170192,2231 7.630058,44.170234,2232 7.630035,44.170267,2233 7.630009,44.170275,2234 7.629988,44.170310,2235 7.629992,44.170329,2237 7.630017,44.170363,2238 7.630016,44.170386,2239 7.629989,44.170420,2240 7.629913,44.170434,2242 7.629904,44.170441,2243 7.629886,44.170456,2244 7.629881,44.170485,2246 7.629891,44.170522,2247 7.629916,44.170562,2248 7.629965,44.170623,2249 7.630025,44.170657,2250 7.630103,44.170686,2251 7.630219,44.170716,2252 7.630426,44.170719,2251 7.630504,44.170715,2250 7.630572,44.170763,2252 7.630608,44.170778,2253 7.630623,44.170804,2253 7.630635,44.170842,2255 7.630664,44.170866,2256 7.630731,44.170917,2257 7.630751,44.170948,2259 7.630752,44.170981,2260 7.630755,44.171015,2262 7.630753,44.171051,2263 7.630732,44.171060,2264 7.630666,44.171069,2265 7.630684,44.171075,2264 7.630671,44.171074,2264 7.630626,44.171051,2264 7.630615,44.171042,2263 7.630655,44.171030,2263 7.630602,44.171060,2263 7.630698,44.171059,2264 7.630689,44.171078,2264 7.630696,44.171077,2265 7.630697,44.171081,2265 7.630704,44.171078,2264 7.630730,44.171097,2263 7.630724,44.171109,2260 7.630732,44.171135,2259 7.630787,44.171160,2258 7.630808,44.171167,2256 7.630842,44.171171,2255 7.630853,44.171174,2254 7.630882,44.171202,2252 7.630908,44.171194,2252 7.630936,44.171177,2251 7.630962,44.171212,2250 7.630998,44.171163,2249 7.630983,44.171165,2249 7.631013,44.171167,2248 7.631046,44.171160,2247 7.631054,44.171164,2247 7.631095,44.171180,2245 7.631109,44.171214,2244 7.631106,44.171167,2244 7.631126,44.171155,2243 7.631193,44.171184,2242 7.631193,44.171192,2240 7.631250,44.171186,2239 7.631252,44.171197,2238 7.631263,44.171186,2238 7.631291,44.171187,2237 7.631327,44.171178,2236 7.631320,44.171182,2235 7.631328,44.171179,2234 7.631338,44.171149,2233 7.631357,44.171137,2232 7.631367,44.171130,2232 7.631444,44.171101,2230 7.631413,44.171092,2229 7.631485,44.171094,2227 7.631465,44.171064,2226 7.631517,44.171065,2225 7.631591,44.171066,2224 7.631586,44.171054,2223 7.631581,44.171020,2222 7.631627,44.171010,2221 7.631593,44.170992,2220 7.631664,44.170995,2220 7.631631,44.170981,2219 7.631673,44.170982,2219 7.631622,44.170984,2219 7.631652,44.170956,2218 7.631651,44.170950,2217 7.631644,44.170938,2216 7.631662,44.170933,2215 7.631668,44.170874,2213 7.631674,44.170870,2212 7.631670,44.170844,2211 7.631682,44.170824,2210 7.631698,44.170823,2208 7.631706,44.170816,2207 7.631743,44.170769,2206 7.631827,44.170770,2204 7.631827,44.170752,2203 7.631840,44.170730,2202 7.631878,44.170696,2201 7.631908,44.170736,2201 7.631887,44.170733,2201 7.631855,44.170741,2202 7.631838,44.170739,2203 7.631920,44.170732,2204 7.631971,44.170690,2202 7.631977,44.170697,2201 7.631974,44.170704,2201 7.632007,44.170652,2200 7.632043,44.170631,2198 7.632072,44.170622,2196 7.632082,44.170621,2195 7.632139,44.170609,2194 7.632183,44.170610,2193 7.632226,44.170604,2193 7.632223,44.170591,2192 7.632222,44.170584,2191 7.632295,44.170543,2188 7.632277,44.170550,2187 7.632346,44.170518,2185 7.632359,44.170498,2184 7.632354,44.170484,2183 7.632358,44.170477,2182 7.632332,44.170429,2180 7.632302,44.170407,2179 7.632301,44.170423,2179 7.632319,44.170414,2179 7.632354,44.170344,2177 7.632368,44.170328,2176 7.632401,44.170318,2176 7.632318,44.170308,2176 7.632242,44.170262,2176 7.632232,44.170231,2176 7.632198,44.170143,2177 7.632133,44.170089,2177 7.632050,44.170004,2178 7.632019,44.169972,2178 7.631867,44.169881,2178 7.631728,44.169744,2177 7.631672,44.169563,2178 7.631606,44.169463,2178 7.631598,44.169336,2179 7.631602,44.169203,2179 7.631654,44.169008,2179 7.631651,44.168986,2180 7.631633,44.169026,2180 7.631666,44.168967,2179 7.631866,44.168860,2180 7.631858,44.168785,2180 7.631873,44.168667,2180 7.631893,44.168491,2179 7.631835,44.168365,2179 7.631833,44.168166,2180 7.631651,44.168056,2179 7.631499,44.168011,2178 7.631389,44.167916,2177 7.631303,44.167761,2176 7.631308,44.167722,2176 7.631293,44.167615,2175 7.631293,44.167651,2175 7.631252,44.167609,2175 7.631329,44.167655,2175 7.631334,44.167632,2176 7.631283,44.167608,2176 7.631288,44.167614,2176 7.631319,44.167626,2176 7.631285,44.167604,2175 7.631336,44.167617,2174 7.631312,44.167604,2174 7.631296,44.167611,2174 7.631294,44.167618,2174 7.631228,44.167545,2174 7.631184,44.167503,2173 7.631136,44.167440,2172 7.631045,44.167419,2171 7.631016,44.167378,2170 7.631036,44.167355,2170 7.631031,44.167358,2170 7.631034,44.167350,2170 7.631027,44.167357,2170 7.631018,44.167370,2170 7.631023,44.167341,2169 7.631037,44.167340,2169 7.631052,44.167382,2169 7.631034,44.167376,2169 7.631046,44.167366,2168 7.631014,44.167370,2168 7.631016,44.167373,2167 7.631035,44.167385,2167 7.631014,44.167389,2167 7.631022,44.167390,2166 7.630996,44.167336,2166 7.630888,44.167230,2164 7.630820,44.167142,2163 7.630801,44.167068,2162 7.630779,44.166979,2160 7.630765,44.166915,2159 7.630785,44.166786,2157 7.630797,44.166737,2156 7.630813,44.166656,2155 7.630865,44.166578,2154 7.630873,44.166540,2153 7.630844,44.166493,2151 7.630822,44.166442,2149 7.630784,44.166373,2146 7.630761,44.166339,2145 7.630731,44.166278,2143 7.630737,44.166247,2141 7.630692,44.166209,2140 7.630612,44.166175,2138 7.630533,44.166106,2136 7.630502,44.166061,2134 7.630501,44.166031,2133 7.630448,44.165972,2131 7.630408,44.165950,2129 7.630353,44.165892,2127 7.630311,44.165858,2126 7.630303,44.165827,2125 7.630316,44.165798,2124 7.630331,44.165780,2122 7.630310,44.165755,2121 7.630266,44.165726,2119 7.630218,44.165676,2118 7.630172,44.165644,2117 7.630120,44.165607,2116 7.630062,44.165567,2114 7.630027,44.165549,2112 7.629982,44.165500,2111 7.629961,44.165388,2110 7.629951,44.165358,2109 7.629977,44.165272,2108 7.630020,44.165240,2109 7.629997,44.165238,2108 7.629995,44.165257,2108 7.630006,44.165225,2108 7.630010,44.165237,2107 7.629989,44.165068,2107 7.629967,44.165034,2106 7.629877,44.164934,2105 7.629769,44.164750,2103 7.629667,44.164666,2102 7.629547,44.164618,2101 7.629477,44.164610,2100 7.629259,44.164526,2100 7.629166,44.164454,2099 7.629048,44.164386,2098 7.628902,44.164294,2097 7.628765,44.164179,2096 7.628680,44.164096,2095 7.628592,44.164030,2094 7.628496,44.164040,2094 7.628448,44.163991,2093 7.628523,44.163963,2093 7.628579,44.163880,2094 7.628601,44.163848,2096 7.628614,44.163826,2096 7.628626,44.163793,2097 7.628635,44.163749,2098 7.628678,44.163689,2099 7.628717,44.163663,2099 7.628753,44.163641,2101 7.628796,44.163590,2102 7.628845,44.163547,2103 7.628875,44.163510,2104 7.628892,44.163484,2104 7.628927,44.163407,2106 7.628935,44.163364,2107 7.628970,44.163302,2108 7.629004,44.163279,2109 7.628958,44.163247,2110 7.628977,44.163205,2111 7.629025,44.163133,2112 7.629051,44.163084,2113 7.629097,44.163069,2113 7.629072,44.163054,2114 7.629102,44.163012,2114 7.629107,44.163041,2115 7.629136,44.162995,2115 7.629117,44.163035,2115 7.629113,44.163032,2115 7.629109,44.163027,2116 7.629086,44.163018,2117 7.629117,44.162955,2117 7.629138,44.162915,2118 7.629158,44.162878,2118 7.629198,44.162833,2119 7.629197,44.162796,2120 7.629210,44.162726,2122 7.629235,44.162687,2122 7.629286,44.162623,2124 7.629335,44.162537,2125 7.629355,44.162488,2126 7.629372,44.162440,2127 7.629397,44.162407,2128 7.629414,44.162339,2129 7.629418,44.162254,2130 7.629415,44.162211,2131 7.629402,44.162152,2132 7.629414,44.162098,2133 7.629438,44.162062,2134 7.629464,44.161991,2136 7.629470,44.161921,2137 7.629451,44.161879,2138 7.629441,44.161832,2139 7.629442,44.161807,2139 7.629431,44.161813,2140 7.629401,44.161792,2141 7.629397,44.161784,2140 7.629381,44.161799,2140 7.629407,44.161806,2141 7.629408,44.161801,2140 7.629391,44.161790,2141 7.629422,44.161786,2141 7.629412,44.161788,2141 7.629402,44.161778,2141 7.629332,44.161799,2141 7.629400,44.161778,2141 7.629410,44.161803,2142 7.629418,44.161776,2141 7.629412,44.161673,2143 7.629408,44.161628,2144 7.629392,44.161579,2145 7.629388,44.161526,2146 7.629392,44.161490,2147 7.629404,44.161456,2147 7.629404,44.161343,2149 7.629388,44.161277,2150 7.629378,44.161223,2151 7.629369,44.161174,2153 7.629351,44.161062,2155 7.629347,44.161006,2156 7.629337,44.160953,2157 7.629316,44.160824,2159 7.629321,44.160809,2159 7.629309,44.160752,2161 7.629298,44.160686,2162 7.629291,44.160603,2163 7.629307,44.160533,2165 7.629306,44.160518,2166 7.629310,44.160462,2167 7.629303,44.160405,2168 7.629294,44.160372,2169 7.629285,44.160323,2170 7.629261,44.160251,2171 7.629241,44.160172,2172 7.629251,44.160086,2174 7.629221,44.160026,2175 7.629128,44.159998,2176 7.629030,44.159964,2178 7.628995,44.159931,2179 7.628921,44.159864,2180 7.628847,44.159819,2180 7.628779,44.159784,2181 7.628724,44.159759,2183 7.628664,44.159722,2184 7.628568,44.159687,2185 7.628494,44.159664,2186 7.628400,44.159644,2188 7.628315,44.159625,2189 7.628132,44.159524,2190 7.628091,44.159465,2191 7.628068,44.159370,2192 7.627868,44.159260,2192 7.627589,44.159102,2192 7.627486,44.158921,2192 7.627478,44.158688,2191 7.627419,44.158586,2191 7.627353,44.158476,2191 7.627233,44.158314,2190 7.627178,44.158252,2189 7.627117,44.158194,2187 7.627063,44.158141,2186 7.627041,44.158131,2185 7.627079,44.158110,2185 7.627085,44.158114,2184 7.627084,44.158114,2184 7.627071,44.158135,2183 7.627053,44.158147,2183 7.627062,44.158150,2183 7.627026,44.158130,2182 7.627048,44.158129,2182 7.627015,44.158132,2182 7.627039,44.158141,2181 7.627032,44.158142,2181 7.627026,44.158143,2181 7.627038,44.158125,2181 7.627069,44.158081,2181 7.627035,44.158037,2179 7.626994,44.157981,2178 7.626969,44.157862,2177 7.626889,44.157780,2175 7.626893,44.157796,2175 7.626922,44.157924,2174 7.626909,44.157950,2174 7.626883,44.157999,2173 7.626839,44.157966,2171 7.626778,44.157889,2169 7.626771,44.157855,2168 7.626741,44.157802,2167 7.626674,44.157718,2165 7.626656,44.157684,2164 7.626617,44.157635,2163 7.626558,44.157604,2161 7.626529,44.157573,2160 7.626521,44.157517,2159 7.626505,44.157448,2158 7.626479,44.157460,2157 7.626482,44.157515,2156 7.626473,44.157579,2155 7.626456,44.157625,2153 7.626435,44.157708,2151 7.626418,44.157782,2150 7.626412,44.157822,2149 7.626441,44.157887,2147 7.626464,44.157973,2146 7.626427,44.157985,2145 7.626378,44.157969,2144 7.626343,44.157944,2143 7.626292,44.157849,2141 7.626252,44.157798,2140 7.626149,44.157742,2138 7.626061,44.157648,2136 7.625981,44.157559,2134 7.625950,44.157507,2132 7.625899,44.157464,2131 7.625827,44.157370,2129 7.625807,44.157316,2128 7.625765,44.157244,2126 7.625719,44.157166,2123 7.625692,44.157123,2122 7.625631,44.157055,2120 7.625595,44.157017,2119 7.625556,44.156967,2117 7.625524,44.156890,2116 7.625509,44.156852,2115 7.625470,44.156784,2113 7.625457,44.156723,2111 7.625439,44.156677,2110 7.625408,44.156621,2109 7.625384,44.156555,2107 7.625377,44.156518,2106 7.625341,44.156434,2103 7.625314,44.156369,2101 7.625304,44.156321,2100 7.625279,44.156231,2099 7.625195,44.156180,2096 7.625147,44.156163,2095 7.625051,44.156093,2093 7.625001,44.156023,2092 7.624940,44.155959,2091 7.624900,44.155911,2089 7.624843,44.155817,2087 7.624777,44.155732,2086 7.624679,44.155668,2084 7.624602,44.155587,2083 7.624555,44.155524,2082 7.624502,44.155459,2081 7.624416,44.155386,2079 7.624318,44.155319,2077 7.624243,44.155245,2076 7.624189,44.155221,2075 7.624149,44.155199,2074 7.624123,44.155166,2072 7.624103,44.155123,2071 7.624096,44.155083,2070 7.624079,44.155044,2069 7.624101,44.155010,2069 7.624032,44.154986,2070 7.623991,44.154963,2071 7.623954,44.154967,2072 7.623921,44.154935,2074 7.623875,44.154915,2075 7.623873,44.154903,2075 7.623888,44.154888,2076 7.623852,44.154844,2077 7.623821,44.154763,2078 7.623803,44.154701,2079 7.623774,44.154667,2080 7.623747,44.154566,2081 7.623744,44.154540,2082 7.623741,44.154510,2083 7.623729,44.154483,2084 7.623712,44.154430,2085 7.623712,44.154363,2086 7.623699,44.154353,2086 7.623672,44.154350,2086 7.623673,44.154350,2087 7.623692,44.154326,2087 7.623681,44.154257,2088 7.623690,44.154208,2089 7.623699,44.154164,2090 7.623697,44.154116,2091 7.623690,44.154056,2092 7.623695,44.153976,2093 7.623705,44.153922,2095 7.623732,44.153865,2096 7.623749,44.153862,2096 7.623749,44.153869,2096 7.623744,44.153821,2097 7.623765,44.153796,2098 7.623802,44.153789,2099 7.623764,44.153797,2099 7.623763,44.153790,2100 7.623783,44.153746,2101 7.623786,44.153669,2102 7.623802,44.153569,2103 7.623831,44.153484,2105 7.623841,44.153451,2106 7.623845,44.153424,2106 7.623849,44.153372,2108 7.623826,44.153301,2109 7.623843,44.153242,2111 7.623847,44.153171,2112 7.623857,44.153148,2112 7.623869,44.153129,2113 7.623895,44.153072,2114 7.623923,44.153014,2116 7.623913,44.152967,2117 7.623910,44.152924,2117 7.623931,44.152850,2118 7.623945,44.152812,2119 7.623946,44.152750,2120 7.623918,44.152689,2122 7.623847,44.152637,2122 7.623771,44.152576,2123 7.623744,44.152513,2124 7.623726,44.152491,2124 7.623717,44.152437,2124 7.623702,44.152425,2124 7.623726,44.152374,2125 7.623774,44.152339,2126 7.623811,44.152297,2127 7.623835,44.152246,2128 7.623837,44.152231,2128 7.623837,44.152222,2128 7.623838,44.152219,2128 7.623849,44.152248,2129 7.623860,44.152250,2129 7.623862,44.152247,2128 7.623862,44.152246,2129 7.623862,44.152246,2129 7.623862,44.152246,2129 7.623828,44.152250,2128 7.623768,44.152233,2128 7.623556,44.152190,2130 7.623485,44.152165,2131 7.623411,44.152170,2132 7.623295,44.152169,2134 7.623243,44.152160,2135 7.623136,44.152148,2135 7.623114,44.152142,2136 7.623020,44.152110,2137 7.622934,44.152065,2138 7.622785,44.152007,2139 7.622722,44.151984,2140 7.622567,44.151937,2142 7.622523,44.151936,2143 7.622466,44.151928,2144 7.622336,44.151890,2146 7.622258,44.151826,2148 7.622166,44.151693,2149 7.622110,44.151628,2150 7.622069,44.151586,2151 7.622053,44.151517,2153 7.621992,44.151443,2154 7.621958,44.151407,2155 7.621909,44.151314,2157 7.621831,44.151185,2159 7.621784,44.151110,2160 7.621781,44.151049,2161 7.621776,44.151024,2161 7.621744,44.150946,2163 7.621725,44.150860,2164 7.621702,44.150792,2165 7.621694,44.150711,2166 7.621687,44.150657,2167 7.621661,44.150604,2167 7.621676,44.150533,2168 7.621669,44.150487,2170 7.621655,44.150438,2171 7.621664,44.150377,2172 7.621693,44.150300,2174 7.621708,44.150262,2175 7.621780,44.150196,2176 7.621888,44.150110,2177 7.621898,44.150057,2178 7.621933,44.149973,2179 7.621961,44.149891,2180 7.622003,44.149827,2180 7.622043,44.149775,2181 7.622096,44.149716,2182 7.622162,44.149656,2183 7.622236,44.149580,2184 7.622317,44.149497,2185 7.622405,44.149411,2187 7.622454,44.149339,2188 7.622489,44.149293,2189 7.622609,44.149217,2191 7.622679,44.149202,2192 7.622720,44.149177,2193 7.622759,44.149151,2194 7.622749,44.149175,2194 7.622761,44.149179,2195 7.622749,44.149163,2194 7.622753,44.149158,2194 7.622748,44.149165,2194 7.622732,44.149160,2194 7.622729,44.149165,2195 7.622728,44.149139,2194 7.622734,44.149172,2195 7.622757,44.149174,2195 7.622742,44.149166,2195 7.622748,44.149156,2195 7.622772,44.149148,2196 7.622754,44.149152,2196 7.622749,44.149147,2196 7.622754,44.149144,2196 7.622770,44.149141,2196 7.622777,44.149145,2197 7.622761,44.149155,2197 7.622753,44.149154,2196 7.622772,44.149154,2196 7.622766,44.149174,2195 7.622747,44.149155,2196 7.622813,44.149151,2196 7.622737,44.149162,2195 7.622744,44.149157,2195 7.622693,44.149150,2196 7.622652,44.149122,2197 7.622637,44.149097,2198 7.622612,44.149074,2198 7.622582,44.149063,2199 7.622560,44.149080,2200 7.622544,44.149117,2201 7.622498,44.149098,2202 7.622464,44.149048,2203 7.622425,44.149032,2203 7.622410,44.149027,2204 7.622392,44.149029,2204 7.622358,44.149061,2205 7.622343,44.149060,2206 7.622326,44.149033,2207 7.622310,44.149026,2207 7.622279,44.149028,2208 7.622233,44.149048,2209 7.622204,44.149021,2210 7.622204,44.148981,2211 7.622190,44.148977,2212 7.622171,44.148970,2212 7.622141,44.148970,2213 7.622113,44.148952,2214 7.622064,44.148929,2215 7.622047,44.148927,2217 7.622007,44.148945,2218 7.621974,44.148965,2219 7.621961,44.148920,2220 7.621903,44.148897,2221 7.621838,44.148859,2223 7.621841,44.148890,2224 7.621802,44.148865,2225 7.621778,44.148870,2226 7.621749,44.148883,2227 7.621696,44.148870,2228 7.621681,44.148913,2229 7.621661,44.148916,2230 7.621633,44.148905,2232 7.621621,44.148897,2232 7.621615,44.148885,2233 7.621588,44.148859,2234 7.621563,44.148881,2235 7.621516,44.148907,2236 7.621506,44.148909,2236 7.621479,44.148881,2237 7.621458,44.148861,2239 7.621439,44.148886,2240 7.621415,44.148913,2241 7.621392,44.148919,2241 7.621371,44.148896,2242 7.621320,44.148908,2243 7.621312,44.148932,2244 7.621309,44.148928,2244 7.621295,44.148942,2245 7.621270,44.148930,2245 7.621256,44.148909,2247 7.621238,44.148884,2248 7.621221,44.148897,2249 7.621164,44.148927,2250 7.621129,44.148897,2251 7.621118,44.148890,2252 7.621108,44.148897,2253 7.621109,44.148900,2253 7.621066,44.148888,2254 7.621034,44.148894,2255 7.620998,44.148900,2256 7.620994,44.148899,2257 7.620947,44.148952,2258 7.620945,44.148948,2258 7.620892,44.148976,2259 7.620878,44.148946,2260 7.620846,44.148914,2261 7.620832,44.148907,2261 7.620806,44.148903,2262 7.620776,44.148911,2263 7.620734,44.148918,2264 7.620707,44.148919,2266 7.620676,44.148907,2267 7.620636,44.148896,2268 7.620599,44.148923,2270 7.620578,44.148940,2270 7.620520,44.148948,2271 7.620500,44.148971,2273 7.620469,44.148992,2273 7.620427,44.149014,2274 7.620411,44.149047,2275 7.620369,44.149067,2276 7.620315,44.149077,2277 7.620304,44.149100,2278 7.620299,44.149102,2278 7.620299,44.149102,2278 7.620296,44.149177,2278 7.620234,44.149207,2279 7.620205,44.149223,2281 7.620200,44.149243,2282 7.620179,44.149279,2283 7.620168,44.149313,2284 7.620142,44.149347,2285 7.620135,44.149365,2286 7.620124,44.149365,2286 7.620080,44.149402,2288 7.620052,44.149412,2289 7.619991,44.149445,2291 7.619946,44.149464,2292 7.619883,44.149489,2293 7.619872,44.149529,2294 7.619874,44.149530,2294 7.619871,44.149528,2294 7.619871,44.149528,2293 7.619865,44.149523,2293 7.619871,44.149528,2292 7.619871,44.149528,2292 7.619870,44.149527,2292 7.619861,44.149531,2292 7.619881,44.149526,2292 7.619871,44.149528,2292 7.619871,44.149528,2292 7.619871,44.149528,2292 7.619866,44.149536,2291 7.619872,44.149535,2291 7.619871,44.149526,2291 7.619871,44.149528,2291 7.619857,44.149528,2291 7.619879,44.149525,2290 7.619881,44.149508,2289 7.619861,44.149475,2288 7.619808,44.149462,2287 7.619704,44.149438,2286 7.619605,44.149444,2285 7.619444,44.149447,2284 7.619405,44.149485,2283 7.619398,44.149496,2283 7.619344,44.149536,2283 7.619320,44.149535,2282 7.619216,44.149493,2280 7.619124,44.149465,2278 7.619040,44.149456,2276 7.618982,44.149454,2275 7.618838,44.149431,2274 7.618775,44.149432,2274 7.618854,44.149387,2273 7.618894,44.149349,2271 7.618913,44.149339,2270 7.618978,44.149311,2267 7.618982,44.149311,2267 7.618935,44.149310,2266 7.618905,44.149304,2266 7.618905,44.149293,2265 7.618927,44.149286,2265 7.618934,44.149281,2264 7.618960,44.149258,2263 7.618973,44.149236,2262 7.618922,44.149239,2260 7.618833,44.149236,2260 7.618820,44.149218,2259 7.618775,44.149265,2260 7.618648,44.149255,2258 7.618618,44.149241,2257 7.618649,44.149225,2256 7.618634,44.149208,2255 7.618618,44.149186,2254 7.618601,44.149193,2252 7.618553,44.149181,2251 7.618532,44.149183,2250 7.618534,44.149161,2248 7.618502,44.149126,2247 7.618470,44.149148,2246 7.618403,44.149141,2245 7.618369,44.149132,2243 7.618334,44.149128,2242 7.618316,44.149138,2241 7.618292,44.149131,2240 7.618250,44.149142,2239 7.618210,44.149144,2238 7.618180,44.149152,2237 7.618145,44.149156,2236 7.618094,44.149147,2234 7.618029,44.149155,2233 7.617967,44.149143,2232 7.617891,44.149136,2231 7.617855,44.149158,2229 7.617820,44.149157,2228 7.617786,44.149176,2227 7.617718,44.149171,2225 7.617702,44.149172,2224 7.617633,44.149177,2223 7.617577,44.149177,2221 7.617464,44.149187,2220 7.617436,44.149186,2219 7.617413,44.149166,2218 7.617388,44.149180,2217 7.617346,44.149198,2216 7.617279,44.149213,2214 7.617190,44.149231,2213 7.617136,44.149239,2212 7.617053,44.149244,2210 7.616992,44.149247,2209 7.616939,44.149258,2207 7.616887,44.149261,2206 7.616834,44.149261,2205 7.616783,44.149261,2204 7.616671,44.149284,2202 7.616632,44.149279,2202 7.616564,44.149287,2200 7.616438,44.149294,2199 7.616378,44.149300,2197 7.616258,44.149298,2196 7.616199,44.149314,2195 7.616060,44.149325,2193 7.615950,44.149317,2191 7.615816,44.149314,2190 7.615741,44.149323,2188 7.615648,44.149318,2187 7.615573,44.149318,2186 7.615412,44.149336,2186 7.615249,44.149349,2185 7.615107,44.149374,2185 7.614978,44.149407,2184 7.614879,44.149398,2183 7.614698,44.149411,2183 7.614535,44.149417,2185 7.614476,44.149413,2185 7.614359,44.149399,2185 7.614232,44.149386,2186 7.614055,44.149378,2187 7.613750,44.149314,2188 7.613655,44.149279,2189 7.613409,44.149224,2189 7.613205,44.149158,2190 7.613050,44.149136,2191 7.612944,44.149092,2192 7.612801,44.149039,2193 7.612628,44.148986,2194 7.612468,44.148929,2194 7.612346,44.148894,2195 7.612259,44.148887,2196 7.611966,44.148891,2197 7.611947,44.148896,2197 7.611955,44.148897,2197 7.611957,44.148896,2196 7.611961,44.148892,2196 7.611975,44.148892,2196 7.611964,44.148887,2196 7.611976,44.148905,2196 7.611996,44.148901,2196 7.611953,44.148907,2197 7.611914,44.148882,2197 7.611959,44.148899,2197 7.611967,44.148908,2197 7.611850,44.148933,2197 7.611827,44.148936,2197 7.611671,44.148981,2198 7.611508,44.149013,2198 7.611231,44.149070,2199 7.610989,44.149109,2199 7.610583,44.149222,2199 7.610332,44.149271,2199 7.609930,44.149309,2200 7.609691,44.149311,2200 7.609300,44.149392,2199 7.609013,44.149436,2199 7.608738,44.149504,2200 7.608284,44.149622,2200 7.608024,44.149710,2200 7.607689,44.149831,2200 7.607264,44.149949,2200 7.606986,44.149984,2200 7.606556,44.149997,2201 7.606479,44.150013,2201 7.606363,44.150020,2202 7.606224,44.150009,2203 7.606116,44.150001,2204 7.605964,44.149984,2205 7.605772,44.149960,2206 7.605641,44.149948,2206 7.605549,44.149940,2206 7.605422,44.149915,2207 7.605297,44.149887,2209 7.605203,44.149858,2210 7.605104,44.149833,2211 7.605008,44.149829,2212 7.604933,44.149831,2214 7.604924,44.149832,2214 7.604831,44.149835,2214 7.604677,44.149850,2215 7.604551,44.149847,2216 7.604374,44.149817,2217 7.604262,44.149788,2218 7.604015,44.149794,2219 7.603838,44.149804,2220 7.603718,44.149817,2221 7.603570,44.149841,2222 7.603423,44.149858,2223 7.603265,44.149876,2224 7.603144,44.149883,2225 7.602941,44.149931,2225 7.602854,44.150019,2227 7.602560,44.150107,2228 7.602263,44.150172,2230 7.602170,44.150260,2231 7.602106,44.150321,2231 7.602005,44.150390,2231 7.601826,44.150502,2231 7.601634,44.150663,2232 7.601503,44.150728,2233 7.601331,44.150767,2233 7.601047,44.150883,2233 7.600914,44.150935,2233 7.600859,44.150959,2234 7.600614,44.151034,2234 7.600356,44.151110,2234 7.600110,44.151158,2235 7.599800,44.151159,2235 7.599570,44.151222,2235 7.599279,44.151312,2234 7.598947,44.151389,2234 7.598624,44.151477,2234 7.598498,44.151560,2234 7.598331,44.151647,2233 7.598173,44.151689,2233 7.598171,44.151686,2232 7.598161,44.151712,2232 7.598125,44.151715,2232 7.598104,44.151748,2233 7.598077,44.151862,2232 7.598039,44.151892,2231 7.597980,44.151980,2230 7.597936,44.152115,2229 7.597901,44.152211,2228 7.597830,44.152307,2227 7.597727,44.152384,2226 7.597635,44.152488,2225 7.597505,44.152611,2223 7.597473,44.152706,2222 7.597449,44.152803,2221 7.597387,44.152821,2220 7.597336,44.152789,2220 7.597323,44.152736,2219 7.597327,44.152731,2219 7.597282,44.152722,2218 7.597248,44.152775,2216 7.597209,44.152821,2215 7.597143,44.152806,2214 7.597102,44.152815,2212 7.597029,44.152809,2211 7.596984,44.152797,2210 7.596958,44.152796,2209 7.596952,44.152810,2207 7.596897,44.152833,2206 7.596888,44.152838,2205 7.596857,44.152840,2204 7.596747,44.152848,2202 7.596663,44.152844,2201 7.596605,44.152868,2198 7.596566,44.152872,2197 7.596496,44.152859,2196 7.596467,44.152844,2195 7.596449,44.152814,2193 7.596392,44.152790,2192 7.596319,44.152789,2192 7.596238,44.152767,2190 7.596190,44.152740,2187 7.596172,44.152748,2186 7.596105,44.152739,2185 7.596033,44.152744,2183 7.595926,44.152755,2182 7.595814,44.152780,2181 7.595563,44.152802,2181 7.595247,44.152747,2182 7.595004,44.152675,2182 7.594682,44.152525,2182 7.594367,44.152374,2183 7.593982,44.152227,2183 7.593547,44.152096,2184 7.593398,44.151999,2184 7.593216,44.151825,2186 7.593097,44.151811,2186 7.592915,44.151805,2187 7.592797,44.151783,2187 7.592534,44.151662,2188 7.592397,44.151606,2189 7.592275,44.151544,2189 7.592030,44.151442,2189 7.591805,44.151359,2188 7.591661,44.151250,2187 7.591580,44.151090,2186 7.591504,44.151030,2185 7.591449,44.150997,2185 7.591368,44.150919,2184 7.591250,44.150819,2183 7.591197,44.150840,2182 7.591262,44.150899,2181 7.591374,44.151025,2180 7.591498,44.151210,2179 7.591389,44.151202,2177 7.591202,44.151047,2175 7.591072,44.150988,2174 7.590954,44.150925,2173 7.590898,44.150879,2172 7.590800,44.150834,2171 7.590654,44.150787,2170 7.590532,44.150731,2169 7.590420,44.150682,2168 7.590261,44.150608,2167 7.590152,44.150584,2165 7.590015,44.150549,2164 7.589905,44.150525,2163 7.589726,44.150480,2162 7.589731,44.150434,2161 7.589777,44.150412,2161 7.589777,44.150415,2161 7.589787,44.150408,2160 7.589761,44.150384,2159 7.589760,44.150334,2157 7.589731,44.150346,2156 7.589671,44.150358,2154 7.589663,44.150370,2154 7.589566,44.150375,2153 7.589627,44.150306,2152 7.589708,44.150214,2151 7.589793,44.150149,2150 7.589908,44.150046,2149 7.590074,44.149988,2148 7.590125,44.149909,2147 7.590102,44.149811,2146 7.590125,44.149725,2145 7.590177,44.149587,2144 7.590222,44.149552,2143 7.590257,44.149497,2143 7.590253,44.149286,2142 7.590273,44.149176,2141 7.590247,44.149068,2139 7.590267,44.148995,2138 7.590269,44.148869,2137 7.590266,44.148745,2135 7.590288,44.148626,2134 7.590308,44.148517,2133 7.590345,44.148427,2132 7.590370,44.148322,2131 7.590442,44.148243,2129 7.590500,44.148163,2128 7.590537,44.148084,2127 7.590686,44.147981,2126 7.590809,44.147938,2125 7.590994,44.147909,2125 7.591039,44.147827,2123 7.591021,44.147747,2122 7.591022,44.147642,2121 7.591092,44.147530,2120 7.591156,44.147443,2119 7.591171,44.147324,2118 7.591182,44.147227,2116 7.591200,44.147131,2115 7.591152,44.147013,2114 7.591143,44.146921,2113 7.591142,44.146838,2112 7.591132,44.146753,2111 7.591146,44.146678,2110 7.591146,44.146471,2108 7.591146,44.146374,2107 7.591168,44.146249,2105 7.591188,44.146125,2104 7.591176,44.146022,2103 7.591153,44.145911,2101 7.591144,44.145812,2100 7.591152,44.145683,2099 7.591147,44.145578,2097 7.591084,44.145468,2096 7.591053,44.145377,2095 7.591001,44.145248,2094 7.590955,44.145174,2094 7.590911,44.145059,2093 7.590881,44.144954,2092 7.590884,44.144836,2091 7.590889,44.144759,2090 7.590836,44.144572,2089 7.590809,44.144454,2088 7.590762,44.144366,2087 7.590674,44.144166,2086 7.590632,44.144064,2085 7.590582,44.143970,2084 7.590542,44.143876,2083 7.590488,44.143782,2082 7.590441,44.143682,2081 7.590361,44.143497,2079 7.590256,44.143410,2079 7.590165,44.143326,2078 7.590057,44.143135,2077 7.590006,44.143053,2077 7.589798,44.142927,2076 7.589691,44.142853,2076 7.589595,44.142731,2075 7.589540,44.142627,2074 7.589526,44.142524,2073 7.589495,44.142420,2072 7.589549,44.142307,2071 7.589566,44.142214,2070 7.589541,44.142101,2070 7.589549,44.142002,2069 7.589504,44.141868,2068 7.589487,44.141726,2067 7.589452,44.141581,2066 7.589401,44.141458,2065 7.589402,44.141360,2064 7.589367,44.141211,2064 7.589397,44.141095,2063 7.589389,44.141109,2063 7.589428,44.141129,2063 7.589457,44.141250,2064 7.589476,44.141418,2065 7.589489,44.141502,2066 7.589518,44.141565,2066 7.589556,44.141652,2067 7.589585,44.141804,2068 7.589602,44.141919,2069 7.589621,44.141988,2069 7.589602,44.142141,2071 7.589612,44.142276,2072 7.589595,44.142369,2073 7.589549,44.142428,2074 7.589543,44.142500,2075 7.589549,44.142499,2075 7.589555,44.142521,2075 7.589578,44.142597,2075 7.589598,44.142704,2076 7.589655,44.142787,2077 7.589723,44.142853,2077 7.589905,44.142980,2078 7.590091,44.143174,2078 7.590210,44.143321,2079 7.590256,44.143359,2080 7.590400,44.143506,2081 7.590432,44.143561,2081 7.590448,44.143603,2082 7.590530,44.143747,2084 7.590599,44.143873,2085 7.590651,44.143987,2086 7.590683,44.144070,2087 7.590716,44.144149,2087 7.590799,44.144300,2088 7.590841,44.144375,2088 7.590915,44.144522,2089 7.590922,44.144691,2090 7.590906,44.144866,2090 7.590910,44.144899,2091 7.590901,44.145018,2091 7.590999,44.145146,2091 7.591076,44.145302,2092 7.591121,44.145394,2093 7.591141,44.145445,2094 7.591149,44.145527,2095 7.591185,44.145649,2096 7.591203,44.145789,2096 7.591219,44.145876,2097 7.591223,44.145931,2098 7.591234,44.146063,2100 7.591229,44.146115,2101 7.591221,44.146211,2102 7.591193,44.146300,2103 7.591197,44.146396,2104 7.591204,44.146503,2106 7.591222,44.146599,2107 7.591200,44.146661,2108 7.591159,44.146730,2109 7.591174,44.146825,2110 7.591187,44.146906,2111 7.591191,44.146959,2112 7.591217,44.147076,2114 7.591215,44.147191,2115 7.591189,44.147270,2116 7.591152,44.147394,2117 7.591115,44.147453,2118 7.591043,44.147540,2119 7.591019,44.147626,2120 7.591015,44.147680,2121 7.591020,44.147786,2123 7.590999,44.147844,2124 7.590912,44.147913,2126 7.590858,44.147934,2126 7.590773,44.147956,2126 7.590589,44.148030,2128 7.590526,44.148078,2129 7.590481,44.148150,2129 7.590422,44.148253,2130 7.590373,44.148348,2132 7.590369,44.148434,2133 7.590347,44.148527,2134 7.590315,44.148620,2135 7.590307,44.148683,2136 7.590284,44.148777,2138 7.590290,44.148836,2139 7.590290,44.148916,2140 7.590283,44.149067,2142 7.590261,44.149172,2143 7.590244,44.149259,2144 7.590246,44.149336,2145 7.590220,44.149455,2146 7.590167,44.149568,2147 7.590151,44.149665,2148 7.590099,44.149843,2150 7.590089,44.149904,2151 7.590051,44.149968,2152 7.589976,44.150012,2153 7.589813,44.150131,2154 7.589729,44.150231,2155 7.589602,44.150323,2156 7.589577,44.150354,2156 7.589507,44.150398,2156 7.589452,44.150468,2155 7.589418,44.150466,2154 7.589403,44.150450,2152 7.589394,44.150425,2151 7.589379,44.150411,2150 7.589347,44.150395,2149 7.589341,44.150393,2146 7.589315,44.150403,2145 7.589206,44.150403,2143 7.589166,44.150393,2141 7.589158,44.150387,2140 7.589127,44.150392,2139 7.589092,44.150365,2137 7.589032,44.150359,2135 7.588991,44.150341,2134 7.588948,44.150334,2132 7.588937,44.150346,2131 7.588917,44.150389,2130 7.588846,44.150411,2129 7.588612,44.150440,2127 7.588471,44.150484,2126 7.588353,44.150491,2125 7.588281,44.150507,2124 7.588143,44.150511,2121 7.588060,44.150487,2119 7.588026,44.150500,2118 7.587968,44.150505,2117 7.587930,44.150499,2116 7.587854,44.150494,2114 7.587810,44.150492,2113 7.587759,44.150508,2111 7.587693,44.150531,2109 7.587639,44.150549,2108 7.587624,44.150575,2107 7.587558,44.150607,2105 7.587501,44.150622,2104 7.587424,44.150634,2102 7.587351,44.150598,2100 7.587350,44.150579,2099 7.587296,44.150579,2098 7.587212,44.150593,2096 7.587152,44.150597,2095 7.587090,44.150606,2092 7.587017,44.150628,2090 7.586993,44.150627,2089 7.586919,44.150646,2087 7.586826,44.150638,2085 7.586759,44.150650,2084 7.586694,44.150663,2083 7.586658,44.150666,2081 7.586601,44.150680,2079 7.586536,44.150676,2077 7.586439,44.150641,2076 7.586378,44.150647,2074 7.586327,44.150668,2073 7.586277,44.150661,2071 7.586239,44.150653,2070 7.586202,44.150667,2069 7.586095,44.150654,2067 7.586057,44.150660,2066 7.586037,44.150664,2065 7.585962,44.150672,2064 7.585904,44.150684,2062 7.585822,44.150698,2061 7.585738,44.150705,2059 7.585673,44.150703,2058 7.585569,44.150694,2057 7.585477,44.150695,2056 7.585402,44.150702,2054 7.585180,44.150755,2054 7.584988,44.150904,2051 7.584926,44.150923,2050 7.584857,44.150949,2049 7.584759,44.151011,2047 7.584670,44.151096,2045 7.584608,44.151145,2043 7.584548,44.151187,2042 7.584484,44.151226,2041 7.584453,44.151244,2040 7.584358,44.151289,2038 7.584253,44.151343,2037 7.584138,44.151347,2035 7.584053,44.151318,2033 7.584033,44.151346,2032 7.584015,44.151379,2031 7.583975,44.151376,2029 7.583962,44.151383,2028 7.583899,44.151357,2027 7.583854,44.151337,2026 7.583805,44.151312,2024 7.583773,44.151310,2022 7.583758,44.151322,2021 7.583698,44.151337,2019 7.583674,44.151341,2018 7.583632,44.151355,2017 7.583613,44.151387,2016 7.583593,44.151401,2014 7.583541,44.151425,2013 7.583505,44.151443,2012 7.583490,44.151447,2011 7.583473,44.151452,2010 7.583449,44.151461,2009 7.583408,44.151467,2008 7.583383,44.151456,2007 7.583349,44.151490,2005 7.583303,44.151479,2004 7.583288,44.151517,2002 7.583238,44.151535,2000 7.583215,44.151543,1999 7.583156,44.151546,1998 7.583093,44.151487,1996 7.583126,44.151472,1995 7.583122,44.151504,1994 7.583104,44.151544,1993 7.583073,44.151594,1991 7.582999,44.151610,1990 7.582967,44.151622,1989 7.582938,44.151614,1987 7.582912,44.151664,1986 7.582864,44.151673,1984 7.582755,44.151672,1982 7.582732,44.151702,1981 7.582735,44.151701,1980 7.582690,44.151690,1978 7.582639,44.151683,1977 7.582610,44.151706,1975 7.582603,44.151721,1974 7.582565,44.151737,1973 7.582510,44.151733,1971 7.582509,44.151740,1971 7.582477,44.151735,1970 7.582465,44.151764,1969 7.582442,44.151787,1968 7.582437,44.151783,1967 7.582416,44.151786,1966 7.582389,44.151804,1965 7.582353,44.151832,1964 7.582306,44.151843,1962 7.582240,44.151802,1960 7.582205,44.151800,1959 7.582178,44.151815,1958 7.582140,44.151842,1956 7.582091,44.151847,1954 7.582045,44.151853,1953 7.582017,44.151882,1951 7.581965,44.151876,1949 7.581887,44.151862,1948 7.581858,44.151857,1947 7.581817,44.151859,1946 7.581753,44.151863,1944 7.581700,44.151856,1942 7.581605,44.151888,1940 7.581570,44.151883,1939 7.581527,44.151881,1938 7.581433,44.151885,1936 7.581379,44.151884,1934 7.581329,44.151900,1933 7.581249,44.151907,1931 7.581185,44.151918,1930 7.581148,44.151928,1929 7.581080,44.151935,1928 7.580975,44.151916,1925 7.580923,44.151906,1924 7.580888,44.151910,1923 7.580807,44.151883,1921 7.580757,44.151895,1919 7.580702,44.151902,1918 7.580584,44.151914,1916 7.580448,44.151920,1914 7.580342,44.151920,1913 7.580259,44.151923,1911 7.580187,44.151947,1909 7.580129,44.151963,1907 7.580020,44.151948,1906 7.579893,44.151960,1906 7.579789,44.151971,1904 7.579717,44.151986,1903 7.579668,44.151997,1902 7.579591,44.152021,1901 7.579471,44.152050,1899 7.579370,44.152084,1896 7.579311,44.152106,1895 7.579214,44.152137,1893 7.579182,44.152137,1891 7.579126,44.152126,1890 7.579047,44.152134,1888 7.578934,44.152168,1887 7.578866,44.152166,1886 7.578819,44.152160,1884 7.578739,44.152176,1883 7.578654,44.152210,1881 7.578545,44.152234,1879 7.578505,44.152240,1878 7.578356,44.152313,1877 7.578271,44.152375,1876 7.578174,44.152444,1876 7.578172,44.152433,1877 7.578002,44.152459,1876 7.577793,44.152595,1877 7.577632,44.152670,1878 7.577472,44.152754,1879 7.577318,44.152856,1879 7.577117,44.153055,1879 7.577013,44.153138,1880 7.576899,44.153228,1880 7.576868,44.153283,1881 7.576652,44.153425,1882 7.576504,44.153536,1883 7.576413,44.153643,1883 7.576242,44.153760,1883 7.575869,44.153789,1883 7.575703,44.153745,1883 7.575496,44.153679,1883 7.575363,44.153636,1882 7.575157,44.153544,1881 7.575017,44.153507,1881 7.574677,44.153380,1880 7.574501,44.153291,1880 7.574237,44.153102,1879 7.574032,44.152928,1878 7.573823,44.152711,1878 7.573600,44.152511,1878 7.573456,44.152378,1878 7.573254,44.152245,1877 7.573035,44.152082,1876 7.572933,44.152013,1875 7.572735,44.151900,1875 7.572616,44.151844,1874 7.572465,44.151837,1874 7.572232,44.151828,1874 7.571991,44.151872,1873 7.571870,44.151926,1872 7.571747,44.151973,1871 7.571679,44.152011,1870 7.571559,44.152083,1869 7.571445,44.152130,1868 7.571213,44.152238,1867 7.571144,44.152269,1866 7.570971,44.152336,1865 7.570879,44.152403,1864 7.570791,44.152472,1863 7.570726,44.152515,1862 7.570741,44.152510,1862 7.570724,44.152511,1862 7.570554,44.152584,1861 7.570437,44.152651,1860 7.570276,44.152750,1860 7.570152,44.152850,1859 7.570027,44.152915,1858 7.569987,44.152942,1857 7.569843,44.153003,1857 7.569760,44.153051,1855 7.569633,44.153134,1854 7.569343,44.153259,1853 7.569264,44.153297,1852 7.569155,44.153385,1851 7.569040,44.153436,1850 7.568945,44.153466,1849 7.568802,44.153512,1848 7.568690,44.153535,1847 7.568563,44.153542,1846 7.568416,44.153619,1845 7.568327,44.153727,1844 7.568213,44.153815,1843 7.568127,44.153887,1842 7.568088,44.153990,1842 7.568031,44.154101,1841 7.567963,44.154164,1839 7.567892,44.154271,1838 7.567831,44.154399,1837 7.567772,44.154489,1836 7.567703,44.154565,1835 7.567607,44.154631,1834 7.567492,44.154685,1833 7.567346,44.154703,1832 7.567208,44.154716,1831 7.567111,44.154731,1830 7.566918,44.154798,1829 7.566773,44.154827,1828 7.566635,44.154862,1827 7.566498,44.154915,1826 7.566359,44.154986,1825 7.566240,44.155059,1824 7.566200,44.155059,1824 7.566040,44.155083,1823 7.565891,44.155098,1822 7.565809,44.155106,1821 7.565698,44.155139,1820 7.565572,44.155165,1819 7.565456,44.155193,1818 7.565291,44.155218,1818 7.565190,44.155275,1817 7.565103,44.155338,1816 7.564979,44.155395,1815 7.564804,44.155440,1814 7.564686,44.155474,1813 7.564575,44.155518,1812 7.564459,44.155593,1811 7.564381,44.155708,1810 7.564261,44.155801,1808 7.564174,44.155912,1807 7.564007,44.156007,1806 7.563929,44.156069,1804 7.563877,44.156149,1803 7.563794,44.156197,1802 7.563759,44.156200,1801 7.563737,44.156181,1801 7.563733,44.156194,1800 7.563625,44.156272,1800 7.563602,44.156257,1800 7.563615,44.156240,1800 7.563567,44.156243,1799 7.563565,44.156245,1797 7.563603,44.156254,1797 7.563610,44.156271,1800 7.563632,44.156278,1799 7.563641,44.156228,1799 7.563640,44.156227,1799 7.563645,44.156222,1799 7.563639,44.156202,1799 7.563607,44.156255,1798 7.563583,44.156257,1798 7.563600,44.156266,1798 7.563611,44.156267,1798 7.563621,44.156261,1798 7.563666,44.156210,1798 7.563627,44.156233,1798 7.563600,44.156256,1798 7.563582,44.156265,1798 7.563565,44.156291,1798 7.563566,44.156326,1798 7.563548,44.156307,1798 7.563600,44.156238,1797 7.563639,44.156222,1797 7.563560,44.156273,1798 7.563632,44.156292,1798 7.563639,44.156283,1798 7.563592,44.156259,1798 7.563560,44.156286,1798 7.563582,44.156266,1798 7.563576,44.156276,1798 7.563576,44.156248,1798 7.563606,44.156234,1798 7.563587,44.156274,1797 7.563600,44.156230,1797 7.563575,44.156293,1797 7.563588,44.156265,1796 7.563581,44.156272,1796 7.563589,44.156220,1796 7.563601,44.156216,1796 7.563580,44.156229,1796 7.563583,44.156253,1796 7.563648,44.156250,1797 7.563653,44.156217,1796 7.563630,44.156251,1796 7.563635,44.156250,1796 7.563541,44.156297,1796 7.563543,44.156275,1796 7.563536,44.156279,1796 7.563519,44.156302,1796 7.563639,44.156245,1797 7.563702,44.156219,1797 7.563662,44.156190,1797 7.563649,44.156191,1797 7.563609,44.156212,1797 7.563609,44.156259,1797 7.563557,44.156288,1796 7.563620,44.156263,1795 7.563607,44.156294,1795 7.563579,44.156309,1795 7.563545,44.156289,1794 7.563600,44.156266,1794 7.563606,44.156256,1794 7.563683,44.156258,1795 7.563631,44.156277,1795 7.563622,44.156232,1795 7.563652,44.156243,1795 7.563790,44.156177,1796 7.563825,44.156177,1797 7.563830,44.156161,1797 7.563825,44.156115,1798 7.563845,44.156044,1798 7.563848,44.155988,1799 7.563845,44.155934,1800 7.563843,44.155891,1800 7.563864,44.155802,1802 7.563853,44.155721,1802 7.563841,44.155668,1803 7.563803,44.155605,1804 7.563785,44.155570,1804 7.563773,44.155487,1805 7.563760,44.155402,1807 7.563768,44.155323,1808 7.563776,44.155178,1809 7.563805,44.155058,1810 7.563800,44.154984,1811 7.563776,44.154903,1812 7.563756,44.154880,1812 7.563754,44.154816,1813 7.563773,44.154703,1814 7.563836,44.154603,1815 7.563910,44.154465,1816 7.563968,44.154358,1817 7.564038,44.154278,1818 7.564094,44.154188,1819 7.564143,44.154090,1820 7.564201,44.153985,1821 7.564301,44.153892,1822 7.564349,44.153787,1823 7.564381,44.153677,1824 7.564435,44.153578,1825 7.564518,44.153491,1826 7.564539,44.153428,1827 7.564548,44.153422,1827 7.564578,44.153407,1827 7.564630,44.153325,1828 7.564704,44.153246,1829 7.564774,44.153158,1830 7.564850,44.153043,1831 7.564935,44.152961,1832 7.565003,44.152870,1833 7.565081,44.152758,1834 7.565144,44.152678,1835 7.565237,44.152577,1836 7.565297,44.152488,1837 7.565412,44.152374,1838 7.565477,44.152284,1838 7.565516,44.152218,1839 7.565533,44.152103,1841 7.565527,44.152047,1842 7.565499,44.151869,1844 7.565422,44.151775,1845 7.565304,44.151701,1846 7.565206,44.151668,1847 7.565085,44.151578,1848 7.564915,44.151488,1848 7.564781,44.151413,1849 7.564646,44.151334,1850 7.564401,44.151201,1852 7.564261,44.151132,1853 7.564181,44.151089,1854 7.564070,44.151025,1855 7.563954,44.150932,1856 7.563828,44.150859,1857 7.563710,44.150782,1858 7.563559,44.150702,1859 7.563407,44.150580,1860 7.563259,44.150492,1861 7.563086,44.150385,1862 7.562948,44.150337,1863 7.562745,44.150241,1864 7.562400,44.150098,1865 7.562258,44.150019,1866 7.562163,44.149956,1867 7.562135,44.149932,1868 7.562026,44.149840,1869 7.561901,44.149729,1869 7.561844,44.149667,1871 7.561765,44.149600,1871 7.561765,44.149600,1871 7.561746,44.149610,1871 7.561647,44.149574,1872 7.561472,44.149519,1871 7.561205,44.149452,1873 7.561086,44.149425,1874 7.561035,44.149429,1875 7.560999,44.149435,1876 7.560958,44.149440,1876 7.560874,44.149444,1878 7.560776,44.149453,1879 7.560693,44.149455,1881 7.560643,44.149450,1882 7.560548,44.149436,1883 7.560452,44.149442,1884 7.560380,44.149442,1885 7.560334,44.149428,1885 7.560244,44.149428,1887 7.560150,44.149444,1887 7.559979,44.149457,1889 7.559926,44.149456,1890 7.559806,44.149435,1892 7.559673,44.149437,1893 7.559552,44.149452,1894 7.559360,44.149420,1894 7.559304,44.149363,1895 7.559307,44.149337,1896 7.559314,44.149337,1897 7.559314,44.149339,1896 7.559306,44.149331,1896 7.559262,44.149376,1895 7.559225,44.149363,1895 7.559199,44.149295,1896 7.559084,44.149203,1896 7.559045,44.149147,1896 7.559063,44.149180,1896 7.559115,44.149249,1896 7.559058,44.149174,1896 7.558999,44.149073,1896 7.558972,44.149033,1897 7.558868,44.148898,1898 7.558776,44.148770,1899 7.558699,44.148611,1900 7.558666,44.148466,1901 7.558666,44.148362,1901 7.558676,44.148188,1902 7.558611,44.148041,1902 7.558541,44.147975,1902 7.558443,44.147899,1903 7.558301,44.147768,1902 7.558209,44.147700,1903 7.557977,44.147565,1903 7.557724,44.147472,1903 7.557480,44.147401,1904 7.557356,44.147359,1904 7.557263,44.147288,1904 7.557176,44.147225,1905 7.557108,44.147193,1906 7.557035,44.147155,1907 7.556968,44.147123,1908 7.556904,44.147104,1909 7.556830,44.147084,1910 7.556755,44.147066,1911 7.556704,44.147033,1912 7.556670,44.147021,1913 7.556608,44.147009,1914 7.556564,44.146986,1915 7.556542,44.146983,1916 7.556490,44.146951,1917 7.556474,44.146921,1918 7.556450,44.146905,1919 7.556416,44.146884,1920 7.556396,44.146887,1921 7.556338,44.146914,1921 7.556286,44.146924,1922 7.556269,44.146872,1923 7.556263,44.146827,1924 7.556250,44.146790,1925 7.556239,44.146769,1926 7.556220,44.146768,1927 7.556205,44.146735,1928 7.556194,44.146709,1930 7.556165,44.146675,1931 7.556116,44.146675,1932 7.556086,44.146676,1932 7.556053,44.146688,1933 7.556037,44.146711,1933 7.556012,44.146706,1934 7.555972,44.146666,1935 7.555931,44.146647,1936 7.555890,44.146658,1936 7.555846,44.146672,1936 7.555809,44.146677,1937 7.555805,44.146684,1938 7.555813,44.146680,1938 7.555738,44.146706,1939 7.555681,44.146711,1940 7.555659,44.146717,1941 7.555615,44.146716,1942 7.555561,44.146736,1944 7.555496,44.146744,1945 7.555454,44.146751,1946 7.555458,44.146743,1947 7.555442,44.146666,1949 7.555381,44.146651,1950 7.555346,44.146666,1951 7.555304,44.146657,1952 7.555249,44.146638,1953 7.555221,44.146631,1955 7.555192,44.146634,1956 7.555155,44.146625,1957 7.555092,44.146638,1958 7.554974,44.146630,1960 7.554929,44.146616,1961 7.554922,44.146628,1961 7.554741,44.146648,1962 7.554626,44.146680,1963 7.554517,44.146683,1963 7.554378,44.146677,1964 7.554240,44.146690,1965 7.554184,44.146690,1966 7.554092,44.146687,1966 7.553968,44.146682,1967 7.553825,44.146654,1968 7.553711,44.146643,1970 7.553564,44.146638,1971 7.553464,44.146642,1972 7.553272,44.146630,1974 7.553141,44.146653,1975 7.553026,44.146668,1976 7.552924,44.146673,1977 7.552823,44.146660,1978 7.552709,44.146650,1979 7.552584,44.146643,1980 7.552471,44.146639,1981 7.552349,44.146634,1982 7.552202,44.146629,1983 7.551986,44.146611,1986 7.551886,44.146606,1987 7.551762,44.146604,1988 7.551620,44.146593,1989 7.551503,44.146566,1990 7.551388,44.146554,1991 7.551306,44.146553,1992 7.551191,44.146540,1993 7.551091,44.146531,1994 7.550959,44.146525,1995 7.550923,44.146525,1996 7.550808,44.146533,1997 7.550718,44.146527,1998 7.550615,44.146533,1999 7.550487,44.146552,2000 7.550397,44.146567,2001 7.550293,44.146578,2002 7.550186,44.146581,2003 7.550181,44.146549,2004 7.550278,44.146518,2005 7.550402,44.146460,2006 7.550505,44.146426,2007 7.550579,44.146401,2008 7.550700,44.146368,2009 7.550822,44.146327,2010 7.550967,44.146278,2011 7.551082,44.146224,2012 7.551198,44.146184,2013 7.551348,44.146156,2015 7.551464,44.146146,2016 7.551666,44.146122,2017 7.551629,44.146080,2018 7.551511,44.146068,2019 7.551393,44.146051,2020 7.551279,44.146019,2020 7.551177,44.146006,2021 7.550921,44.145981,2023 7.550800,44.145963,2024 7.550670,44.145973,2025 7.550521,44.145997,2026 7.550392,44.145999,2027 7.550254,44.145995,2029 7.550152,44.145976,2029 7.550002,44.145955,2030 7.549914,44.145952,2031 7.549852,44.145940,2032 7.549760,44.145925,2033 7.549657,44.145914,2034 7.549543,44.145919,2035 7.549411,44.145934,2036 7.549284,44.145943,2037 7.549186,44.145955,2038 7.549150,44.145906,2039 7.549238,44.145884,2040 7.549359,44.145866,2041 7.549509,44.145804,2042 7.549620,44.145738,2043 7.549700,44.145716,2043 7.549762,44.145623,2044 7.549631,44.145615,2045 7.549489,44.145613,2046 7.549400,44.145605,2046 7.549224,44.145591,2047 7.549115,44.145588,2048 7.548983,44.145575,2049 7.548870,44.145597,2050 7.548759,44.145612,2051 7.548632,44.145580,2051 7.548558,44.145586,2052 7.548499,44.145588,2053 7.548408,44.145571,2054 7.548331,44.145535,2055 7.548266,44.145551,2057 7.548215,44.145577,2058 7.548163,44.145588,2059 7.548103,44.145646,2062 7.548020,44.145668,2063 7.547894,44.145737,2064 7.547615,44.145857,2064 7.547321,44.146020,2064 7.547035,44.146162,2065 7.546934,44.146208,2065 7.546652,44.146309,2065 7.546472,44.146306,2065 7.546359,44.146239,2066 7.546324,44.146272,2066 7.546311,44.146252,2065 7.546096,44.146096,2066 7.545953,44.146016,2066 7.545672,44.145927,2066 7.545367,44.145827,2067 7.545162,44.145786,2067 7.544855,44.145708,2068 7.544671,44.145650,2068 7.544352,44.145535,2069 7.544174,44.145505,2069 7.544024,44.145461,2069 7.543843,44.145424,2070 7.543669,44.145388,2070 7.543491,44.145350,2070 7.543188,44.145291,2071 7.542863,44.145195,2071 7.542593,44.145189,2071 7.542360,44.145214,2071 7.542031,44.145284,2071 7.541754,44.145281,2071 7.541701,44.145286,2071 7.541354,44.145253,2071 7.540920,44.145244,2071 7.540591,44.145270,2071 7.540194,44.145310,2071 7.539874,44.145351,2071 7.539476,44.145413,2071 7.539033,44.145525,2072 7.538599,44.145569,2071 7.538382,44.145616,2072 7.538011,44.145769,2072 7.537914,44.145908,2073 7.537800,44.146121,2074 7.537681,44.146219,2074 7.537304,44.146287,2074 7.536940,44.146302,2074 7.536593,44.146386,2075 7.536411,44.146465,2075 7.536071,44.146579,2076 7.535774,44.146735,2076 7.535666,44.146812,2076 7.535378,44.146911,2077 7.535198,44.146989,2077 7.534954,44.147220,2077 7.534814,44.147527,2078 7.534780,44.147670,2078 7.534771,44.147993,2078 7.534713,44.148265,2078 7.534634,44.148314,2078 7.534632,44.148306,2078 7.534650,44.148307,2077 7.534616,44.148298,2077 7.534640,44.148290,2077 7.534647,44.148300,2076 7.534638,44.148307,2076 7.534628,44.148314,2076 7.534643,44.148280,2076 7.534641,44.148293,2076 7.534722,44.148291,2077 7.534721,44.148299,2077 7.534727,44.148286,2077 7.534753,44.148286,2076 7.534746,44.148296,2076 7.534713,44.148283,2076 7.534689,44.148315,2077 7.534725,44.148306,2076 7.534719,44.148313,2077 7.534726,44.148301,2077 7.534721,44.148298,2076 7.534729,44.148308,2076 7.534728,44.148301,2075 7.534728,44.148293,2075 7.534725,44.148288,2075 7.534734,44.148304,2075 7.527239,44.140527,2070 7.527179,44.140505,2070 7.527138,44.140358,2070 7.527066,44.140276,2070 7.526945,44.140113,2070 7.526895,44.140049,2070 7.526720,44.139878,2071 7.526659,44.139807,2072 7.526624,44.139735,2073 7.526612,44.139679,2073 7.526549,44.139658,2074 7.526425,44.139632,2075 7.526351,44.139589,2076 7.526241,44.139536,2077 7.526167,44.139513,2078 7.526073,44.139465,2079 7.526013,44.139414,2080 7.525939,44.139362,2081 7.525866,44.139306,2082 7.525795,44.139261,2083 7.525741,44.139224,2084 7.525660,44.139162,2085 7.525572,44.139130,2086 7.525493,44.139110,2087 7.525400,44.139094,2088 7.525322,44.139088,2089 7.525254,44.139085,2091 7.525169,44.139087,2092 7.525065,44.139079,2093 7.524968,44.139051,2094 7.524888,44.139043,2096 7.524853,44.139045,2096 7.524773,44.139064,2097 7.524678,44.139091,2098 7.524574,44.139088,2099 7.524474,44.139083,2100 7.524370,44.139046,2102 7.524290,44.138974,2103 7.524113,44.138934,2105 7.524026,44.138942,2106 7.523937,44.138969,2107 7.523837,44.138984,2108 7.523728,44.138985,2109 7.523629,44.138962,2111 7.523567,44.138957,2111 7.523496,44.138959,2112 7.523408,44.138939,2114 7.523332,44.138917,2115 7.523220,44.138873,2116 7.523117,44.138856,2117 7.523017,44.138818,2118 7.522955,44.138801,2119 7.522906,44.138783,2120 7.522830,44.138760,2122 7.522754,44.138728,2123 7.522632,44.138708,2124 7.522533,44.138687,2125 7.522492,44.138665,2125 7.522454,44.138607,2126 7.522344,44.138532,2127 7.522275,44.138463,2128 7.522215,44.138435,2129 7.522167,44.138437,2129 7.522097,44.138391,2132 7.522079,44.138367,2133 7.522024,44.138315,2134 7.521903,44.138264,2135 7.521848,44.138253,2136 7.521778,44.138233,2137 7.521730,44.138235,2139 7.521651,44.138232,2141 7.521590,44.138218,2142 7.521367,44.138155,2142 7.521284,44.138161,2143 7.521226,44.138150,2144 7.521157,44.138135,2145 7.521068,44.138118,2147 7.520915,44.138153,2149 7.520831,44.138157,2150 7.520769,44.138170,2150 7.520615,44.138169,2151 7.520591,44.138155,2152 7.520523,44.138176,2153 7.520476,44.138203,2153 7.520398,44.138229,2154 7.520332,44.138217,2156 7.520284,44.138223,2157 7.520237,44.138234,2158 7.520108,44.138248,2158 7.520037,44.138233,2159 7.519938,44.138236,2161 7.519857,44.138273,2161 7.519816,44.138282,2161 7.519749,44.138329,2162 7.519736,44.138334,2163 7.519681,44.138368,2164 7.519578,44.138427,2166 7.519403,44.138444,2167 7.519302,44.138526,2167 7.519249,44.138588,2168 7.519243,44.138629,2168 7.519201,44.138720,2170 7.519156,44.138764,2171 7.519123,44.138826,2172 7.519079,44.138882,2174 7.519087,44.138895,2175 7.519067,44.138916,2176 7.518921,44.139003,2176 7.518787,44.139093,2177 7.518798,44.139076,2177 7.518822,44.139020,2177 7.518817,44.139018,2177 7.518818,44.139052,2177 7.518756,44.139169,2179 7.518697,44.139237,2180 7.518669,44.139281,2181 7.518660,44.139306,2182 7.518638,44.139371,2185 7.518626,44.139433,2186 7.518589,44.139437,2186 7.518558,44.139444,2187 7.518523,44.139457,2188 7.518472,44.139487,2189 7.518435,44.139505,2190 7.518358,44.139542,2190 7.518335,44.139557,2191 7.518301,44.139621,2192 7.518298,44.139604,2192 7.518339,44.139643,2193 7.518320,44.139650,2193 7.518255,44.139648,2193 7.518270,44.139634,2193 7.518328,44.139625,2193 7.518363,44.139635,2193 7.518400,44.139661,2192 7.518406,44.139705,2191 7.518439,44.139744,2192 7.518497,44.139754,2191 7.518502,44.139792,2191 7.518507,44.139797,2191 7.518412,44.139738,2192 7.518359,44.139661,2193 7.518297,44.139615,2195 7.518266,44.139664,2195 7.518216,44.139695,2196 7.518111,44.139746,2197 7.518086,44.139759,2198 7.518081,44.139774,2198 7.518076,44.139809,2199 7.518004,44.139842,2200 7.517959,44.139854,2201 7.517885,44.139850,2202 7.517872,44.139842,2203 7.517812,44.139887,2204 7.517774,44.139903,2204 7.517688,44.139898,2205 7.517660,44.139907,2206 7.517582,44.139947,2207 7.517537,44.139950,2208 7.517495,44.139954,2209 7.517471,44.139940,2210 7.517473,44.139921,2212 7.517476,44.139887,2214 7.517491,44.139858,2215 7.517492,44.139852,2216 7.517465,44.139854,2216 7.517403,44.139817,2215 7.517423,44.139712,2215 7.517437,44.139704,2214 7.517432,44.139718,2214 7.517431,44.139728,2214 7.517411,44.139724,2214 7.517349,44.139695,2212 7.517344,44.139708,2212 7.517333,44.139669,2212 7.517326,44.139672,2212 7.517346,44.139678,2212 7.517439,44.139693,2213 7.517485,44.139665,2212 7.517513,44.139596,2213 7.517506,44.139492,2213 7.517479,44.139427,2214 7.517459,44.139385,2215 7.517414,44.139297,2215 7.517360,44.139226,2215 7.517291,44.139189,2214 7.517217,44.139145,2214 7.517160,44.139108,2214 7.517124,44.139105,2215 7.517135,44.139096,2215 7.517158,44.139106,2214 7.517189,44.139093,2213 7.517183,44.139054,2213 7.517213,44.139012,2215 7.517278,44.138974,2216 7.517326,44.138937,2217 7.517366,44.138919,2219 7.517455,44.138865,2220 7.517522,44.138855,2222 7.517579,44.138851,2223 7.517661,44.138874,2224 7.517733,44.138855,2225 7.517843,44.138815,2226 7.517897,44.138795,2226 7.517897,44.138793,2226 7.517810,44.138856,2226 7.517804,44.138853,2226 7.517824,44.138847,2225 7.517836,44.138836,2225 7.517811,44.138822,2225 7.517799,44.138801,2224 7.517801,44.138803,2224 7.517788,44.138822,2224 7.517748,44.138832,2223 7.517690,44.138833,2223 7.517603,44.138845,2222 7.517591,44.138847,2222 7.517501,44.138855,2221 7.517391,44.138884,2219 7.517340,44.138907,2218 7.517228,44.138961,2215 7.517214,44.138982,2214 7.517191,44.139078,2213 7.517195,44.139170,2211 7.517186,44.139204,2211 7.517248,44.139200,2211 7.517327,44.139241,2212 7.517370,44.139285,2212 7.517355,44.139284,2213 7.517358,44.139292,2213 7.517330,44.139266,2213 7.517381,44.139372,2213 7.517460,44.139475,2212 7.517494,44.139567,2212 7.517499,44.139631,2212 7.517359,44.139718,2213 7.517362,44.139655,2213 7.517345,44.139646,2213 7.517347,44.139670,2212 7.517312,44.139711,2213 7.517342,44.139702,2213 7.517339,44.139671,2213 7.517335,44.139610,2212 7.517273,44.139658,2211 7.517160,44.139750,2211 7.517164,44.139698,2211 7.517189,44.139710,2211 7.517180,44.139704,2212 7.517136,44.139727,2212 7.517152,44.139708,2213 7.517186,44.139732,2214 7.517171,44.139711,2214 7.517173,44.139650,2215 7.517161,44.139667,2215 7.517160,44.139676,2215 7.517158,44.139715,2215 7.517152,44.139696,2215 7.517137,44.139727,2215 7.517139,44.139729,2215 7.517121,44.139713,2215 7.517058,44.139712,2215 7.517088,44.139731,2215 7.517127,44.139740,2216 7.517273,44.139706,2215 7.517249,44.139634,2215 7.517331,44.139659,2216 7.517366,44.139634,2216 7.517364,44.139635,2216 7.517327,44.139745,2216 7.517341,44.139706,2216 7.517348,44.139673,2216 7.517358,44.139602,2216 7.517337,44.139693,2216 7.517337,44.139691,2216 7.517342,44.139676,2216 7.517334,44.139652,2216 7.517332,44.139654,2216 7.517416,44.139742,2217 7.517414,44.139755,2218 7.517432,44.139767,2218 7.517550,44.139722,2218 7.517568,44.139710,2217 7.517486,44.139762,2217 7.517382,44.139734,2217 7.517345,44.139694,2216 7.517341,44.139713,2216 7.517327,44.139639,2215 7.517232,44.139705,2214 7.517152,44.139724,2214 7.517092,44.139697,2214 7.517082,44.139737,2214 7.517019,44.139751,2214 7.517067,44.139767,2215 7.517107,44.139731,2214 7.517127,44.139713,2214 7.517117,44.139726,2214 7.517096,44.139730,2213 7.517100,44.139739,2214 7.517089,44.139724,2215 7.517084,44.139734,2215 7.517113,44.139679,2215 7.517053,44.139674,2214 7.517038,44.139722,2214 7.517072,44.139676,2214 7.517061,44.139700,2214 7.517091,44.139684,2214 7.517046,44.139725,2214 7.517072,44.139704,2214 7.517093,44.139674,2214 7.517053,44.139705,2214 7.517057,44.139660,2214 7.517070,44.139654,2214 7.517068,44.139720,2214 7.517085,44.139761,2214 7.517056,44.139694,2213 7.517062,44.139689,2213 7.517099,44.139667,2213 7.517060,44.139629,2213 7.517105,44.139615,2214 7.517041,44.139703,2214 7.517088,44.139681,2214 7.517059,44.139720,2214 7.517045,44.139709,2215 7.517089,44.139698,2215 7.517088,44.139698,2216 7.517089,44.139699,2216 7.517107,44.139687,2216 7.517118,44.139675,2215 7.517082,44.139721,2215 7.517130,44.139740,2215</coordinates></LineString></Placemark></Document></kml>