<?xml version="1.0" encoding="UTF-8"?>
<kml xmlns="http://www.opengis.net/kml/2.2"><Document><name>Alta Linea Continua – Stage 10: Lago di Lausfer to Colle Longue</name><Style id="l"><LineStyle><color>ff2b30c4</color><width>4</width></LineStyle></Style><Placemark><name>Alta Linea Continua – Stage 10: Lago di Lausfer to Colle Longue</name><styleUrl>#l</styleUrl><LineString><tessellate>1</tessellate><altitudeMode>clampToGround</altitudeMode><coordinates>7.085871,44.225147,2355 7.085786,44.225371,2355 7.085727,44.225443,2354 7.085728,44.225637,2355 7.085742,44.225714,2356 7.085667,44.225730,2357 7.085592,44.225740,2359 7.085604,44.225793,2360 7.085591,44.225826,2361 7.085588,44.225833,2361 7.085560,44.225874,2363 7.085605,44.225916,2364 7.085619,44.225921,2365 7.085637,44.225940,2366 7.085684,44.225965,2367 7.085707,44.225985,2369 7.085736,44.226021,2370 7.085739,44.226045,2371 7.085681,44.226066,2372 7.085659,44.226061,2373 7.085645,44.226072,2373 7.085617,44.226081,2374 7.085610,44.226124,2376 7.085602,44.226140,2376 7.085596,44.226160,2377 7.085584,44.226174,2378 7.085523,44.226203,2380 7.085619,44.226275,2382 7.085649,44.226284,2383 7.085673,44.226310,2384 7.085626,44.226339,2385 7.085586,44.226356,2386 7.085576,44.226381,2387 7.085560,44.226400,2388 7.085524,44.226401,2389 7.085406,44.226420,2391 7.085384,44.226429,2393 7.085322,44.226428,2394 7.085299,44.226441,2395 7.085185,44.226458,2397 7.085139,44.226474,2398 7.085094,44.226486,2399 7.085084,44.226501,2400 7.085074,44.226511,2400 7.085050,44.226532,2401 7.085017,44.226549,2402 7.084994,44.226582,2403 7.084947,44.226650,2404 7.084856,44.226685,2405 7.084831,44.226713,2406 7.084699,44.226830,2406 7.084603,44.226899,2406 7.084500,44.226965,2406 7.084436,44.227032,2407 7.084418,44.227196,2407 7.084472,44.227259,2407 7.084472,44.227249,2407 7.084463,44.227236,2407 7.084455,44.227247,2407 7.084486,44.227267,2406 7.084438,44.227268,2406 7.084442,44.227264,2406 7.084457,44.227233,2406 7.084470,44.227255,2406 7.084461,44.227232,2406 7.084472,44.227258,2406 7.084466,44.227266,2406 7.084465,44.227260,2406 7.084490,44.227267,2407 7.084452,44.227245,2407 7.084431,44.227262,2407 7.084449,44.227255,2407 7.084451,44.227265,2407 7.084448,44.227242,2407 7.084434,44.227217,2408 7.084447,44.227275,2407 7.084408,44.227268,2408 7.084412,44.227301,2408 7.084454,44.227240,2409 7.084467,44.227257,2409 7.084450,44.227237,2408 7.084338,44.227207,2410 7.084246,44.227201,2411 7.084167,44.227226,2413 7.084138,44.227221,2414 7.084119,44.227237,2415 7.084084,44.227276,2417 7.083995,44.227334,2418 7.083934,44.227387,2419 7.083894,44.227443,2420 7.083870,44.227482,2422 7.083816,44.227549,2423 7.083785,44.227589,2425 7.083772,44.227608,2426 7.083704,44.227653,2427 7.083652,44.227680,2428 7.083629,44.227693,2430 7.083601,44.227724,2431 7.083570,44.227747,2432 7.083515,44.227794,2433 7.083469,44.227842,2435 7.083420,44.227875,2436 7.083360,44.227928,2437 7.083327,44.227986,2438 7.083294,44.228049,2440 7.083286,44.228093,2441 7.083245,44.228134,2442 7.083168,44.228132,2444 7.083215,44.228177,2444 7.083192,44.228177,2445 7.083119,44.228155,2446 7.083121,44.228191,2447 7.083117,44.228236,2448 7.083052,44.228256,2450 7.083030,44.228322,2451 7.083007,44.228361,2452 7.082953,44.228376,2453 7.082913,44.228367,2454 7.082834,44.228362,2454 7.082849,44.228390,2455 7.082881,44.228441,2456 7.082848,44.228455,2458 7.082745,44.228417,2459 7.082704,44.228453,2459 7.082753,44.228509,2460 7.082741,44.228555,2462 7.082719,44.228553,2462 7.082637,44.228555,2463 7.082551,44.228549,2464 7.082454,44.228559,2466 7.082318,44.228752,2464 7.082302,44.228767,2464 7.082244,44.228887,2464 7.082168,44.229003,2462 7.082058,44.229100,2462 7.081968,44.229226,2461 7.081916,44.229255,2460 7.081827,44.229325,2458 7.081770,44.229430,2458 7.081689,44.229466,2457 7.081582,44.229567,2457 7.081557,44.229663,2459 7.081460,44.229768,2459 7.081389,44.229865,2459 7.081275,44.230016,2458 7.081164,44.230105,2458 7.081120,44.230134,2456 7.081042,44.230216,2456 7.080893,44.230337,2456 7.080804,44.230389,2455 7.080721,44.230420,2455 7.080738,44.230414,2455 7.080754,44.230413,2455 7.080735,44.230426,2455 7.080719,44.230428,2455 7.080716,44.230426,2455 7.080593,44.230510,2456 7.080521,44.230558,2457 7.080469,44.230583,2458 7.080412,44.230601,2459 7.080358,44.230615,2460 7.080325,44.230639,2461 7.080255,44.230670,2463 7.080218,44.230694,2464 7.080198,44.230706,2465 7.080146,44.230705,2466 7.080111,44.230721,2468 7.080055,44.230754,2469 7.079979,44.230778,2471 7.079921,44.230803,2472 7.079838,44.230833,2474 7.079746,44.230863,2475 7.079698,44.230906,2476 7.079670,44.230914,2477 7.079637,44.230928,2478 7.079584,44.230963,2480 7.079548,44.231005,2481 7.079509,44.231042,2482 7.079474,44.231063,2483 7.079442,44.231075,2484 7.079340,44.231138,2485 7.079270,44.231187,2486 7.079192,44.231235,2486 7.079072,44.231306,2488 7.078999,44.231370,2489 7.078891,44.231429,2490 7.078793,44.231516,2491 7.078699,44.231576,2492 7.078536,44.231644,2491 7.078531,44.231638,2491 7.078485,44.231636,2491 7.078478,44.231646,2490 7.078362,44.231679,2489 7.078315,44.231689,2488 7.078164,44.231723,2487 7.078002,44.231780,2487 7.077875,44.231872,2488 7.077793,44.231975,2489 7.077762,44.232007,2490 7.077716,44.232060,2491 7.077579,44.232152,2492 7.077535,44.232193,2492 7.077534,44.232192,2492 7.077535,44.232193,2492 7.077438,44.232226,2493 7.077322,44.232288,2493 7.077246,44.232394,2494 7.077192,44.232431,2495 7.077159,44.232446,2496 7.077118,44.232468,2497 7.077075,44.232460,2498 7.077046,44.232451,2499 7.077027,44.232465,2501 7.076989,44.232478,2502 7.076967,44.232494,2503 7.076934,44.232519,2503 7.076886,44.232546,2504 7.076808,44.232580,2506 7.076795,44.232628,2506 7.076737,44.232674,2507 7.076671,44.232710,2507 7.076621,44.232741,2507 7.076520,44.232779,2507 7.076476,44.232763,2509 7.076479,44.232735,2509 7.076492,44.232689,2510 7.076510,44.232672,2511 7.076496,44.232672,2512 7.076482,44.232665,2513 7.076477,44.232644,2515 7.076516,44.232612,2516 7.076510,44.232579,2517 7.076478,44.232568,2518 7.076484,44.232549,2519 7.076471,44.232489,2520 7.076475,44.232462,2519 7.076448,44.232348,2519 7.076421,44.232327,2520 7.076400,44.232288,2522 7.076359,44.232261,2523 7.076250,44.232197,2523 7.076165,44.232131,2522 7.076112,44.232099,2520 7.076080,44.232086,2519 7.076048,44.232063,2517 7.076047,44.232052,2516 7.076036,44.232022,2514 7.076007,44.232015,2513 7.075957,44.231987,2511 7.075948,44.231974,2510 7.075830,44.231968,2509 7.075721,44.231975,2509 7.075634,44.231972,2511 7.075565,44.231976,2512 7.075557,44.231979,2512 7.075524,44.231980,2513 7.075478,44.231990,2514 7.075429,44.231990,2515 7.075373,44.231992,2515 7.075326,44.231997,2517 7.075269,44.232011,2517 7.075237,44.232020,2518 7.075177,44.231998,2520 7.075119,44.232001,2521 7.075037,44.232004,2523 7.074969,44.232011,2524 7.074962,44.232006,2524 7.074900,44.231997,2525 7.074824,44.232007,2527 7.074702,44.232015,2528 7.074635,44.232020,2528 7.074591,44.232026,2529 7.074537,44.232034,2530 7.074466,44.232038,2531 7.074397,44.232069,2533 7.074388,44.232073,2533 7.074347,44.232110,2535 7.074311,44.232117,2537 7.074294,44.232130,2538 7.074282,44.232151,2538 7.074237,44.232175,2539 7.074140,44.232194,2539 7.074086,44.232191,2540 7.073967,44.232212,2540 7.073873,44.232242,2541 7.073787,44.232277,2542 7.073730,44.232300,2542 7.073518,44.232350,2543 7.073419,44.232375,2544 7.073247,44.232384,2544 7.073156,44.232385,2544 7.073043,44.232405,2545 7.072961,44.232444,2546 7.072875,44.232473,2547 7.072765,44.232476,2547 7.072702,44.232486,2548 7.072674,44.232484,2548 7.072543,44.232490,2549 7.072428,44.232490,2550 7.072342,44.232495,2550 7.072299,44.232498,2550 7.072094,44.232492,2550 7.071981,44.232465,2552 7.071969,44.232468,2553 7.071892,44.232426,2554 7.071866,44.232416,2553 7.071807,44.232423,2552 7.071776,44.232441,2553 7.071666,44.232450,2553 7.071651,44.232458,2554 7.071624,44.232452,2555 7.071602,44.232465,2557 7.071583,44.232496,2558 7.071527,44.232522,2559 7.071465,44.232537,2559 7.071383,44.232540,2558 7.071318,44.232549,2560 7.071262,44.232564,2561 7.071241,44.232566,2562 7.071217,44.232565,2563 7.071188,44.232570,2564 7.071164,44.232564,2565 7.071114,44.232576,2566 7.071098,44.232587,2567 7.071104,44.232580,2568 7.071100,44.232578,2568 7.071101,44.232572,2569 7.071060,44.232561,2570 7.070998,44.232544,2569 7.070888,44.232524,2568 7.070837,44.232526,2569 7.070820,44.232519,2569 7.070753,44.232484,2569 7.070686,44.232464,2568 7.070662,44.232461,2568 7.070567,44.232494,2568 7.070469,44.232482,2568 7.070361,44.232448,2566 7.070236,44.232378,2566 7.070093,44.232223,2566 7.069974,44.232136,2566 7.069856,44.232072,2566 7.069809,44.232063,2565 7.069739,44.232058,2563 7.069643,44.232077,2562 7.069585,44.232066,2561 7.069455,44.232028,2560 7.069341,44.232006,2559 7.069176,44.231961,2558 7.069019,44.231913,2559 7.068909,44.231896,2558 7.068843,44.231880,2558 7.068721,44.231830,2557 7.068567,44.231774,2558 7.068515,44.231728,2557 7.068377,44.231673,2559 7.068291,44.231626,2560 7.068234,44.231596,2561 7.068134,44.231557,2562 7.068053,44.231512,2563 7.067956,44.231443,2564 7.067808,44.231352,2566 7.067743,44.231305,2567 7.067664,44.231257,2568 7.067625,44.231208,2568 7.067611,44.231205,2568 7.067644,44.231231,2568 7.067648,44.231207,2568 7.067619,44.231134,2569 7.067610,44.231121,2570 7.067607,44.231111,2570 7.067618,44.231098,2570 7.067598,44.231097,2569 7.067647,44.231152,2569 7.067631,44.231088,2569 7.067635,44.231021,2570 7.067617,44.231006,2571 7.067601,44.231000,2572 7.067597,44.230970,2572 7.067567,44.230888,2573 7.067549,44.230867,2573 7.067470,44.230831,2574 7.067464,44.230802,2575 7.067469,44.230745,2576 7.067450,44.230711,2577 7.067465,44.230679,2578 7.067436,44.230665,2579 7.067406,44.230639,2581 7.067393,44.230568,2583 7.067376,44.230550,2583 7.067335,44.230532,2584 7.067279,44.230473,2586 7.067265,44.230452,2586 7.067253,44.230422,2587 7.067217,44.230399,2588 7.067200,44.230370,2589 7.067202,44.230323,2591 7.067151,44.230275,2592 7.067127,44.230192,2593 7.067116,44.230140,2594 7.067054,44.230134,2595 7.067009,44.230116,2596 7.066984,44.230086,2597 7.066963,44.230059,2598 7.066950,44.229960,2600 7.066942,44.229950,2600 7.066957,44.229930,2601 7.066995,44.229852,2602 7.066976,44.229796,2603 7.066955,44.229775,2604 7.066978,44.229730,2605 7.067004,44.229689,2606 7.067041,44.229676,2608 7.067077,44.229656,2608 7.067092,44.229610,2610 7.067127,44.229546,2611 7.067161,44.229466,2613 7.067178,44.229444,2614 7.067198,44.229390,2616 7.067194,44.229376,2617 7.067216,44.229300,2619 7.067219,44.229310,2619 7.067214,44.229328,2619 7.067234,44.229273,2620 7.067231,44.229230,2622 7.067211,44.229213,2623 7.067203,44.229195,2624 7.067166,44.229181,2625 7.067094,44.229169,2626 7.067083,44.229153,2626 7.067000,44.229110,2629 7.066957,44.229120,2630 7.066930,44.229104,2631 7.066880,44.229061,2632 7.066859,44.229048,2633 7.066770,44.228993,2635 7.066751,44.228997,2636 7.066732,44.228967,2637 7.066710,44.228939,2638 7.066654,44.228912,2639 7.066624,44.228926,2640 7.066586,44.228925,2640 7.066564,44.228923,2641 7.066589,44.228911,2642 7.066618,44.228920,2643 7.066606,44.228861,2644 7.066599,44.228832,2644 7.066596,44.228860,2645 7.066613,44.228840,2645 7.066608,44.228832,2645 7.066615,44.228824,2646 7.066604,44.228840,2647 7.066625,44.228822,2649 7.066650,44.228746,2650 7.066670,44.228708,2650 7.066650,44.228715,2650 7.066648,44.228738,2650 7.066658,44.228728,2652 7.066614,44.228698,2653 7.066625,44.228683,2654 7.066605,44.228653,2655 7.066533,44.228641,2657 7.066534,44.228620,2658 7.066511,44.228609,2659 7.066480,44.228609,2660 7.066453,44.228575,2661 7.066417,44.228578,2663 7.066404,44.228563,2664 7.066350,44.228525,2666 7.066288,44.228512,2668 7.066226,44.228497,2669 7.066210,44.228521,2669 7.066214,44.228515,2669 7.066225,44.228497,2668 7.066225,44.228500,2667 7.066219,44.228493,2669 7.066179,44.228500,2668 7.066186,44.228498,2668 7.066203,44.228510,2667 7.066186,44.228505,2667 7.066206,44.228513,2666 7.066188,44.228513,2666 7.066212,44.228513,2666 7.066181,44.228504,2666 7.066174,44.228487,2665 7.066200,44.228532,2665 7.066216,44.228515,2665 7.066218,44.228518,2664 7.066215,44.228529,2664 7.066235,44.228511,2664 7.066201,44.228513,2663 7.066221,44.228553,2663 7.066159,44.228506,2663 7.066181,44.228511,2663 7.066194,44.228515,2663 7.066170,44.228506,2664 7.066149,44.228492,2664 7.066106,44.228495,2664 7.066081,44.228506,2662 7.066075,44.228507,2662 7.066077,44.228520,2661 7.066028,44.228540,2660 7.066009,44.228544,2660 7.065948,44.228528,2660 7.065959,44.228522,2661 7.065949,44.228471,2662 7.065879,44.228471,2663 7.065853,44.228470,2664 7.065826,44.228475,2665 7.065854,44.228479,2666 7.065834,44.228475,2667 7.065799,44.228453,2667 7.065808,44.228456,2668 7.065820,44.228454,2670 7.065777,44.228400,2671 7.065711,44.228374,2671 7.065752,44.228322,2670 7.065743,44.228319,2670 7.065719,44.228323,2670 7.065671,44.228296,2670 7.065598,44.228297,2671 7.065588,44.228286,2670 7.065604,44.228286,2669 7.065593,44.228275,2668 7.065601,44.228280,2668 7.065639,44.228274,2668 7.065621,44.228266,2667 7.065633,44.228267,2666 7.065634,44.228256,2665 7.065637,44.228252,2664 7.065641,44.228249,2663 7.065574,44.228232,2662 7.065540,44.228207,2662 7.065509,44.228200,2663 7.065463,44.228170,2664 7.065436,44.228154,2665 7.065385,44.228146,2667 7.065382,44.228139,2668 7.065349,44.228131,2669 7.065351,44.228141,2669 7.065326,44.228139,2668 7.065323,44.228142,2668 7.065329,44.228148,2667 7.065330,44.228134,2666 7.065335,44.228121,2665 7.065258,44.228099,2666 7.065211,44.228088,2668 7.065170,44.228077,2668 7.065075,44.228060,2670 7.065065,44.228053,2671 7.065007,44.228032,2671 7.065005,44.228020,2671 7.064982,44.227998,2669 7.064952,44.227966,2669 7.064954,44.227956,2668 7.064927,44.227940,2667 7.064893,44.227914,2666 7.064857,44.227902,2664 7.064903,44.227894,2663 7.064885,44.227885,2661 7.064865,44.227860,2660 7.064831,44.227841,2659 7.064816,44.227830,2659 7.064812,44.227809,2657 7.064809,44.227787,2656 7.064782,44.227764,2655 7.064768,44.227738,2654 7.064742,44.227692,2652 7.064567,44.227563,2651 7.064560,44.227563,2651 7.064573,44.227556,2651 7.064588,44.227531,2651 7.064557,44.227500,2650 7.064450,44.227458,2649 7.064385,44.227427,2650 7.064293,44.227392,2651 7.064155,44.227340,2650 7.064045,44.227324,2649 7.063964,44.227280,2648 7.063912,44.227274,2646 7.063852,44.227252,2645 7.063801,44.227231,2644 7.063754,44.227206,2643 7.063736,44.227189,2641 7.063710,44.227171,2640 7.063719,44.227152,2638 7.063636,44.227133,2638 7.063528,44.227117,2641 7.063446,44.227075,2642 7.063365,44.227055,2643 7.063326,44.227055,2644 7.063255,44.227016,2644 7.063144,44.226992,2645 7.063116,44.226980,2646 7.063022,44.226943,2647 7.062929,44.226935,2647 7.062885,44.226934,2648 7.062851,44.226914,2648 7.062771,44.226890,2649 7.062756,44.226892,2650 7.062684,44.226874,2651 7.062642,44.226863,2653 7.062610,44.226857,2654 7.062588,44.226872,2655 7.062582,44.226875,2656 7.062570,44.226872,2656 7.062556,44.226865,2657 7.062494,44.226861,2658 7.062439,44.226854,2659 7.062409,44.226850,2659 7.062350,44.226842,2660 7.062270,44.226807,2663 7.062213,44.226783,2664 7.062156,44.226797,2665 7.062134,44.226803,2666 7.062108,44.226803,2667 7.062070,44.226797,2668 7.062000,44.226797,2669 7.061927,44.226808,2670 7.061846,44.226810,2671 7.061761,44.226806,2673 7.061672,44.226818,2674 7.061616,44.226829,2675 7.061544,44.226836,2676 7.061482,44.226845,2677 7.061412,44.226856,2678 7.061394,44.226860,2679 7.061386,44.226870,2679 7.061369,44.226882,2678 7.061373,44.226881,2677 7.061354,44.226897,2677 7.061348,44.226908,2676 7.061352,44.226949,2675 7.061325,44.226958,2673 7.061272,44.226994,2672 7.061211,44.227058,2672 7.061094,44.227101,2672 7.061065,44.227163,2671 7.061027,44.227228,2668 7.060987,44.227258,2667 7.060918,44.227288,2665 7.060892,44.227293,2664 7.060869,44.227313,2663 7.060849,44.227327,2662 7.060824,44.227343,2661 7.060821,44.227321,2661 7.060753,44.227348,2661 7.060717,44.227363,2659 7.060688,44.227366,2658 7.060682,44.227377,2657 7.060605,44.227404,2656 7.060584,44.227415,2655 7.060564,44.227425,2654 7.060535,44.227432,2653 7.060505,44.227436,2652 7.060490,44.227442,2651 7.060508,44.227468,2650 7.060488,44.227472,2648 7.060467,44.227496,2647 7.060427,44.227538,2646 7.060337,44.227529,2645 7.060172,44.227525,2647 7.060052,44.227600,2645 7.060018,44.227637,2644 7.059967,44.227663,2643 7.059878,44.227701,2640 7.059744,44.227730,2640 7.059691,44.227768,2639 7.059616,44.227815,2638 7.059521,44.227895,2637 7.059426,44.227953,2637 7.059294,44.227982,2638 7.059244,44.227998,2638 7.059135,44.228057,2639 7.059048,44.228079,2640 7.058953,44.228112,2641 7.058864,44.228150,2642 7.058795,44.228176,2642 7.058711,44.228225,2643 7.058658,44.228276,2643 7.058516,44.228346,2641 7.058459,44.228412,2641 7.058466,44.228406,2640 7.058455,44.228409,2639 7.058438,44.228468,2638 7.058446,44.228475,2638 7.058450,44.228474,2637 7.058447,44.228489,2636 7.058414,44.228505,2635 7.058363,44.228522,2633 7.058391,44.228561,2632 7.058377,44.228583,2631 7.058307,44.228621,2629 7.058274,44.228631,2628 7.058243,44.228655,2627 7.058258,44.228682,2626 7.058263,44.228706,2624 7.058219,44.228737,2623 7.058201,44.228780,2621 7.058181,44.228801,2621 7.058142,44.228815,2620 7.058111,44.228844,2619 7.058080,44.228896,2618 7.058037,44.228938,2618 7.057894,44.229002,2617 7.057847,44.229014,2617 7.057713,44.229040,2617 7.057600,44.229083,2616 7.057564,44.229097,2615 7.057560,44.229112,2614 7.057558,44.229135,2613 7.057502,44.229137,2612 7.057478,44.229148,2611 7.057439,44.229153,2611 7.057461,44.229166,2609 7.057416,44.229213,2608 7.057351,44.229212,2607 7.057324,44.229231,2605 7.057298,44.229236,2604 7.057255,44.229272,2603 7.057177,44.229266,2602 7.057109,44.229279,2601 7.057083,44.229273,2601 7.056957,44.229257,2600 7.056894,44.229259,2600 7.056837,44.229278,2598 7.056731,44.229297,2597 7.056630,44.229286,2595 7.056595,44.229279,2595 7.056534,44.229301,2593 7.056445,44.229333,2592 7.056361,44.229358,2591 7.056285,44.229406,2590 7.056213,44.229428,2589 7.056066,44.229476,2590 7.056032,44.229489,2589 7.056074,44.229537,2589 7.056112,44.229626,2588 7.056080,44.229764,2587 7.056041,44.229780,2588 7.056047,44.229791,2589 7.056054,44.229791,2589 7.056041,44.229818,2587 7.056018,44.229852,2586 7.056028,44.229879,2585 7.056070,44.229885,2584 7.056066,44.229867,2582 7.056066,44.229905,2582 7.056080,44.229919,2582 7.056041,44.229905,2581 7.056070,44.229887,2581 7.056075,44.229854,2581 7.056092,44.229882,2581 7.056036,44.229898,2580 7.056055,44.229924,2580 7.056002,44.229879,2579 7.056023,44.229883,2579 7.055999,44.229876,2578 7.056008,44.229872,2578 7.056054,44.229865,2578 7.056060,44.229876,2577 7.056058,44.229888,2577 7.056064,44.229894,2577 7.056058,44.229863,2577 7.056041,44.229905,2576 7.056053,44.229898,2577 7.056032,44.229897,2577 7.056053,44.229893,2577 7.056052,44.229901,2576 7.056023,44.229906,2575 7.056016,44.229894,2575 7.056070,44.229817,2575 7.056064,44.229832,2575 7.056069,44.229873,2575 7.056055,44.229914,2575 7.056043,44.229896,2575 7.056058,44.229869,2574 7.056079,44.229876,2575 7.056053,44.229884,2574 7.056081,44.229856,2574 7.056085,44.229890,2574 7.056056,44.229864,2574 7.056035,44.229861,2573 7.056037,44.229858,2573 7.056052,44.229881,2573 7.056097,44.229922,2573 7.056082,44.229900,2573 7.056072,44.229883,2574 7.056069,44.229922,2574 7.056108,44.229932,2574 7.056081,44.229957,2574 7.056072,44.229941,2574 7.056063,44.229910,2573 7.056054,44.229901,2573 7.056072,44.229868,2572 7.056030,44.229880,2572 7.056071,44.229899,2572 7.056065,44.229912,2572 7.056027,44.229912,2572 7.056036,44.229904,2571 7.056070,44.229889,2571 7.056005,44.229892,2571 7.056012,44.229898,2571 7.056040,44.229909,2571 7.056075,44.229931,2572 7.056062,44.229909,2571 7.056035,44.229892,2571 7.056071,44.229915,2571 7.056059,44.229899,2571 7.056038,44.229885,2571 7.056042,44.229886,2571 7.056040,44.229849,2571 7.056023,44.229899,2570 7.056070,44.229872,2570 7.056025,44.229895,2570 7.056078,44.229944,2570 7.056042,44.229918,2570 7.056046,44.229924,2570 7.056046,44.229924,2569 7.056046,44.229924,2569 7.056053,44.229894,2569 7.056117,44.229915,2569 7.056075,44.229912,2569 7.056059,44.229910,2569 7.056041,44.229900,2569 7.055998,44.229886,2569 7.056037,44.229895,2569 7.056034,44.229849,2569 7.056095,44.229921,2569 7.056058,44.229881,2569 7.056067,44.229892,2569 7.056109,44.229936,2569 7.056071,44.229890,2569 7.056020,44.229864,2569 7.056093,44.229878,2569 7.056084,44.229894,2569 7.056075,44.229860,2569 7.056017,44.229915,2569 7.056100,44.229896,2569 7.056062,44.229885,2568 7.056063,44.229902,2568 7.056053,44.229890,2568 7.056015,44.229902,2567 7.056041,44.229890,2566 7.056067,44.229915,2565 7.056092,44.229944,2564 7.056118,44.229937,2563 7.056136,44.229958,2562 7.056159,44.229979,2560 7.056151,44.230062,2559 7.056112,44.230113,2561 7.056065,44.230142,2562 7.056049,44.230149,2563 7.056030,44.230171,2564 7.056015,44.230198,2565 7.055999,44.230212,2566 7.055974,44.230208,2567 7.055965,44.230226,2567 7.055982,44.230238,2566 7.055995,44.230278,2564 7.055976,44.230341,2563 7.055914,44.230418,2562 7.055808,44.230408,2562 7.055671,44.230409,2561 7.055720,44.230488,2561 7.055750,44.230548,2560 7.055748,44.230636,2559 7.055691,44.230689,2558 7.055663,44.230759,2559 7.055668,44.230779,2559 7.055620,44.230892,2558 7.055575,44.230937,2557 7.055493,44.230993,2556 7.055499,44.230955,2556 7.055516,44.230873,2555 7.055563,44.230794,2554 7.055523,44.230881,2551 7.055499,44.230905,2550 7.055455,44.230954,2549 7.055390,44.231018,2548 7.055373,44.231047,2547 7.055368,44.231054,2546 7.055326,44.231087,2544 7.055278,44.231139,2543 7.055263,44.231178,2541 7.055238,44.231218,2540 7.055205,44.231245,2539 7.055182,44.231250,2538 7.055165,44.231208,2537 7.055141,44.231230,2536 7.055084,44.231270,2534 7.055040,44.231293,2532 7.055018,44.231320,2531 7.055003,44.231342,2530 7.054991,44.231362,2529 7.054960,44.231394,2528 7.054938,44.231442,2526 7.054920,44.231478,2525 7.054919,44.231448,2524 7.054934,44.231364,2523 7.054959,44.231315,2521 7.054946,44.231362,2520 7.054909,44.231382,2519 7.054915,44.231312,2518 7.054898,44.231292,2517 7.054914,44.231202,2516 7.054921,44.231179,2516 7.054930,44.231113,2516 7.054997,44.231088,2516 7.055031,44.231059,2517 7.055072,44.230982,2517 7.055077,44.230916,2515 7.055066,44.230877,2514 7.055026,44.230859,2513 7.055030,44.230816,2512 7.055058,44.230816,2511 7.055107,44.230774,2510 7.055102,44.230761,2510 7.055096,44.230728,2509 7.055096,44.230664,2508 7.055066,44.230695,2507 7.055039,44.230706,2506 7.055015,44.230723,2505 7.054962,44.230735,2503 7.054974,44.230705,2502 7.055103,44.230541,2503 7.055137,44.230506,2503 7.055185,44.230449,2502 7.055250,44.230390,2501 7.055258,44.230349,2502 7.055282,44.230195,2501 7.055249,44.230198,2500 7.055156,44.230252,2499 7.055082,44.230302,2497 7.055061,44.230328,2496 7.055054,44.230351,2495 7.054991,44.230390,2494 7.054931,44.230413,2493 7.054897,44.230425,2492 7.054799,44.230485,2491 7.054683,44.230543,2490 7.054665,44.230566,2489 7.054644,44.230597,2487 7.054626,44.230638,2486 7.054572,44.230636,2484 7.054464,44.230566,2482 7.054415,44.230530,2481 7.054400,44.230502,2480 7.054459,44.230442,2479 7.054517,44.230430,2478 7.054563,44.230371,2476 7.054559,44.230325,2475 7.054570,44.230280,2474 7.054582,44.230224,2472 7.054593,44.230187,2471 7.054610,44.230139,2470 7.054631,44.230079,2469 7.054636,44.230035,2468 7.054599,44.230052,2468 7.054489,44.230085,2466 7.054431,44.230140,2465 7.054381,44.230149,2464 7.054323,44.230153,2463 7.054334,44.230106,2462 7.054365,44.230030,2461 7.054336,44.230047,2461 7.054273,44.230084,2460 7.054260,44.230080,2459 7.054192,44.230080,2458 7.054113,44.230069,2456 7.054090,44.230082,2455 7.054101,44.230091,2454 7.054124,44.230160,2452 7.054130,44.230173,2451 7.054048,44.230215,2449 7.053955,44.230194,2448 7.053942,44.230176,2445 7.053906,44.230154,2444 7.053840,44.230119,2443 7.053808,44.230082,2442 7.053734,44.230020,2440 7.053669,44.229985,2439 7.053643,44.229933,2438 7.053573,44.229936,2437 7.053575,44.229945,2437 7.053504,44.229945,2436 7.053567,44.230018,2435 7.053577,44.230107,2434 7.053501,44.230102,2432 7.053447,44.230093,2431 7.053426,44.230069,2430 7.053383,44.230051,2430 7.053354,44.230042,2429 7.053308,44.230034,2429 7.053215,44.230022,2427 7.053194,44.230005,2427 7.053132,44.229955,2424 7.053065,44.229920,2422 7.053019,44.229899,2421 7.052965,44.229849,2418 7.052955,44.229824,2417 7.052951,44.229759,2416 7.052893,44.229678,2415 7.052854,44.229602,2413 7.052822,44.229519,2412 7.052804,44.229476,2411 7.052788,44.229397,2408 7.052666,44.229291,2408 7.052561,44.229241,2408 7.052483,44.229235,2407 7.052429,44.229238,2405 7.052363,44.229183,2405 7.052296,44.229150,2406 7.052169,44.229164,2406 7.052131,44.229149,2407 7.052132,44.229162,2407 7.052135,44.229166,2407 7.052133,44.229182,2407 7.051944,44.229208,2408 7.051698,44.229278,2409 7.051646,44.229285,2409 7.051486,44.229348,2409 7.051448,44.229375,2410 7.051259,44.229385,2410 7.051204,44.229393,2411 7.051237,44.229388,2412 7.051234,44.229392,2412 7.051126,44.229381,2412 7.051090,44.229364,2413 7.051026,44.229356,2413 7.050976,44.229373,2414 7.050943,44.229398,2414 7.050951,44.229352,2414 7.050927,44.229368,2414 7.050958,44.229378,2414 7.050942,44.229391,2413 7.050941,44.229392,2413 7.050945,44.229388,2413 7.050952,44.229376,2413 7.050945,44.229383,2412 7.050941,44.229358,2412 7.051017,44.229295,2413 7.051084,44.229255,2414 7.051120,44.229251,2414 7.051167,44.229221,2415 7.051195,44.229235,2416 7.051265,44.229207,2417 7.051257,44.229189,2419 7.051262,44.229181,2419 7.051264,44.229178,2419 7.051273,44.229176,2420 7.051300,44.229167,2421 7.051313,44.229166,2421 7.051356,44.229165,2422 7.051370,44.229162,2423 7.051341,44.229200,2424 7.051342,44.229134,2426 7.051359,44.229100,2427 7.051375,44.229126,2428 7.051351,44.229118,2429 7.051360,44.229110,2429 7.051335,44.229109,2429 7.051334,44.229102,2430 7.051339,44.229061,2431 7.051327,44.229047,2432 7.051319,44.229028,2433 7.051319,44.229043,2434 7.051330,44.229026,2435 7.051333,44.229016,2435 7.051344,44.228970,2436 7.051369,44.228934,2437 7.051386,44.228940,2438 7.051353,44.228940,2438 7.051373,44.228903,2438 7.051372,44.228901,2439 7.051374,44.228871,2440 7.051403,44.228832,2441 7.051378,44.228873,2442 7.051418,44.228817,2443 7.051398,44.228839,2444 7.051437,44.228809,2444 7.051471,44.228764,2445 7.051532,44.228711,2446 7.051530,44.228682,2447 7.051549,44.228672,2448 7.051565,44.228648,2449 7.051570,44.228621,2450 7.051554,44.228596,2451 7.051573,44.228604,2452 7.051553,44.228595,2454 7.051534,44.228602,2455 7.051532,44.228592,2455 7.051517,44.228592,2456 7.051512,44.228586,2457 7.051517,44.228553,2458 7.051514,44.228526,2459 7.051521,44.228537,2460 7.051513,44.228526,2460 7.051499,44.228499,2461 7.051478,44.228496,2462 7.051435,44.228490,2464 7.051408,44.228480,2465 7.051397,44.228466,2466 7.051382,44.228462,2466 7.051344,44.228448,2468 7.051316,44.228448,2469 7.051293,44.228445,2469 7.051321,44.228432,2469 7.051330,44.228414,2469 7.051295,44.228426,2469 7.051266,44.228414,2470 7.051270,44.228419,2471 7.051260,44.228390,2471 7.051259,44.228442,2471 7.051234,44.228419,2472 7.051210,44.228422,2473 7.051201,44.228407,2473 7.051185,44.228396,2474 7.051174,44.228374,2475 7.051213,44.228354,2476 7.051124,44.228360,2478 7.051139,44.228340,2479 7.051093,44.228347,2480 7.051096,44.228338,2482 7.051096,44.228324,2483 7.051104,44.228299,2483 7.051042,44.228321,2484 7.051015,44.228318,2485 7.051018,44.228307,2486 7.051000,44.228319,2487 7.051010,44.228320,2487 7.051010,44.228303,2488 7.050986,44.228304,2489 7.050979,44.228289,2490 7.050979,44.228284,2491 7.050988,44.228249,2491 7.051000,44.228250,2492 7.050991,44.228259,2493 7.050857,44.228271,2493 7.050881,44.228274,2494 7.050878,44.228264,2496 7.050868,44.228284,2497 7.050857,44.228292,2496 7.050892,44.228293,2496 7.050849,44.228285,2497 7.050865,44.228286,2497 7.050892,44.228272,2497 7.050848,44.228289,2498 7.050828,44.228300,2499 7.050808,44.228282,2500 7.050811,44.228305,2500 7.050798,44.228289,2501 7.050794,44.228278,2501 7.050762,44.228292,2502 7.050747,44.228307,2503 7.050751,44.228306,2504 7.050693,44.228320,2505 7.050681,44.228293,2506 7.050707,44.228275,2506 7.050704,44.228284,2507 7.050675,44.228287,2508 7.050668,44.228273,2508 7.050652,44.228255,2509 7.050648,44.228254,2511 7.050605,44.228255,2511 7.050579,44.228248,2512 7.050536,44.228242,2513 7.050521,44.228228,2514 7.050513,44.228215,2515 7.050494,44.228217,2516 7.050485,44.228200,2517 7.050474,44.228188,2518 7.050426,44.228193,2519 7.050415,44.228182,2520 7.050387,44.228182,2521 7.050358,44.228179,2522 7.050317,44.228168,2522 7.050287,44.228165,2523 7.050303,44.228162,2524 7.050284,44.228157,2525 7.050257,44.228178,2526 7.050253,44.228184,2527 7.050230,44.228183,2528 7.050203,44.228172,2529 7.050191,44.228160,2530 7.050168,44.228149,2531 7.050164,44.228127,2533 7.050148,44.228116,2534 7.050140,44.228091,2535 7.050113,44.228101,2536 7.050097,44.228101,2537 7.050063,44.228101,2538 7.050064,44.228081,2539 7.050064,44.228061,2540 7.050068,44.228047,2542 7.050040,44.228042,2542 7.050018,44.228030,2544 7.050003,44.228036,2545 7.049971,44.228030,2546 7.049976,44.228021,2547 7.049946,44.228007,2549 7.049928,44.228028,2551 7.049871,44.228014,2552 7.049858,44.228002,2553 7.049851,44.227986,2554 7.049825,44.227974,2556 7.049828,44.227969,2557 7.049835,44.227953,2558 7.049819,44.227931,2558 7.049783,44.227923,2559 7.049756,44.227926,2560 7.049738,44.227926,2561 7.049730,44.227929,2562 7.049700,44.227922,2563 7.049680,44.227907,2564 7.049658,44.227905,2565 7.049650,44.227899,2566 7.049659,44.227860,2567 7.049662,44.227847,2568 7.049631,44.227842,2569 7.049610,44.227834,2569 7.049618,44.227834,2569 7.049637,44.227847,2569 7.049638,44.227852,2569 7.049635,44.227860,2569 7.049644,44.227848,2569 7.049647,44.227844,2569 7.049624,44.227849,2569 7.049567,44.227849,2570 7.049533,44.227855,2571 7.049513,44.227853,2572 7.049526,44.227826,2573 7.049492,44.227820,2574 7.049498,44.227804,2575 7.049506,44.227794,2576 7.049452,44.227794,2577 7.049457,44.227790,2577 7.049463,44.227793,2577 7.049467,44.227793,2577 7.049467,44.227793,2577 7.049468,44.227760,2578 7.049468,44.227753,2579 7.049440,44.227758,2580 7.049427,44.227749,2581 7.049392,44.227740,2582 7.049370,44.227719,2583 7.049336,44.227707,2584 7.049368,44.227677,2585 7.049364,44.227674,2586 7.049366,44.227655,2586 7.049352,44.227646,2587 7.049303,44.227638,2589 7.049299,44.227619,2590 7.049319,44.227601,2591 7.049304,44.227603,2593 7.049262,44.227595,2595 7.049233,44.227599,2596 7.049239,44.227592,2597 7.049239,44.227571,2598 7.049210,44.227559,2599 7.049174,44.227551,2600 7.049151,44.227539,2601 7.049171,44.227534,2602 7.049175,44.227504,2604 7.049148,44.227506,2605 7.049125,44.227502,2605 7.049111,44.227501,2606 7.049100,44.227498,2607 7.049071,44.227478,2608 7.049031,44.227471,2609 7.049026,44.227472,2610 7.048987,44.227473,2611 7.048955,44.227470,2612 7.048958,44.227456,2613 7.048940,44.227446,2615 7.048937,44.227427,2617 7.048937,44.227426,2618 7.048938,44.227432,2619 7.048848,44.227428,2621 7.048773,44.227410,2622 7.048773,44.227410,2623 7.048746,44.227400,2624 7.048700,44.227395,2626 7.048677,44.227393,2627 7.048653,44.227394,2628 7.048621,44.227388,2629 7.048613,44.227377,2630 7.048608,44.227355,2631 7.048596,44.227328,2632 7.048579,44.227316,2634 7.048535,44.227316,2635 7.048516,44.227302,2636 7.048486,44.227290,2637 7.048460,44.227265,2638 7.048452,44.227244,2639 7.048433,44.227224,2640 7.048414,44.227214,2642 7.048364,44.227214,2643 7.048344,44.227221,2643 7.048329,44.227195,2643 7.048298,44.227167,2646 7.048300,44.227162,2647 7.048282,44.227137,2648 7.048237,44.227125,2650 7.048204,44.227113,2651 7.048178,44.227103,2653 7.048139,44.227087,2655 7.048088,44.227093,2656 7.048065,44.227097,2656 7.047989,44.227110,2657 7.047945,44.227111,2658 7.047894,44.227105,2659 7.047835,44.227093,2660 7.047763,44.227085,2660 7.047719,44.227080,2662 7.047669,44.227084,2663 7.047616,44.227079,2664 7.047547,44.227066,2665 7.047480,44.227074,2665 7.047429,44.227088,2667 7.047422,44.227098,2668 7.047416,44.227083,2667 7.047384,44.227065,2668 7.047325,44.227033,2669 7.047268,44.227024,2671 7.047241,44.227019,2672 7.047200,44.227017,2673 7.047161,44.227047,2675 7.047106,44.227028,2675 7.046994,44.226996,2676 7.046942,44.226979,2677 7.046933,44.226926,2678 7.046844,44.226887,2678 7.046800,44.226857,2677 7.046765,44.226842,2679 7.046716,44.226842,2680 7.046681,44.226834,2680 7.046587,44.226843,2680 7.046565,44.226842,2680 7.046558,44.226817,2678 7.046480,44.226785,2679 7.046440,44.226751,2680 7.046390,44.226739,2681 7.046363,44.226746,2681 7.046363,44.226756,2681 7.046372,44.226766,2681 7.046365,44.226733,2680 7.046281,44.226716,2682 7.046245,44.226707,2683 7.046232,44.226698,2684 7.046191,44.226690,2685 7.046052,44.226669,2686 7.045926,44.226643,2684 7.045828,44.226610,2683 7.045752,44.226587,2684 7.045607,44.226557,2684 7.045557,44.226563,2685 7.045525,44.226542,2686 7.045466,44.226489,2687 7.045449,44.226459,2688 7.045408,44.226441,2689 7.045349,44.226438,2691 7.045275,44.226431,2692 7.045224,44.226425,2693 7.045137,44.226421,2694 7.045104,44.226411,2695 7.045097,44.226405,2696 7.045058,44.226401,2696 7.045029,44.226398,2696 7.044936,44.226402,2697 7.044843,44.226389,2698 7.044784,44.226398,2699 7.044762,44.226371,2701 7.044736,44.226349,2702 7.044654,44.226329,2703 7.044647,44.226339,2704 7.044606,44.226333,2705 7.044561,44.226317,2706 7.044524,44.226319,2707 7.044482,44.226312,2709 7.044450,44.226317,2710 7.044417,44.226319,2712 7.044397,44.226318,2713 7.044350,44.226315,2714 7.044345,44.226321,2714 7.044343,44.226315,2713 7.044305,44.226282,2712 7.044288,44.226246,2712 7.044281,44.226240,2711 7.044277,44.226247,2711 7.044281,44.226251,2711 7.044288,44.226251,2710 7.044289,44.226212,2709 7.044277,44.226212,2709 7.044262,44.226174,2708 7.044262,44.226166,2707 7.044301,44.226131,2707 7.044301,44.226110,2706 7.044308,44.226076,2705 7.044301,44.226090,2705 7.044293,44.226077,2704 7.044291,44.226063,2705 7.044305,44.226066,2704 7.044305,44.226088,2704 7.044291,44.226104,2703 7.044271,44.226116,2702 7.044268,44.226113,2702 7.044260,44.226085,2701 7.044273,44.226117,2701 7.044267,44.226128,2701 7.044292,44.226099,2700 7.044285,44.226099,2700 7.044264,44.226127,2699 7.044277,44.226096,2699 7.044265,44.226100,2700 7.044310,44.226091,2700 7.044318,44.226103,2699 7.044302,44.226089,2698 7.044325,44.226093,2699 7.044314,44.226088,2699 7.044294,44.226082,2700 7.044295,44.226083,2700 7.044267,44.226085,2700 7.044296,44.226094,2700 7.044297,44.226087,2700 7.044291,44.226083,2700 7.044303,44.226084,2700 7.044322,44.226100,2700 7.044296,44.226081,2700 7.044273,44.226077,2700 7.044278,44.226088,2700 7.044299,44.226090,2700 7.044291,44.226100,2700 7.044271,44.226114,2700 7.044277,44.226070,2700 7.044302,44.226080,2699 7.044296,44.226088,2699 7.044309,44.226088,2699 7.044312,44.226082,2699 7.044296,44.226075,2699 7.044293,44.226086,2699 7.044291,44.226089,2699 7.044296,44.226097,2700 7.044274,44.226081,2699 7.044297,44.226093,2699 7.044291,44.226083,2699 7.044296,44.226090,2699 7.044289,44.226090,2699 7.044277,44.226093,2699 7.044283,44.226075,2699 7.044303,44.226090,2699 7.044290,44.226088,2699 7.044296,44.226090,2699 7.044315,44.226095,2699 7.044320,44.226105,2699 7.044296,44.226081,2699 7.044299,44.226097,2699 7.044309,44.226105,2699 7.044224,44.226091,2699 7.044236,44.226084,2699 7.044280,44.226083,2699 7.044289,44.226080,2699 7.044261,44.226096,2699 7.044285,44.226092,2699 7.044296,44.226104,2699 7.044298,44.226083,2699 7.044278,44.226081,2699 7.044246,44.226068,2699 7.044276,44.226075,2699 7.044311,44.226156,2700 7.044285,44.226089,2699 7.044287,44.226104,2698 7.044307,44.226090,2698 7.044292,44.226087,2698 7.044291,44.226094,2698 7.044305,44.226099,2698 7.044289,44.226084,2698 7.044286,44.226083,2698 7.044289,44.226081,2698 7.044294,44.226089,2698 7.044302,44.226096,2698 7.044299,44.226092,2698 7.044293,44.226071,2698 7.044296,44.226086,2697 7.044310,44.226088,2697 7.044278,44.226076,2698 7.044305,44.226075,2698 7.044312,44.226082,2697 7.044303,44.226077,2698 7.044287,44.226061,2698 7.044295,44.226066,2698 7.044312,44.226082,2698 7.044303,44.226085,2697 7.044281,44.226065,2697 7.044289,44.226070,2698 7.044292,44.226065,2698 7.044290,44.226065,2698 7.044278,44.226077,2698 7.044279,44.226076,2698 7.044299,44.226078,2697 7.044302,44.226069,2697 7.044290,44.226070,2697 7.044290,44.226075,2697 7.044292,44.226060,2697 7.044299,44.226073,2698 7.044289,44.226071,2697 7.044304,44.226076,2697 7.044302,44.226086,2697 7.044293,44.226061,2697 7.044287,44.226065,2697 7.044307,44.226086,2697 7.044317,44.226082,2697 7.044298,44.226082,2697 7.044319,44.226082,2697 7.044314,44.226087,2697 7.044295,44.226070,2697 7.044305,44.226086,2697 7.044280,44.226077,2697 7.044302,44.226080,2697 7.044273,44.226078,2697 7.044279,44.226070,2697 7.044278,44.226071,2697 7.044278,44.226068,2697 7.044278,44.226068,2697 7.044269,44.226063,2697 7.044280,44.226087,2696 7.044284,44.226077,2696 7.044286,44.226074,2696 7.044310,44.226087,2696 7.044313,44.226053,2696 7.044295,44.226038,2695 7.044310,44.226021,2694 7.044319,44.226020,2694 7.044328,44.226026,2694 7.044319,44.226018,2693 7.044306,44.225990,2692 7.044299,44.225997,2692 7.044264,44.225981,2691 7.044255,44.225975,2690 7.044254,44.225985,2690 7.044258,44.225984,2689 7.044185,44.225966,2688 7.044175,44.225989,2689 7.044153,44.225966,2689 7.044160,44.225974,2689 7.044166,44.225981,2688 7.044169,44.225978,2689 7.044133,44.226008,2689 7.044105,44.226007,2689 7.044095,44.225989,2689 7.044077,44.226004,2689 7.044100,44.225984,2689 7.044136,44.225996,2690 7.044149,44.226009,2689 7.044101,44.226007,2689 7.044128,44.226010,2690 7.044130,44.226001,2690 7.044160,44.225985,2689 7.044104,44.225979,2688 7.044069,44.225987,2688 7.044050,44.225966,2688 7.044030,44.225981,2689 7.043985,44.225991,2689 7.043994,44.225990,2689 7.044010,44.225983,2689 7.043989,44.226008,2690 7.043962,44.225989,2690 7.043933,44.225980,2691 7.043925,44.225988,2691 7.043916,44.225981,2691 7.043919,44.225958,2692 7.043918,44.225971,2692 7.043932,44.225964,2692 7.043888,44.225986,2692 7.043892,44.225979,2693 7.043904,44.225984,2693 7.043907,44.225979,2693 7.043902,44.225950,2693 7.043902,44.225975,2694 7.043897,44.225964,2694 7.043889,44.225959,2694 7.043878,44.225966,2695 7.043880,44.225998,2695 7.043911,44.225987,2695 7.043907,44.225980,2695 7.043901,44.225970,2695 7.043909,44.225961,2696 7.043878,44.225964,2696 7.043908,44.225960,2697 7.043904,44.225963,2697 7.043902,44.225972,2698 7.043899,44.225977,2697 7.043894,44.225973,2698 7.043903,44.225971,2699 7.043907,44.225967,2699 7.043924,44.225974,2699 7.043905,44.225980,2697 7.043919,44.226000,2698 7.043881,44.226004,2698 7.043879,44.225950,2697 7.043883,44.225990,2698 7.043857,44.225957,2699 7.043890,44.225934,2699 7.043875,44.225955,2698 7.043872,44.225951,2699 7.043883,44.225971,2698 7.043852,44.225973,2698 7.043860,44.225959,2698 7.043857,44.225960,2699 7.043866,44.225968,2699 7.043868,44.225956,2700 7.043872,44.225964,2700 7.043866,44.225953,2700 7.043848,44.225952,2700 7.043811,44.225947,2701 7.043825,44.225945,2701 7.043830,44.225979,2702 7.043821,44.225966,2702 7.043816,44.225946,2702 7.043775,44.225954,2702 7.043768,44.225956,2702 7.043831,44.225937,2701 7.043887,44.225955,2701 7.043871,44.225972,2701 7.043787,44.225949,2702 7.043821,44.225942,2702 7.043814,44.225952,2702 7.043780,44.225922,2704 7.043769,44.225917,2704 7.043764,44.225921,2704 7.043755,44.225924,2705 7.043764,44.225918,2705 7.043772,44.225923,2705 7.043766,44.225915,2705 7.043763,44.225913,2705 7.043757,44.225903,2704 7.043771,44.225919,2705 7.043777,44.225915,2705 7.043781,44.225913,2705 7.043768,44.225895,2705 7.043785,44.225913,2705 7.043805,44.225918,2705 7.043796,44.225923,2705 7.043774,44.225906,2705 7.043801,44.225936,2705 7.043823,44.225932,2705 7.043795,44.225917,2705 7.043772,44.225907,2705 7.043773,44.225898,2704 7.043761,44.225908,2704 7.043736,44.225903,2704 7.043757,44.225888,2705 7.043751,44.225905,2705 7.043731,44.225899,2706 7.043751,44.225896,2706 7.043707,44.225887,2707 7.043722,44.225888,2707 7.043727,44.225898,2707 7.043710,44.225887,2707 7.043711,44.225884,2707 7.043720,44.225883,2707 7.043711,44.225878,2707 7.043703,44.225873,2707 7.043706,44.225871,2707 7.043701,44.225867,2708 7.043692,44.225857,2708 7.043653,44.225855,2708 7.043664,44.225839,2708 7.043642,44.225873,2708 7.043662,44.225852,2708 7.043645,44.225860,2708 7.043629,44.225855,2708 7.043615,44.225860,2707 7.043623,44.225891,2707 7.043610,44.225866,2707 7.043602,44.225859,2707 7.043574,44.225838,2707 7.043569,44.225847,2706 7.043599,44.225875,2706 7.043599,44.225867,2706 7.043585,44.225843,2706 7.043544,44.225849,2707 7.043591,44.225871,2707 7.043596,44.225860,2707 7.043594,44.225868,2707 7.043586,44.225864,2707 7.043600,44.225874,2707 7.043594,44.225864,2707 7.043591,44.225858,2707 7.043591,44.225858,2708 7.043584,44.225871,2707 7.043606,44.225881,2708 7.043616,44.225879,2708 7.043652,44.225885,2708 7.043591,44.225897,2709 7.043593,44.225860,2709 7.043602,44.225838,2709 7.043584,44.225859,2709 7.043574,44.225850,2709 7.043586,44.225857,2709 7.043571,44.225858,2710 7.043567,44.225866,2710 7.043587,44.225881,2710 7.043589,44.225864,2710 7.043574,44.225863,2710 7.043561,44.225872,2710 7.043579,44.225863,2710 7.043568,44.225864,2711 7.043557,44.225867,2710 7.043551,44.225875,2710 7.043557,44.225877,2710 7.043578,44.225914,2710 7.043528,44.225915,2710 7.043528,44.225864,2709 7.043554,44.225903,2709 7.043558,44.225874,2709 7.043545,44.225844,2709 7.043524,44.225855,2709 7.043523,44.225876,2710 7.043528,44.225879,2710 7.043515,44.225872,2710 7.043541,44.225882,2711 7.043539,44.225883,2710 7.043534,44.225878,2711 7.043487,44.225867,2711 7.043519,44.225869,2711 7.043543,44.225875,2711 7.043578,44.225881,2711 7.043552,44.225880,2712 7.043593,44.225877,2712 7.043549,44.225831,2712 7.043523,44.225851,2712 7.043509,44.225862,2713 7.043526,44.225870,2713 7.043576,44.225879,2713 7.043503,44.225861,2713 7.043482,44.225835,2712 7.043529,44.225848,2713 7.043498,44.225857,2713 7.043486,44.225864,2713 7.043505,44.225869,2713 7.043502,44.225843,2713 7.043520,44.225864,2713 7.043533,44.225858,2713 7.043494,44.225870,2713 7.043489,44.225852,2713 7.043489,44.225853,2713 7.043500,44.225859,2713 7.043493,44.225862,2712 7.043447,44.225851,2711 7.043473,44.225837,2711 7.043482,44.225830,2711 7.043481,44.225858,2711 7.043470,44.225815,2711 7.043474,44.225810,2710 7.043502,44.225826,2711 7.043470,44.225831,2710 7.043444,44.225818,2711 7.043456,44.225827,2711 7.043452,44.225807,2712 7.043423,44.225789,2712 7.043401,44.225765,2713 7.043418,44.225768,2713 7.043424,44.225790,2714 7.043404,44.225795,2714 7.043394,44.225766,2714 7.043386,44.225759,2714 7.043416,44.225768,2715 7.043370,44.225773,2716 7.043368,44.225752,2716 7.043353,44.225755,2716 7.043379,44.225766,2715 7.043351,44.225750,2716 7.043339,44.225766,2716 7.043348,44.225761,2716 7.043346,44.225736,2716 7.043348,44.225735,2716 7.043378,44.225764,2716 7.043386,44.225751,2716 7.043371,44.225764,2716 7.043350,44.225748,2716 7.043329,44.225736,2716 7.043352,44.225771,2717 7.043351,44.225738,2716 7.043350,44.225756,2715 7.043353,44.225757,2715 7.043344,44.225733,2714 7.043354,44.225747,2714 7.043322,44.225737,2714 7.043338,44.225736,2714 7.043343,44.225710,2714 7.043328,44.225695,2714 7.043347,44.225698,2714 7.043356,44.225717,2714 7.043366,44.225701,2714 7.043360,44.225719,2714 7.043357,44.225707,2714 7.043335,44.225720,2714 7.043344,44.225715,2714 7.043349,44.225707,2714 7.043339,44.225701,2714 7.043340,44.225698,2714 7.043359,44.225701,2714 7.043335,44.225713,2714 7.043289,44.225707,2713 7.043321,44.225705,2712 7.043357,44.225734,2712 7.043320,44.225697,2712 7.043332,44.225716,2712 7.043304,44.225703,2714 7.043293,44.225693,2714 7.043292,44.225695,2714 7.043287,44.225687,2714 7.043352,44.225679,2714 7.043355,44.225668,2714 7.043326,44.225673,2714 7.043282,44.225679,2714 7.043307,44.225703,2714 7.043269,44.225678,2715 7.043260,44.225677,2715 7.043281,44.225685,2715 7.043262,44.225697,2715 7.043271,44.225684,2715 7.043239,44.225647,2714 7.043282,44.225676,2714 7.043273,44.225685,2715 7.043274,44.225698,2715 7.043261,44.225654,2714 7.043285,44.225683,2714 7.043269,44.225673,2714 7.043227,44.225626,2713 7.043230,44.225620,2713 7.043227,44.225607,2713 7.043252,44.225633,2712 7.043272,44.225656,2712 7.043229,44.225630,2712 7.043229,44.225641,2712 7.043236,44.225645,2711 7.043254,44.225657,2711 7.043258,44.225653,2711 7.043236,44.225630,2711 7.043263,44.225635,2711 7.043212,44.225619,2712 7.043190,44.225587,2712 7.043241,44.225627,2713 7.043243,44.225635,2713 7.043234,44.225610,2713 7.043249,44.225644,2713 7.043238,44.225636,2713 7.043254,44.225645,2714 7.043238,44.225654,2714 7.043243,44.225669,2714 7.043256,44.225659,2714 7.043208,44.225619,2714 7.043217,44.225629,2713 7.043199,44.225611,2713 7.043200,44.225624,2713 7.043203,44.225624,2713 7.043204,44.225620,2713 7.043210,44.225622,2714 7.043200,44.225608,2715 7.043180,44.225633,2714 7.043230,44.225621,2715 7.043229,44.225620,2714 7.043205,44.225621,2714 7.043171,44.225599,2715 7.043190,44.225621,2715 7.043184,44.225612,2716 7.043180,44.225632,2716 7.043186,44.225631,2715 7.043185,44.225619,2715 7.043175,44.225616,2716 7.043178,44.225618,2717 7.043186,44.225627,2717 7.043171,44.225632,2717 7.043171,44.225623,2718 7.043168,44.225620,2718 7.043146,44.225597,2718 7.043170,44.225569,2719 7.043155,44.225589,2719 7.043180,44.225617,2719 7.043148,44.225615,2719 7.043167,44.225611,2719 7.043162,44.225605,2720 7.043166,44.225605,2720 7.043181,44.225600,2720 7.043184,44.225610,2720 7.043162,44.225616,2720 7.043170,44.225595,2720 7.043156,44.225621,2721 7.043166,44.225614,2721 7.043159,44.225603,2721 7.043190,44.225605,2720 7.043181,44.225592,2720 7.043187,44.225595,2720 7.043174,44.225592,2720 7.043177,44.225595,2719 7.043180,44.225598,2720 7.043176,44.225603,2719 7.043181,44.225596,2720 7.043170,44.225611,2720 7.043163,44.225616,2719 7.043161,44.225626,2719 7.043167,44.225623,2719 7.043164,44.225604,2719 7.043165,44.225598,2719 7.043175,44.225591,2720 7.043196,44.225580,2720 7.043182,44.225579,2720 7.043182,44.225579,2720 7.043182,44.225587,2720 7.043182,44.225579,2720 7.043182,44.225579,2720 7.043162,44.225613,2719 7.043163,44.225610,2719 7.043170,44.225587,2719 7.043179,44.225589,2719 7.043167,44.225603,2719 7.043166,44.225590,2719 7.043169,44.225601,2718 7.043163,44.225602,2719 7.043163,44.225593,2719 7.043188,44.225566,2720 7.043187,44.225575,2719 7.043178,44.225572,2720 7.043161,44.225573,2720 7.043159,44.225571,2719 7.043177,44.225565,2719 7.043185,44.225551,2720 7.043162,44.225560,2720 7.043185,44.225548,2720 7.043188,44.225526,2721 7.043179,44.225520,2720 7.043191,44.225527,2720 7.043179,44.225533,2719 7.043179,44.225517,2720 7.043175,44.225514,2720 7.043181,44.225524,2721 7.043182,44.225518,2720 7.043188,44.225539,2719 7.043183,44.225532,2719 7.043170,44.225547,2718 7.043183,44.225538,2717 7.043191,44.225547,2717 7.043184,44.225534,2717 7.043180,44.225523,2716 7.043204,44.225514,2718 7.043194,44.225508,2718 7.043189,44.225516,2718 7.043170,44.225525,2718 7.043148,44.225514,2718 7.043150,44.225515,2718 7.043153,44.225513,2718 7.043165,44.225511,2718 7.043176,44.225508,2719 7.043180,44.225488,2719 7.043205,44.225484,2719 7.043196,44.225477,2720 7.043190,44.225479,2720 7.043185,44.225470,2720 7.043193,44.225457,2719 7.043193,44.225468,2719 7.043179,44.225477,2719 7.043168,44.225461,2720 7.043166,44.225445,2720 7.043151,44.225450,2719 7.043159,44.225449,2720 7.043162,44.225459,2720 7.043128,44.225473,2721 7.043116,44.225454,2721 7.043113,44.225458,2722 7.043105,44.225467,2721 7.043105,44.225467,2721 7.043081,44.225459,2722 7.043086,44.225459,2723 7.043066,44.225466,2722 7.043074,44.225460,2722 7.043064,44.225484,2722 7.043038,44.225454,2723 7.043010,44.225465,2724 7.043008,44.225463,2725 7.043003,44.225493,2725 7.043017,44.225488,2725 7.043014,44.225485,2726 7.042984,44.225477,2726 7.042951,44.225464,2727 7.042943,44.225463,2728 7.042883,44.225433,2729 7.042875,44.225419,2731 7.042845,44.225396,2732 7.042837,44.225388,2733 7.042817,44.225372,2734 7.042776,44.225365,2736 7.042744,44.225360,2737 7.042723,44.225345,2738 7.042686,44.225341,2739 7.042659,44.225339,2740 7.042611,44.225325,2742 7.042590,44.225328,2742 7.042545,44.225332,2743 7.042545,44.225337,2744 7.042514,44.225335,2744 7.042482,44.225330,2745 7.042441,44.225315,2745 7.042387,44.225323,2745 7.042296,44.225334,2746 7.042264,44.225342,2746 7.042274,44.225341,2747 7.042289,44.225340,2747 7.042274,44.225341,2747 7.042235,44.225327,2746 7.042175,44.225287,2745 7.042147,44.225276,2744 7.042019,44.225255,2743 7.041967,44.225249,2743 7.041909,44.225255,2742 7.041852,44.225258,2741 7.041783,44.225231,2740 7.041748,44.225212,2739 7.041726,44.225192,2737 7.041701,44.225184,2736 7.041693,44.225174,2737 7.041657,44.225132,2736 7.041656,44.225093,2734 7.041645,44.225076,2733 7.041619,44.225047,2732 7.041587,44.225026,2731 7.041557,44.224996,2729 7.041517,44.224963,2728 7.041491,44.224915,2726 7.041455,44.224894,2725 7.041351,44.224845,2724 7.041273,44.224801,2723 7.041194,44.224761,2722 7.041083,44.224688,2722 7.040954,44.224681,2720 7.040786,44.224645,2720 7.040672,44.224637,2721 7.040668,44.224639,2721 7.040640,44.224615,2721 7.040652,44.224622,2721 7.040723,44.224603,2721 7.040761,44.224615,2720 7.040691,44.224600,2721 7.040680,44.224620,2721 7.040654,44.224609,2721 7.040623,44.224593,2721 7.040618,44.224598,2721 7.040668,44.224594,2721 7.040677,44.224595,2721 7.040688,44.224610,2721 7.040734,44.224593,2721 7.040807,44.224628,2721 7.040799,44.224605,2722 7.040797,44.224600,2722 7.040681,44.224582,2722 7.040760,44.224590,2722 7.040775,44.224576,2722 7.040749,44.224574,2722 7.040728,44.224561,2722 7.040682,44.224589,2722 7.040688,44.224595,2722 7.040699,44.224624,2722 7.040723,44.224618,2722 7.040727,44.224602,2722 7.040702,44.224567,2723 7.040716,44.224529,2722 7.040748,44.224549,2722 7.040764,44.224581,2722 7.040771,44.224613,2723 7.040738,44.224583,2723 7.040766,44.224586,2723 7.040732,44.224579,2723 7.040721,44.224576,2723 7.040707,44.224571,2723 7.040725,44.224595,2723 7.040765,44.224588,2723 7.040766,44.224604,2723 7.040730,44.224596,2723 7.040730,44.224572,2723 7.040748,44.224597,2723 7.040765,44.224575,2723 7.040748,44.224583,2723 7.040694,44.224564,2723 7.040709,44.224604,2723 7.040786,44.224633,2723 7.040883,44.224588,2723 7.040834,44.224577,2723 7.040676,44.224559,2723 7.040665,44.224558,2723 7.040744,44.224562,2723 7.040832,44.224598,2723 7.040856,44.224607,2724 7.040838,44.224585,2723 7.040829,44.224603,2724 7.040816,44.224622,2724 7.040801,44.224617,2725 7.040695,44.224632,2724 7.040678,44.224616,2724 7.040683,44.224617,2724 7.040715,44.224628,2724 7.040636,44.224619,2725 7.040679,44.224609,2726 7.040646,44.224604,2726 7.040649,44.224604,2725 7.040681,44.224584,2726 7.040655,44.224577,2727 7.040660,44.224562,2728 7.040685,44.224536,2729 7.040653,44.224503,2729 7.040637,44.224490,2730 7.040611,44.224479,2731 7.040524,44.224422,2733 7.040478,44.224408,2734 7.040449,44.224404,2736 7.040422,44.224391,2736 7.040386,44.224358,2737 7.040346,44.224350,2738 7.040311,44.224353,2739 7.040275,44.224324,2739 7.040245,44.224316,2740 7.040255,44.224304,2740 7.040230,44.224304,2740 7.040177,44.224322,2741 7.040158,44.224323,2742 7.040143,44.224308,2741 7.040174,44.224296,2741 7.040201,44.224300,2741 7.040253,44.224316,2741 7.040328,44.224301,2739 7.040368,44.224322,2737 7.040396,44.224331,2735 7.040423,44.224323,2734 7.040465,44.224301,2732 7.040502,44.224288,2731 7.040540,44.224292,2731 7.040598,44.224318,2730 7.040663,44.224342,2728 7.040690,44.224339,2727 7.040694,44.224329,2725 7.040702,44.224318,2723 7.040709,44.224280,2721 7.040735,44.224238,2720 7.040748,44.224216,2719 7.040703,44.224184,2717 7.040582,44.224083,2716 7.040559,44.224070,2715 7.040543,44.224069,2716 7.040449,44.224070,2715 7.040241,44.224102,2716 7.040125,44.224112,2716 7.040008,44.224102,2715 7.039889,44.224106,2713 7.039831,44.224104,2713 7.039781,44.224093,2712 7.039717,44.224076,2711 7.039631,44.224056,2709 7.039574,44.224036,2708 7.039582,44.224066,2707 7.039545,44.224064,2705 7.039510,44.224021,2704 7.039498,44.224006,2703 7.039481,44.223995,2703 7.039386,44.223956,2702 7.039360,44.223951,2701 7.039319,44.223939,2699 7.039294,44.223922,2698 7.039226,44.223895,2697 7.039266,44.223910,2696 7.039236,44.223899,2696 7.039130,44.223876,2695 7.039032,44.223861,2694 7.038910,44.223835,2693 7.038858,44.223801,2691 7.038802,44.223783,2690 7.038804,44.223810,2690 7.038872,44.223867,2688 7.038967,44.223927,2688 7.038962,44.223947,2687 7.038894,44.223961,2686 7.038810,44.223940,2685 7.038741,44.223889,2683 7.038729,44.223879,2683 7.038635,44.223883,2681 7.038569,44.223863,2679 7.038551,44.223872,2678 7.038635,44.223918,2677 7.038752,44.224026,2677 7.038789,44.224082,2676 7.038762,44.224075,2676 7.038720,44.224063,2676 7.038639,44.224037,2674 7.038588,44.224010,2672 7.038581,44.224008,2671 7.038500,44.223991,2669 7.038431,44.224009,2668 7.038362,44.224018,2667 7.038309,44.224020,2665 7.038241,44.224015,2663 7.038117,44.224021,2662 7.037936,44.224057,2660 7.037834,44.224043,2661 7.037787,44.224043,2659 7.037715,44.223968,2657 7.037698,44.223913,2656 7.037700,44.223903,2654 7.037689,44.223911,2652 7.037622,44.224016,2652 7.037561,44.224119,2649 7.037484,44.224293,2647 7.037456,44.224287,2645 7.037416,44.224270,2645 7.037357,44.224199,2643 7.037332,44.224153,2640 7.037312,44.224106,2639 7.037276,44.224029,2637 7.037260,44.224001,2635 7.037245,44.223983,2634 7.037218,44.223955,2632 7.037201,44.223894,2630 7.037209,44.223839,2629 7.037192,44.223772,2627 7.037196,44.223705,2626 7.037153,44.223614,2624 7.037143,44.223558,2623 7.037110,44.223525,2621 7.037080,44.223404,2619 7.037062,44.223376,2617 7.037002,44.223419,2616 7.036915,44.223463,2615 7.036840,44.223493,2614 7.036750,44.223499,2613 7.036724,44.223498,2613 7.036700,44.223529,2612 7.036645,44.223551,2611 7.036618,44.223557,2609 7.036589,44.223583,2609 7.036546,44.223584,2608 7.036541,44.223580,2607 7.036494,44.223569,2606 7.036481,44.223578,2605 7.036440,44.223644,2603 7.036363,44.223647,2601 7.036290,44.223603,2599 7.036261,44.223585,2598 7.036238,44.223564,2597 7.036221,44.223546,2596 7.036181,44.223494,2595 7.036159,44.223461,2592 7.036153,44.223462,2591 7.036104,44.223504,2592 7.036055,44.223568,2591 7.036004,44.223563,2589 7.035948,44.223548,2585 7.035823,44.223471,2584 7.035747,44.223413,2584 7.035698,44.223392,2582 7.035624,44.223372,2580 7.035499,44.223361,2579 7.035361,44.223382,2578 7.035306,44.223408,2577 7.035238,44.223407,2575 7.035159,44.223417,2574 7.035080,44.223431,2572 7.035026,44.223439,2570 7.034980,44.223458,2568 7.034943,44.223468,2567 7.034827,44.223500,2565 7.034691,44.223503,2564 7.034544,44.223481,2565 7.034267,44.223517,2564 7.034139,44.223516,2564 7.034041,44.223515,2563 7.034030,44.223508,2563 7.034025,44.223508,2563 7.034035,44.223514,2563 7.034035,44.223514,2565 7.033989,44.223513,2564 7.033940,44.223504,2563 7.033885,44.223500,2561 7.033737,44.223526,2560 7.033669,44.223528,2558 7.033633,44.223527,2557 7.033569,44.223529,2556 7.033504,44.223537,2555 7.033445,44.223536,2554 7.033354,44.223532,2553 7.033248,44.223523,2551 7.033198,44.223534,2551 7.033145,44.223547,2549 7.033045,44.223549,2547 7.032963,44.223558,2545 7.032873,44.223580,2544 7.032851,44.223595,2542 7.032769,44.223614,2541 7.032702,44.223625,2540 7.032636,44.223645,2538 7.032580,44.223650,2537 7.032512,44.223644,2536 7.032425,44.223629,2534 7.032328,44.223640,2532 7.032281,44.223655,2531 7.032176,44.223654,2530 7.032062,44.223690,2529 7.031952,44.223715,2528 7.031830,44.223773,2527 7.031729,44.223788,2526 7.031644,44.223790,2524 7.031610,44.223797,2523 7.031565,44.223804,2521 7.031510,44.223817,2520 7.031385,44.223826,2519 7.031354,44.223827,2518 7.031283,44.223839,2516 7.031214,44.223898,2515 7.031155,44.223953,2514 7.031088,44.223992,2513 7.030932,44.223997,2513 7.030885,44.223999,2510 7.030846,44.224005,2509 7.030757,44.224065,2507 7.030727,44.224101,2506 7.030641,44.224186,2504 7.030589,44.224241,2502 7.030508,44.224310,2500 7.030447,44.224349,2498 7.030406,44.224367,2495 7.030352,44.224406,2494 7.030321,44.224418,2493 7.030270,44.224434,2492 7.030225,44.224455,2489 7.030218,44.224445,2489 7.030192,44.224458,2489 7.030156,44.224487,2488 7.030131,44.224546,2486 7.030114,44.224573,2485 7.030090,44.224599,2483 7.030048,44.224627,2482 7.029984,44.224672,2481 7.029956,44.224719,2479 7.029951,44.224753,2478 7.029987,44.224785,2477 7.030075,44.224785,2475 7.030125,44.224785,2474 7.030176,44.224760,2473 7.030237,44.224788,2471 7.030285,44.224815,2470 7.030266,44.224855,2469 7.030208,44.224892,2468 7.030239,44.224903,2467 7.030307,44.224907,2468 7.030362,44.224881,2466 7.030443,44.224875,2464 7.030529,44.224876,2463 7.030640,44.224887,2462 7.030700,44.224890,2460 7.030794,44.224883,2459 7.030884,44.224846,2457 7.030907,44.224842,2456 7.031013,44.224854,2454 7.031065,44.224897,2453 7.031096,44.224985,2451 7.031127,44.225033,2449 7.031162,44.225041,2448 7.031357,44.225019,2447 7.031379,44.225067,2446 7.031372,44.225155,2444 7.031363,44.225180,2444 7.031353,44.225196,2443 7.031331,44.225214,2442 7.031292,44.225229,2444 7.031321,44.225323,2441 7.031387,44.225350,2438 7.031419,44.225375,2439 7.031362,44.225417,2439 7.031357,44.225450,2437 7.031339,44.225535,2435 7.031325,44.225581,2436 7.031358,44.225587,2435 7.031348,44.225591,2435 7.031355,44.225575,2434</coordinates></LineString></Placemark></Document></kml>