<?xml version="1.0" encoding="UTF-8"?>
<kml xmlns="http://www.opengis.net/kml/2.2"><Document><name>Alta Linea Continua – Stage 16: Bivacco Bonelli to Bivacco Barenghi</name><Style id="l"><LineStyle><color>ff2b30c4</color><width>4</width></LineStyle></Style><Placemark><name>Alta Linea Continua – Stage 16: Bivacco Bonelli to Bivacco Barenghi</name><styleUrl>#l</styleUrl><LineString><tessellate>1</tessellate><altitudeMode>clampToGround</altitudeMode><coordinates>6.926854,44.452321,2299 6.926918,44.452416,2298 6.926947,44.452461,2298 6.926984,44.452551,2298 6.927087,44.452612,2298 6.927223,44.452722,2298 6.927177,44.452716,2298 6.927194,44.452841,2297 6.927214,44.452869,2298 6.927272,44.452939,2299 6.927311,44.453053,2299 6.927245,44.453241,2299 6.927180,44.453453,2299 6.927013,44.453602,2300 6.926940,44.453618,2300 6.926820,44.453612,2301 6.926767,44.453619,2303 6.926783,44.453631,2303 6.926829,44.453703,2305 6.926860,44.453771,2306 6.926902,44.453821,2308 6.926901,44.453848,2308 6.926833,44.453867,2309 6.926705,44.453859,2311 6.926630,44.453861,2312 6.926622,44.453883,2312 6.926529,44.453925,2314 6.926442,44.453970,2315 6.926341,44.453959,2317 6.926292,44.453953,2317 6.926167,44.453934,2319 6.926114,44.453970,2320 6.926102,44.453944,2320 6.926145,44.453996,2320 6.926166,44.453986,2320 6.926181,44.453987,2320 6.926179,44.453936,2320 6.926146,44.453969,2319 6.926145,44.453943,2320 6.926116,44.453974,2320 6.925978,44.453986,2319 6.925964,44.454024,2320 6.926047,44.454181,2320 6.926014,44.454200,2320 6.925953,44.454240,2321 6.925831,44.454328,2321 6.925728,44.454378,2322 6.925692,44.454444,2323 6.925633,44.454544,2324 6.925565,44.454612,2324 6.925424,44.454636,2324 6.925291,44.454670,2323 6.925230,44.454672,2324 6.925181,44.454704,2323 6.925007,44.454835,2322 6.924848,44.454860,2321 6.924489,44.454881,2321 6.924384,44.454835,2322 6.924309,44.454805,2324 6.924250,44.454768,2326 6.924249,44.454721,2327 6.924216,44.454638,2329 6.924117,44.454559,2329 6.923849,44.454563,2329 6.923801,44.454518,2330 6.923734,44.454476,2331 6.923660,44.454467,2332 6.923609,44.454454,2333 6.923541,44.454387,2334 6.923501,44.454342,2335 6.923377,44.454276,2337 6.923313,44.454173,2336 6.923183,44.454012,2337 6.923091,44.453990,2338 6.923003,44.453940,2340 6.922961,44.453903,2341 6.922917,44.453825,2343 6.922896,44.453777,2344 6.922846,44.453765,2345 6.922794,44.453762,2346 6.922750,44.453745,2347 6.922686,44.453704,2348 6.922637,44.453677,2350 6.922611,44.453658,2351 6.922589,44.453628,2352 6.922516,44.453651,2352 6.922497,44.453678,2353 6.922525,44.453627,2354 6.922468,44.453625,2354 6.922445,44.453628,2355 6.922387,44.453647,2357 6.922319,44.453697,2358 6.922350,44.453683,2359 6.922334,44.453683,2359 6.922257,44.453670,2359 6.922265,44.453651,2360 6.922234,44.453619,2361 6.922205,44.453659,2361 6.922189,44.453649,2362 6.922186,44.453604,2364 6.922156,44.453640,2365 6.922129,44.453643,2365 6.922018,44.453650,2366 6.921929,44.453629,2368 6.921925,44.453640,2369 6.921892,44.453670,2371 6.921873,44.453703,2372 6.921858,44.453706,2374 6.921826,44.453713,2376 6.921794,44.453754,2377 6.921763,44.453753,2378 6.921735,44.453754,2379 6.921641,44.453720,2380 6.921566,44.453762,2380 6.921570,44.453829,2381 6.921521,44.453847,2382 6.921502,44.453870,2382 6.921432,44.453938,2383 6.921371,44.453942,2384 6.921237,44.454020,2384 6.921160,44.454012,2382 6.921031,44.454000,2381 6.920913,44.454100,2382 6.920851,44.454143,2383 6.920790,44.454175,2384 6.920743,44.454220,2386 6.920705,44.454237,2387 6.920663,44.454272,2388 6.920604,44.454310,2389 6.920548,44.454359,2392 6.920538,44.454380,2393 6.920486,44.454427,2395 6.920441,44.454434,2397 6.920395,44.454448,2398 6.920337,44.454495,2400 6.920303,44.454529,2402 6.920200,44.454557,2403 6.920144,44.454570,2405 6.920093,44.454594,2406 6.919986,44.454703,2408 6.919918,44.454746,2408 6.919798,44.454794,2408 6.919700,44.454833,2408 6.919558,44.454874,2408 6.919496,44.454912,2408 6.919492,44.454908,2407 6.919504,44.454904,2406 6.919464,44.454901,2404 6.919520,44.454925,2403 6.919500,44.454911,2403 6.919525,44.454946,2405 6.919526,44.454955,2407 6.919504,44.454960,2407 6.919508,44.454933,2407 6.919492,44.454904,2407 6.919501,44.454889,2406 6.919462,44.454912,2406 6.919512,44.454920,2405 6.919504,44.454906,2407 6.919452,44.454949,2408 6.919334,44.454975,2408 6.919263,44.455005,2409 6.919173,44.455036,2410 6.919029,44.455086,2410 6.918941,44.455132,2412 6.918881,44.455206,2412 6.918816,44.455301,2413 6.918689,44.455423,2414 6.918642,44.455451,2415 6.918561,44.455520,2417 6.918516,44.455554,2418 6.918439,44.455614,2419 6.918353,44.455652,2420 6.918293,44.455679,2421 6.918198,44.455714,2422 6.918070,44.455775,2423 6.918006,44.455804,2424 6.917923,44.455853,2425 6.917759,44.455961,2426 6.917654,44.456053,2425 6.917524,44.456115,2426 6.917371,44.456163,2426 6.917294,44.456181,2428 6.917282,44.456168,2427 6.917291,44.456171,2426 6.917308,44.456164,2426 6.917291,44.456173,2426 6.917182,44.456161,2429 6.917106,44.456100,2431 6.917089,44.456083,2432 6.917066,44.456056,2431 6.917047,44.456040,2430 6.917007,44.456035,2429 6.917052,44.456049,2429 6.917085,44.456068,2429 6.917058,44.456062,2428 6.917063,44.456078,2428 6.917068,44.456052,2428 6.917063,44.456051,2429 6.916978,44.455996,2429 6.916984,44.456062,2429 6.917026,44.456059,2429 6.917005,44.456050,2428 6.916992,44.456049,2428 6.917001,44.456039,2428 6.917040,44.456086,2428 6.917030,44.456099,2428 6.917059,44.456075,2428 6.917024,44.456059,2427 6.917065,44.456089,2430 6.917118,44.456150,2429 6.917155,44.456162,2429 6.917219,44.456194,2428 6.917271,44.456186,2427 6.917281,44.456161,2425 6.917292,44.456131,2424 6.917321,44.456154,2424 6.917272,44.456189,2425 6.917284,44.456223,2426 6.917248,44.456257,2428 6.917169,44.456301,2429 6.917133,44.456329,2429 6.917114,44.456360,2430 6.917142,44.456435,2431 6.917192,44.456541,2432 6.917189,44.456569,2432 6.917088,44.456643,2433 6.917002,44.456678,2434 6.916977,44.456730,2435 6.916925,44.456758,2436 6.916867,44.456802,2437 6.916760,44.456830,2438 6.916678,44.456852,2439 6.916549,44.456897,2440 6.916360,44.457011,2440 6.916299,44.457124,2441 6.916279,44.457204,2441 6.916248,44.457312,2440 6.916261,44.457528,2440 6.916242,44.457664,2439 6.916185,44.457815,2440 6.916129,44.457866,2441 6.916043,44.458007,2441 6.915983,44.458144,2442 6.915876,44.458261,2442 6.915836,44.458338,2442 6.915842,44.458381,2442 6.915835,44.458431,2442 6.915797,44.458671,2443 6.915750,44.458754,2443 6.915705,44.458809,2444 6.915628,44.458873,2444 6.915519,44.458965,2443 6.915442,44.459065,2442 6.915296,44.459155,2442 6.915133,44.459285,2443 6.915031,44.459326,2444 6.914950,44.459364,2444 6.914821,44.459445,2446 6.914733,44.459478,2447 6.914674,44.459496,2448 6.914546,44.459624,2448 6.914438,44.459653,2449 6.914268,44.459678,2449 6.914173,44.459751,2450 6.914070,44.459819,2452 6.913928,44.459878,2453 6.913888,44.459901,2453 6.913786,44.459966,2454 6.913674,44.460042,2454 6.913428,44.460142,2454 6.913294,44.460170,2455 6.913266,44.460163,2455 6.913079,44.460113,2455 6.913024,44.460098,2456 6.912919,44.460072,2457 6.912849,44.460060,2457 6.912860,44.460077,2458 6.912845,44.460059,2458 6.912803,44.460070,2458 6.912791,44.460058,2458 6.912780,44.460038,2457 6.912841,44.460049,2457 6.912859,44.460056,2457 6.912869,44.460071,2457 6.912786,44.460043,2457 6.912683,44.460000,2458 6.912570,44.459960,2459 6.912533,44.459864,2460 6.912391,44.459742,2460 6.912307,44.459667,2460 6.912202,44.459582,2459 6.912099,44.459544,2459 6.911986,44.459500,2458 6.911920,44.459449,2458 6.911815,44.459388,2459 6.911713,44.459378,2458 6.911523,44.459367,2459 6.911360,44.459412,2459 6.911259,44.459399,2460 6.911134,44.459396,2461 6.911039,44.459403,2462 6.910965,44.459409,2464 6.910917,44.459413,2465 6.910803,44.459432,2467 6.910705,44.459465,2468 6.910641,44.459472,2470 6.910599,44.459492,2471 6.910511,44.459502,2472 6.910459,44.459497,2473 6.910369,44.459510,2475 6.910314,44.459519,2476 6.910210,44.459531,2477 6.910183,44.459544,2479 6.910177,44.459544,2480 6.910118,44.459557,2481 6.910068,44.459566,2482 6.910022,44.459562,2483 6.910006,44.459568,2484 6.909963,44.459581,2486 6.909899,44.459580,2488 6.909844,44.459583,2489 6.909816,44.459595,2491 6.909764,44.459612,2492 6.909755,44.459609,2493 6.909723,44.459613,2494 6.909719,44.459619,2495 6.909652,44.459616,2497 6.909585,44.459624,2498 6.909576,44.459643,2498 6.909599,44.459671,2500 6.909556,44.459733,2501 6.909525,44.459741,2502 6.909506,44.459716,2503 6.909471,44.459708,2505 6.909433,44.459744,2506 6.909379,44.459767,2508 6.909332,44.459755,2508 6.909334,44.459734,2509 6.909347,44.459730,2510 6.909299,44.459679,2511 6.909316,44.459722,2512 6.909299,44.459798,2513 6.909295,44.459813,2514 6.909269,44.459823,2514 6.909220,44.459833,2515 6.909210,44.459876,2517 6.909188,44.459858,2518 6.909171,44.459881,2518 6.909132,44.459906,2518 6.909193,44.459896,2519 6.909176,44.459892,2520 6.909159,44.459870,2520 6.909123,44.459819,2521 6.909055,44.459848,2522 6.909069,44.459907,2523 6.909053,44.459950,2524 6.909058,44.459945,2524 6.909042,44.459948,2525 6.908971,44.459857,2525 6.908920,44.459846,2527 6.908870,44.459827,2528 6.908905,44.459798,2529 6.908884,44.459749,2530 6.908831,44.459714,2531 6.908824,44.459706,2533 6.908819,44.459682,2534 6.908824,44.459625,2535 6.908843,44.459621,2535 6.908831,44.459609,2536 6.908827,44.459583,2537 6.908793,44.459560,2539 6.908780,44.459556,2540 6.908680,44.459479,2541 6.908616,44.459480,2542 6.908592,44.459493,2543 6.908580,44.459484,2544 6.908557,44.459497,2543 6.908540,44.459543,2544 6.908535,44.459613,2545 6.908428,44.459684,2543 6.908390,44.459752,2544 6.908326,44.459929,2544 6.908277,44.460021,2545 6.908263,44.460090,2546 6.908203,44.460229,2547 6.908151,44.460268,2549 6.908119,44.460342,2548 6.908101,44.460394,2547 6.908032,44.460468,2546 6.907924,44.460585,2545 6.907877,44.460648,2543 6.907775,44.460720,2542 6.907753,44.460813,2542 6.907815,44.460982,2542 6.907908,44.461202,2543 6.907913,44.461269,2544 6.907952,44.461365,2545 6.907969,44.461518,2546 6.907956,44.461653,2546 6.907940,44.461818,2546 6.907893,44.461923,2547 6.907907,44.462109,2547 6.907977,44.462169,2549 6.908061,44.462268,2549 6.908183,44.462340,2550 6.908262,44.462369,2551 6.908272,44.462370,2552 6.908266,44.462369,2552 6.908213,44.462352,2553 6.908102,44.462355,2554 6.908059,44.462406,2555 6.907981,44.462445,2557 6.907894,44.462487,2558 6.907843,44.462528,2559 6.907738,44.462629,2558 6.907743,44.462661,2557 6.907749,44.462732,2556 6.907698,44.462797,2555 6.907646,44.462867,2554 6.907623,44.462907,2554 6.907528,44.462989,2555 6.907553,44.462985,2555 6.907507,44.463007,2555 6.907450,44.462988,2554 6.907341,44.462979,2553 6.907297,44.462998,2552 6.907226,44.463036,2549 6.907166,44.463140,2546 6.907100,44.463195,2545 6.907018,44.463257,2544 6.906916,44.463346,2543 6.906760,44.463442,2542 6.906642,44.463566,2541 6.906577,44.463639,2541 6.906427,44.463729,2541 6.906317,44.463793,2541 6.906213,44.463918,2541 6.906063,44.464039,2542 6.905944,44.464193,2542 6.905747,44.464273,2542 6.905686,44.464324,2540 6.905546,44.464479,2540 6.905488,44.464597,2538 6.905429,44.464714,2537 6.905396,44.464763,2536 6.905338,44.464883,2535 6.905165,44.465048,2535 6.905023,44.465084,2535 6.904910,44.465087,2536 6.904830,44.465104,2536 6.904722,44.465236,2535 6.904660,44.465340,2533 6.904512,44.465482,2533 6.904440,44.465543,2533 6.904499,44.465545,2534 6.904423,44.465614,2534 6.904388,44.465772,2532 6.904353,44.465822,2532 6.904209,44.465925,2532 6.904147,44.465991,2532 6.904091,44.466068,2531 6.903969,44.466168,2531 6.903923,44.466271,2531 6.903765,44.466409,2530 6.903671,44.466548,2530 6.903563,44.466689,2530 6.903424,44.466833,2530 6.903338,44.466901,2530 6.903199,44.466997,2532 6.903159,44.467045,2532 6.903084,44.467132,2532 6.902987,44.467231,2531 6.902881,44.467320,2530 6.902831,44.467401,2529 6.902724,44.467539,2528 6.902621,44.467600,2527 6.902563,44.467636,2526 6.902491,44.467769,2526 6.902402,44.467836,2527 6.902227,44.467964,2526 6.902142,44.468048,2527 6.902164,44.468049,2527 6.902147,44.468022,2527 6.902122,44.468038,2527 6.901973,44.468098,2525 6.901891,44.468138,2524 6.901784,44.468152,2523 6.901590,44.468178,2522 6.901453,44.468184,2520 6.901294,44.468196,2521 6.901226,44.468214,2522 6.901111,44.468242,2523 6.901077,44.468285,2524 6.901049,44.468360,2524 6.900983,44.468414,2524 6.900939,44.468431,2524 6.900858,44.468486,2525 6.900712,44.468556,2525 6.900573,44.468635,2526 6.900500,44.468646,2528 6.900439,44.468689,2529 6.900424,44.468702,2528 6.900288,44.468774,2527 6.900209,44.468802,2527 6.900072,44.468867,2527 6.899944,44.468915,2528 6.899895,44.468971,2529 6.899852,44.468991,2530 6.899697,44.469020,2530 6.899632,44.468997,2530 6.899632,44.469002,2530 6.899617,44.469048,2530 6.899501,44.469181,2530 6.899382,44.469215,2531 6.899294,44.469252,2532 6.899212,44.469311,2532 6.899113,44.469363,2533 6.899093,44.469381,2534 6.899052,44.469422,2536 6.899018,44.469473,2537 6.898993,44.469474,2538 6.899000,44.469473,2538 6.898994,44.469489,2538 6.898984,44.469485,2539 6.898997,44.469492,2539 6.898981,44.469467,2539 6.898962,44.469466,2539 6.898996,44.469459,2539 6.899017,44.469473,2539 6.899070,44.469490,2539 6.899027,44.469485,2539 6.898954,44.469475,2539 6.898998,44.469490,2540 6.898908,44.469433,2540 6.898973,44.469458,2541 6.899014,44.469491,2541 6.899001,44.469486,2542 6.898995,44.469457,2542 6.898948,44.469457,2542 6.898902,44.469459,2543 6.898950,44.469479,2543 6.898959,44.469470,2543 6.898952,44.469455,2542 6.898877,44.469466,2542 6.898950,44.469497,2542 6.898991,44.469474,2543 6.898925,44.469462,2543 6.898804,44.469443,2543 6.898789,44.469479,2544 6.898701,44.469468,2545 6.898593,44.469472,2546 6.898457,44.469485,2546 6.898442,44.469511,2548 6.898389,44.469483,2547 6.898412,44.469476,2547 6.898387,44.469486,2548 6.898292,44.469498,2549 6.898230,44.469496,2550 6.898110,44.469530,2551 6.898050,44.469543,2552 6.898015,44.469573,2553 6.897950,44.469623,2554 6.897799,44.469614,2555 6.897756,44.469618,2556 6.897594,44.469674,2557 6.897467,44.469683,2558 6.897350,44.469706,2559 6.897292,44.469702,2560 6.897189,44.469707,2561 6.897119,44.469725,2563 6.897009,44.469725,2564 6.896880,44.469698,2565 6.896658,44.469651,2565 6.896539,44.469647,2566 6.896367,44.469605,2567 6.896289,44.469606,2568 6.896141,44.469623,2570 6.896023,44.469643,2572 6.895930,44.469640,2573 6.895794,44.469619,2575 6.895765,44.469620,2576 6.895753,44.469642,2576 6.895744,44.469662,2578 6.895691,44.469674,2579 6.895640,44.469677,2580 6.895595,44.469683,2581 6.895549,44.469683,2582 6.895529,44.469694,2583 6.895470,44.469673,2584 6.895467,44.469696,2585 6.895407,44.469707,2586 6.895366,44.469697,2588 6.895331,44.469666,2590 6.895306,44.469644,2591 6.895247,44.469640,2593 6.895196,44.469641,2594 6.895193,44.469647,2595 6.895161,44.469642,2595 6.895136,44.469635,2596 6.895104,44.469650,2598 6.895059,44.469700,2599 6.895024,44.469730,2601 6.895006,44.469697,2602 6.894970,44.469679,2603 6.894936,44.469654,2604 6.894916,44.469660,2605 6.894902,44.469664,2606 6.894859,44.469627,2607 6.894826,44.469608,2608 6.894834,44.469621,2609 6.894817,44.469623,2610 6.894802,44.469622,2611 6.894768,44.469619,2612 6.894722,44.469599,2613 6.894663,44.469606,2615 6.894666,44.469605,2616 6.894625,44.469583,2616 6.894587,44.469575,2618 6.894559,44.469576,2619 6.894540,44.469583,2620 6.894502,44.469602,2621 6.894473,44.469603,2622 6.894441,44.469596,2623 6.894423,44.469589,2624 6.894375,44.469600,2625 6.894350,44.469608,2626 6.894311,44.469602,2627 6.894279,44.469605,2628 6.894224,44.469618,2629 6.894176,44.469632,2630 6.894128,44.469647,2632 6.894090,44.469660,2633 6.894028,44.469680,2634 6.893913,44.469693,2636 6.893856,44.469703,2637 6.893795,44.469705,2638 6.893746,44.469706,2639 6.893700,44.469711,2639 6.893646,44.469725,2640 6.893629,44.469764,2642 6.893593,44.469783,2643 6.893552,44.469815,2644 6.893558,44.469843,2645 6.893541,44.469865,2646 6.893563,44.469899,2647 6.893571,44.469934,2648 6.893546,44.469970,2649 6.893526,44.470004,2650 6.893502,44.470028,2651 6.893446,44.470052,2652 6.893394,44.470072,2653 6.893373,44.470098,2654 6.893375,44.470092,2654 6.893410,44.470097,2654 6.893410,44.470106,2655 6.893403,44.470110,2655 6.893363,44.470112,2655 6.893327,44.470085,2655 6.893345,44.470069,2655 6.893380,44.470085,2655 6.893350,44.470072,2655 6.893335,44.470095,2655 6.893363,44.470139,2655 6.893388,44.470171,2655 6.893376,44.470112,2655 6.893388,44.470132,2655 6.893395,44.470107,2655 6.893390,44.470108,2655 6.893421,44.470151,2656 6.893451,44.470163,2657 6.893489,44.470174,2658 6.893538,44.470172,2660 6.893588,44.470200,2662 6.893610,44.470207,2663 6.893659,44.470220,2663 6.893669,44.470222,2664 6.893720,44.470232,2665 6.893697,44.470227,2667 6.893629,44.470218,2668 6.893592,44.470320,2670 6.893565,44.470349,2671 6.893445,44.470422,2672 6.893369,44.470454,2673 6.893277,44.470479,2674 6.893116,44.470509,2675 6.893071,44.470519,2676 6.892956,44.470547,2677 6.892940,44.470571,2678 6.892892,44.470596,2679 6.892808,44.470641,2680 6.892778,44.470666,2681 6.892687,44.470695,2682 6.892640,44.470717,2683 6.892568,44.470733,2684 6.892566,44.470730,2685 6.892515,44.470741,2686 6.892467,44.470769,2687 6.892425,44.470793,2688 6.892416,44.470805,2689 6.892340,44.470825,2691 6.892269,44.470848,2692 6.892210,44.470851,2694 6.892149,44.470848,2695 6.892068,44.470864,2695 6.891958,44.470904,2696 6.891875,44.470914,2697 6.891766,44.470928,2699 6.891730,44.470945,2699 6.891706,44.470946,2701 6.891655,44.470959,2702 6.891600,44.470968,2704 6.891556,44.470958,2705 6.891513,44.470967,2706 6.891485,44.470995,2707 6.891475,44.471018,2708 6.891394,44.471081,2708 6.891241,44.471221,2708 6.891141,44.471282,2709 6.891019,44.471371,2709 6.890881,44.471540,2708 6.890781,44.471621,2708 6.890708,44.471715,2707 6.890626,44.471803,2707 6.890540,44.471889,2707 6.890419,44.472035,2706 6.890365,44.472203,2706 6.890284,44.472342,2707 6.890213,44.472421,2707 6.890190,44.472479,2708 6.890108,44.472545,2709 6.890092,44.472639,2710 6.890122,44.472662,2710 6.890112,44.472671,2710 6.890127,44.472678,2709 6.890132,44.472671,2709 6.890087,44.472640,2708 6.890121,44.472641,2707 6.890184,44.472650,2707 6.890115,44.472631,2707 6.889948,44.472755,2707 6.889806,44.472872,2707 6.889704,44.472933,2708 6.889670,44.472954,2709 6.889636,44.473021,2709 6.889620,44.473062,2711 6.889580,44.473098,2712 6.889538,44.473144,2712 6.889491,44.473181,2715 6.889404,44.473226,2716 6.889381,44.473247,2717 6.889297,44.473295,2718 6.889238,44.473345,2718 6.889229,44.473392,2720 6.889211,44.473372,2721 6.889114,44.473427,2723 6.889077,44.473438,2724 6.889070,44.473459,2725 6.889123,44.473523,2726 6.889103,44.473452,2725 6.889092,44.473405,2725 6.889076,44.473446,2725 6.889087,44.473501,2724 6.889110,44.473455,2724 6.889088,44.473498,2724 6.889139,44.473548,2724 6.889141,44.473546,2724 6.889115,44.473492,2724 6.889096,44.473502,2724 6.889057,44.473449,2723 6.889067,44.473452,2723 6.889073,44.473454,2723 6.889096,44.473459,2722 6.889098,44.473450,2722 6.889094,44.473437,2722 6.889068,44.473437,2721 6.889075,44.473444,2721 6.889060,44.473433,2721 6.889098,44.473455,2721 6.889075,44.473439,2720 6.889068,44.473437,2720 6.889017,44.473458,2719 6.889044,44.473448,2719 6.889082,44.473462,2719 6.889084,44.473449,2719 6.889099,44.473474,2718 6.889055,44.473469,2718 6.888992,44.473495,2719 6.888964,44.473511,2720 6.889007,44.473521,2720 6.889002,44.473549,2720 6.889005,44.473523,2719 6.889004,44.473538,2718 6.888963,44.473553,2718 6.888983,44.473537,2718 6.888994,44.473541,2718 6.888989,44.473532,2717 6.888993,44.473533,2717 6.888993,44.473533,2716 6.888993,44.473533,2716 6.888993,44.473533,2716 6.888993,44.473533,2716 6.888993,44.473533,2716 6.888993,44.473533,2716 6.888993,44.473533,2716 6.888965,44.473539,2715 6.888972,44.473540,2715 6.888991,44.473513,2715 6.888950,44.473528,2715 6.888975,44.473536,2715 6.888980,44.473549,2715 6.888991,44.473540,2715 6.888997,44.473540,2715 6.888993,44.473533,2715 6.889016,44.473540,2714 6.889010,44.473526,2714 6.888991,44.473522,2714 6.888988,44.473536,2714 6.888980,44.473522,2714 6.888994,44.473520,2714 6.888999,44.473548,2714 6.888962,44.473526,2713 6.888962,44.473526,2713 6.888980,44.473520,2713 6.888984,44.473544,2713 6.888986,44.473549,2713 6.888981,44.473550,2713 6.888936,44.473539,2713 6.888967,44.473563,2713 6.889011,44.473532,2713 6.889007,44.473518,2714 6.888987,44.473519,2713 6.888990,44.473533,2712 6.888973,44.473544,2712 6.888992,44.473535,2712 6.888982,44.473546,2712 6.889007,44.473539,2711 6.888984,44.473538,2711 6.888968,44.473536,2711 6.888958,44.473536,2711 6.888959,44.473538,2711 6.888965,44.473553,2711 6.888978,44.473549,2712 6.888976,44.473546,2712 6.888977,44.473538,2712 6.888985,44.473538,2712 6.888984,44.473538,2712 6.888957,44.473555,2713 6.888955,44.473545,2713 6.888964,44.473554,2713 6.888970,44.473558,2713 6.888974,44.473546,2713 6.888991,44.473541,2713 6.888999,44.473542,2714 6.888987,44.473549,2713 6.889011,44.473568,2713 6.889018,44.473550,2713 6.888986,44.473556,2713 6.888947,44.473547,2713 6.888982,44.473525,2713 6.888986,44.473542,2713 6.888968,44.473521,2713 6.888973,44.473539,2713 6.888985,44.473527,2713 6.888979,44.473529,2713 6.888962,44.473526,2713 6.888962,44.473526,2713 6.888962,44.473526,2713 6.888977,44.473536,2713 6.889031,44.473514,2713 6.888961,44.473549,2713 6.888972,44.473550,2713 6.888947,44.473554,2712 6.888969,44.473547,2712 6.888982,44.473534,2713 6.888992,44.473526,2712 6.888992,44.473526,2712 6.888960,44.473522,2712 6.888960,44.473522,2712 6.888960,44.473522,2712 6.888960,44.473522,2712 6.888960,44.473522,2712 6.888960,44.473522,2712 6.888984,44.473533,2712 6.888979,44.473536,2712 6.888979,44.473536,2712 6.888996,44.473540,2712 6.889005,44.473555,2712 6.888994,44.473535,2712 6.888996,44.473537,2712 6.889000,44.473537,2712 6.888981,44.473510,2713 6.888970,44.473543,2712 6.889014,44.473549,2712 6.888995,44.473563,2712 6.888991,44.473548,2712 6.888977,44.473540,2711 6.888990,44.473548,2711 6.888978,44.473535,2711 6.888994,44.473549,2711 6.888988,44.473535,2711 6.888954,44.473522,2711 6.888960,44.473533,2711 6.888979,44.473536,2711 6.888979,44.473536,2711 6.888970,44.473534,2710 6.888980,44.473525,2710 6.888980,44.473536,2710 6.888956,44.473532,2710 6.888957,44.473544,2710 6.888950,44.473532,2710 6.888979,44.473521,2710 6.888975,44.473558,2710 6.888946,44.473569,2710 6.888968,44.473536,2710 6.888977,44.473533,2710 6.888968,44.473549,2710 6.888943,44.473549,2710 6.888947,44.473552,2710 6.888931,44.473549,2710 6.888952,44.473552,2710 6.888989,44.473524,2710 6.888976,44.473534,2710 6.888972,44.473531,2710 6.888998,44.473547,2710 6.888974,44.473539,2710 6.888978,44.473523,2710 6.888981,44.473545,2710 6.888955,44.473535,2710 6.888981,44.473524,2710 6.888973,44.473525,2710 6.888982,44.473531,2709 6.888975,44.473537,2709 6.888979,44.473512,2709 6.889005,44.473524,2709 6.888993,44.473524,2709 6.888981,44.473538,2709 6.888971,44.473531,2709 6.888979,44.473537,2709 6.888994,44.473535,2709 6.888982,44.473545,2709 6.888993,44.473539,2709 6.888981,44.473543,2709 6.888985,44.473556,2709 6.888981,44.473550,2709 6.888986,44.473533,2709 6.888967,44.473525,2709 6.888983,44.473533,2710 6.888958,44.473547,2710 6.888948,44.473546,2710 6.888980,44.473543,2710 6.888951,44.473545,2710 6.888999,44.473541,2710 6.888993,44.473538,2711 6.888981,44.473533,2711 6.888980,44.473533,2711 6.888976,44.473549,2711 6.888969,44.473548,2711 6.888948,44.473542,2711 6.888974,44.473535,2711 6.888965,44.473547,2711 6.888967,44.473555,2711 6.888989,44.473545,2711 6.889004,44.473535,2710 6.888995,44.473542,2710 6.888947,44.473534,2711 6.888961,44.473553,2711 6.888957,44.473544,2711 6.888978,44.473508,2711 6.888975,44.473527,2711 6.888986,44.473520,2711 6.888979,44.473523,2711 6.889004,44.473522,2711 6.889015,44.473527,2711 6.888966,44.473524,2711 6.888996,44.473520,2711 6.889013,44.473512,2711 6.889021,44.473512,2711 6.888976,44.473533,2711 6.888962,44.473537,2712 6.888998,44.473526,2712 6.888985,44.473546,2712 6.888971,44.473536,2711 6.888975,44.473529,2711 6.888990,44.473531,2711 6.888992,44.473541,2712 6.888959,44.473537,2711 6.888979,44.473527,2711 6.888974,44.473543,2711 6.888977,44.473529,2712 6.889002,44.473526,2711 6.889001,44.473524,2712 6.888980,44.473526,2712 6.888976,44.473532,2712 6.888969,44.473541,2712 6.888995,44.473535,2711 6.888993,44.473531,2711 6.888995,44.473541,2711 6.888993,44.473529,2712 6.888985,44.473514,2712 6.888998,44.473528,2711 6.888991,44.473529,2712 6.888982,44.473520,2712 6.888981,44.473545,2712 6.888972,44.473530,2712 6.888994,44.473543,2712 6.889004,44.473532,2712 6.888992,44.473533,2711 6.888998,44.473523,2711 6.888990,44.473521,2711 6.888990,44.473521,2711 6.888979,44.473554,2711 6.888977,44.473523,2711 6.888992,44.473534,2711 6.888994,44.473528,2711 6.888995,44.473535,2711 6.888988,44.473534,2711 6.888985,44.473541,2711 6.888967,44.473532,2711 6.889003,44.473534,2711 6.888963,44.473541,2711 6.888964,44.473540,2711 6.888964,44.473541,2711 6.888954,44.473552,2711 6.888944,44.473558,2711 6.888977,44.473541,2711 6.888985,44.473534,2711 6.888991,44.473545,2711 6.888975,44.473556,2710 6.888970,44.473544,2710 6.888968,44.473527,2711 6.888985,44.473532,2711 6.888967,44.473537,2710 6.888978,44.473542,2710 6.889000,44.473526,2710 6.888989,44.473537,2710 6.888992,44.473535,2710 6.888992,44.473536,2710 6.888998,44.473525,2710 6.888994,44.473535,2710 6.888961,44.473535,2710 6.888969,44.473539,2710 6.888990,44.473535,2710 6.888983,44.473531,2710 6.888998,44.473522,2710 6.888978,44.473534,2710 6.889008,44.473523,2710 6.888987,44.473531,2710 6.888971,44.473540,2711 6.888992,44.473545,2711 6.888995,44.473549,2711 6.888962,44.473542,2711 6.889001,44.473540,2711 6.889013,44.473532,2710 6.888991,44.473535,2710 6.888993,44.473546,2710 6.888982,44.473539,2710 6.888932,44.473547,2710 6.888940,44.473542,2710 6.888956,44.473532,2710 6.888983,44.473535,2711 6.889025,44.473514,2710 6.888997,44.473534,2710 6.888989,44.473525,2710 6.888977,44.473534,2710 6.888975,44.473549,2710 6.888971,44.473550,2710 6.888965,44.473539,2710 6.888985,44.473542,2710 6.888988,44.473498,2710 6.888958,44.473522,2710 6.888992,44.473514,2710 6.888978,44.473539,2713 6.888973,44.473538,2712 6.888969,44.473536,2712 6.888973,44.473536,2713 6.888913,44.473565,2713 6.888936,44.473551,2714 6.888921,44.473585,2715 6.888868,44.473625,2716 6.888826,44.473646,2717 6.888764,44.473684,2719 6.888719,44.473702,2720 6.888686,44.473708,2721 6.888647,44.473723,2721 6.888630,44.473735,2722 6.888556,44.473769,2723 6.888491,44.473785,2724 6.888459,44.473802,2726 6.888418,44.473827,2727 6.888347,44.473854,2728 6.888281,44.473885,2728 6.888234,44.473924,2729 6.888138,44.473949,2730 6.888088,44.473953,2732 6.888056,44.473961,2733 6.888006,44.473982,2734 6.887994,44.473992,2736 6.887986,44.474004,2738 6.887913,44.474027,2740 6.887888,44.474031,2741 6.887855,44.474036,2742 6.887847,44.474027,2744 6.887832,44.474016,2744 6.887833,44.474019,2744 6.887808,44.474031,2745 6.887774,44.474039,2746 6.887754,44.474040,2748 6.887719,44.474074,2749 6.887707,44.474112,2750 6.887697,44.474120,2751 6.887694,44.474122,2752 6.887678,44.474149,2753 6.887678,44.474161,2754 6.887662,44.474165,2755 6.887621,44.474179,2757 6.887592,44.474197,2758 6.887561,44.474222,2759 6.887532,44.474237,2760 6.887526,44.474247,2761 6.887512,44.474242,2763 6.887493,44.474261,2764 6.887455,44.474285,2766 6.887432,44.474292,2767 6.887425,44.474314,2768 6.887417,44.474363,2769 6.887394,44.474364,2770 6.887389,44.474366,2771 6.887347,44.474388,2772 6.887331,44.474389,2773 6.887319,44.474443,2775 6.887310,44.474438,2776 6.887307,44.474456,2777 6.887296,44.474465,2778 6.887282,44.474482,2779 6.887250,44.474508,2781 6.887229,44.474507,2782 6.887193,44.474543,2783 6.887203,44.474572,2784 6.887181,44.474549,2785 6.887134,44.474566,2786 6.887109,44.474584,2787 6.887076,44.474596,2788 6.887046,44.474613,2791 6.887013,44.474624,2791 6.886948,44.474635,2793 6.886908,44.474652,2794 6.886828,44.474694,2795 6.886786,44.474704,2796 6.886747,44.474707,2797 6.886718,44.474696,2798 6.886686,44.474714,2799 6.886655,44.474737,2801 6.886617,44.474737,2802 6.886582,44.474747,2802 6.886591,44.474761,2803 6.886593,44.474758,2804 6.886551,44.474768,2805 6.886505,44.474789,2806 6.886446,44.474787,2808 6.886395,44.474805,2810 6.886349,44.474805,2811 6.886275,44.474827,2811 6.886183,44.474903,2812 6.886130,44.474994,2814 6.886103,44.475027,2815 6.886067,44.475096,2816 6.886032,44.475199,2817 6.886017,44.475295,2818 6.886000,44.475369,2819 6.885996,44.475438,2820 6.885929,44.475530,2818 6.885878,44.475544,2817 6.885769,44.475535,2815 6.885737,44.475533,2813 6.885714,44.475527,2811 6.885692,44.475503,2810 6.885658,44.475502,2808 6.885633,44.475521,2808 6.885580,44.475526,2806 6.885508,44.475513,2804 6.885475,44.475515,2803 6.885436,44.475576,2802 6.885399,44.475601,2799 6.885321,44.475619,2798 6.885291,44.475628,2797 6.885225,44.475653,2796 6.885122,44.475692,2793 6.885089,44.475660,2794 6.885018,44.475648,2791 6.884948,44.475683,2789 6.884901,44.475706,2787 6.884875,44.475698,2785 6.884867,44.475683,2785 6.884834,44.475680,2783 6.884801,44.475700,2782 6.884781,44.475733,2781 6.884764,44.475771,2780 6.884722,44.475798,2778 6.884678,44.475810,2776 6.884640,44.475794,2775 6.884597,44.475757,2773 6.884573,44.475773,2772 6.884533,44.475812,2770 6.884491,44.475874,2768 6.884439,44.475914,2766 6.884397,44.475910,2765 6.884363,44.475900,2764 6.884306,44.475924,2763 6.884246,44.475950,2761 6.884125,44.475969,2760 6.884006,44.475990,2758 6.883943,44.476037,2757 6.883880,44.476057,2755 6.883820,44.476052,2753 6.883730,44.476047,2751 6.883665,44.476066,2749 6.883641,44.476091,2747 6.883598,44.476101,2746 6.883503,44.476123,2744 6.883453,44.476135,2742 6.883385,44.476171,2741 6.883343,44.476186,2739 6.883288,44.476218,2738 6.883230,44.476208,2736 6.883199,44.476177,2735 6.883164,44.476183,2733 6.883126,44.476202,2732 6.883056,44.476221,2730 6.883013,44.476228,2729 6.882979,44.476232,2728 6.882948,44.476242,2727 6.882932,44.476270,2725 6.882895,44.476317,2723 6.882852,44.476364,2721 6.882820,44.476397,2719 6.882801,44.476432,2717 6.882790,44.476457,2716 6.882772,44.476520,2714 6.882764,44.476564,2712 6.882717,44.476600,2710 6.882663,44.476630,2709 6.882604,44.476656,2708 6.882554,44.476698,2707 6.882545,44.476707,2706 6.882521,44.476720,2705 6.882476,44.476744,2703 6.882449,44.476736,2701 6.882451,44.476791,2699 6.882399,44.476853,2697 6.882365,44.476867,2696 6.882308,44.476904,2695 6.882259,44.476928,2694 6.882182,44.476973,2693 6.882061,44.477110,2692 6.882023,44.477160,2691 6.882000,44.477161,2690 6.881943,44.477172,2688 6.881892,44.477217,2686 6.881871,44.477245,2685 6.881862,44.477257,2684 6.881854,44.477272,2683 6.881827,44.477299,2682 6.881768,44.477345,2679 6.881734,44.477388,2678 6.881709,44.477407,2677 6.881663,44.477456,2675 6.881607,44.477500,2674 6.881569,44.477524,2672 6.881546,44.477561,2671 6.881530,44.477627,2669 6.881486,44.477707,2667 6.881404,44.477869,2666 6.881376,44.477996,2666 6.881272,44.478163,2668 6.881286,44.478181,2669 6.881293,44.478219,2670 6.881294,44.478229,2670 6.881298,44.478271,2670 6.881280,44.478326,2671 6.881301,44.478397,2673 6.881314,44.478443,2674 6.881313,44.478505,2676 6.881324,44.478583,2675 6.881343,44.478610,2674 6.881350,44.478707,2673 6.881419,44.478842,2672 6.881461,44.478885,2671 6.881507,44.478913,2668 6.881545,44.478946,2667 6.881572,44.478971,2665 6.881598,44.479003,2664 6.881648,44.479049,2662 6.881706,44.479073,2660 6.881712,44.479069,2659 6.881734,44.479060,2658 6.881756,44.479077,2656 6.881821,44.479098,2654 6.881852,44.479124,2652 6.881874,44.479126,2650 6.881880,44.479114,2649 6.881903,44.479057,2647 6.881931,44.479041,2646 6.881979,44.479050,2644 6.881991,44.479037,2642 6.882024,44.478959,2640 6.882074,44.478972,2639 6.882109,44.479006,2638 6.882113,44.479028,2639 6.882142,44.479073,2639 6.882160,44.479197,2639 6.882151,44.479323,2638 6.882202,44.479459,2636 6.882216,44.479486,2636 6.882236,44.479514,2634 6.882292,44.479579,2633 6.882313,44.479611,2634 6.882369,44.479654,2631 6.882386,44.479705,2629 6.882430,44.479758,2629 6.882480,44.479822,2628 6.882453,44.479859,2626 6.882393,44.479888,2625 6.882416,44.479881,2624 6.882419,44.479910,2625 6.882425,44.479936,2625 6.882398,44.479975,2625 6.882337,44.480006,2623 6.882343,44.480017,2623 6.882355,44.480059,2621 6.882347,44.480086,2619 6.882316,44.480168,2619 6.882347,44.480307,2620 6.882345,44.480315,2620 6.882404,44.480377,2620 6.882523,44.480519,2620 6.882559,44.480630,2621 6.882605,44.480617,2622 6.882656,44.480639,2623 6.882669,44.480711,2625 6.882651,44.480722,2625 6.882831,44.480753,2625 6.883037,44.480804,2624 6.883089,44.480925,2624 6.883065,44.481065,2624 6.883022,44.481128,2623 6.883000,44.481160,2622 6.882998,44.481251,2621 6.883028,44.481395,2622 6.883002,44.481408,2623 6.882988,44.481445,2624 6.882981,44.481463,2625 6.883004,44.481474,2627 6.883029,44.481506,2628 6.883075,44.481584,2629 6.883087,44.481604,2629 6.883123,44.481683,2630 6.883134,44.481715,2631 6.883127,44.481863,2631 6.883130,44.481911,2630 6.883085,44.482032,2629 6.883111,44.482134,2628 6.883229,44.482203,2627 6.883243,44.482221,2628 6.883295,44.482293,2629 6.883321,44.482337,2630 6.883336,44.482360,2626 6.883310,44.482442,2627 6.883270,44.482510,2624 6.883260,44.482559,2622 6.883283,44.482630,2620 6.883290,44.482665,2619 6.883330,44.482751,2619 6.883347,44.482729,2619 6.883360,44.482734,2619 6.883383,44.482893,2618 6.883422,44.482954,2616 6.883633,44.483040,2615 6.883663,44.483042,2612 6.883735,44.483078,2610 6.883879,44.483159,2609 6.883961,44.483333,2609 6.884075,44.483477,2610 6.884154,44.483552,2611 6.884184,44.483623,2610 6.884268,44.483703,2612 6.884294,44.483721,2612 6.884337,44.483766,2614 6.884364,44.483792,2615 6.884381,44.483850,2617 6.884466,44.483902,2619 6.884542,44.483989,2619 6.884596,44.484007,2621 6.884621,44.483982,2622 6.884574,44.483996,2623 6.884611,44.484004,2623 6.884618,44.484002,2623 6.884599,44.484012,2622 6.884607,44.483984,2621 6.884589,44.483983,2621 6.884602,44.483932,2620 6.884781,44.484005,2619 6.884825,44.484024,2620 6.884992,44.484095,2619 6.884990,44.484147,2620 6.885069,44.484142,2620 6.885133,44.484128,2622 6.885221,44.484133,2625 6.885243,44.484144,2626 6.885291,44.484149,2627 6.885372,44.484133,2629 6.885407,44.484128,2631 6.885465,44.484112,2632 6.885484,44.484102,2633 6.885508,44.484093,2634 6.885560,44.484100,2635 6.885595,44.484145,2637 6.885608,44.484173,2638 6.885568,44.484238,2641 6.885513,44.484308,2641 6.885488,44.484416,2641 6.885492,44.484461,2642 6.885508,44.484567,2643 6.885477,44.484656,2644 6.885456,44.484696,2645 6.885407,44.484751,2646 6.885354,44.484771,2648 6.885370,44.484804,2649 6.885332,44.484867,2650 6.885269,44.484897,2651 6.885220,44.484878,2652 6.885212,44.484858,2652 6.885251,44.484901,2653 6.885110,44.484950,2653 6.885162,44.484939,2653 6.885083,44.484964,2653 6.884962,44.485052,2653 6.884950,44.485092,2653 6.884925,44.485180,2655 6.884856,44.485210,2656 6.884781,44.485206,2658 6.884757,44.485229,2658 6.884827,44.485225,2657 6.884886,44.485229,2658 6.884924,44.485227,2659 6.884942,44.485230,2661 6.884993,44.485232,2662 6.885048,44.485222,2664 6.885080,44.485204,2665 6.885170,44.485190,2666 6.885352,44.485310,2667 6.885427,44.485361,2667 6.885514,44.485388,2666 6.885476,44.485405,2667 6.885506,44.485404,2668 6.885503,44.485420,2668 6.885395,44.485388,2667 6.885331,44.485243,2667 6.885321,44.485227,2669 6.885330,44.485214,2668 6.885389,44.485202,2670 6.885438,44.485188,2671 6.885515,44.485158,2673 6.885551,44.485146,2675 6.885620,44.485099,2677 6.885657,44.485072,2678 6.885721,44.485066,2680 6.885809,44.485056,2681 6.885841,44.485068,2683 6.885752,44.485087,2681 6.885673,44.485100,2679 6.885598,44.485113,2676 6.885542,44.485143,2675 6.885450,44.485186,2673 6.885365,44.485233,2671 6.885337,44.485261,2670 6.885349,44.485311,2669 6.885333,44.485294,2667 6.885336,44.485305,2668 6.885345,44.485311,2668 6.885352,44.485293,2669 6.885354,44.485266,2669 6.885342,44.485280,2668 6.885330,44.485281,2667 6.885375,44.485284,2668 6.885423,44.485289,2667 6.885434,44.485273,2668 6.885331,44.485288,2668 6.885378,44.485295,2668 6.885323,44.485289,2667 6.885409,44.485291,2667 6.885398,44.485302,2668 6.885389,44.485303,2669 6.885397,44.485290,2667 6.885353,44.485306,2667 6.885354,44.485302,2667 6.885350,44.485272,2667 6.885331,44.485273,2666 6.885320,44.485297,2666 6.885386,44.485283,2665 6.885356,44.485279,2664 6.885351,44.485279,2665 6.885377,44.485294,2664 6.885360,44.485311,2664 6.885346,44.485302,2664 6.885401,44.485283,2664 6.885403,44.485295,2663 6.885440,44.485289,2663 6.885393,44.485286,2663 6.885417,44.485286,2663 6.885346,44.485304,2663 6.885349,44.485312,2663 6.885343,44.485300,2662 6.885326,44.485274,2663 6.885269,44.485297,2663 6.885287,44.485291,2663 6.885287,44.485275,2663 6.885317,44.485260,2663 6.885329,44.485268,2662 6.885317,44.485273,2662 6.885274,44.485306,2662 6.885397,44.485280,2662 6.885316,44.485281,2661 6.885214,44.485287,2661 6.885259,44.485293,2661 6.885286,44.485290,2661 6.885340,44.485275,2661 6.885209,44.485294,2661 6.885308,44.485313,2661 6.885415,44.485304,2661 6.885454,44.485282,2661 6.885502,44.485284,2661 6.885462,44.485299,2661 6.885437,44.485295,2661 6.885398,44.485295,2661 6.885444,44.485283,2662 6.885344,44.485277,2662 6.885360,44.485294,2662 6.885300,44.485267,2662 6.885311,44.485268,2662 6.885458,44.485252,2662 6.885437,44.485239,2662 6.885392,44.485246,2663 6.885397,44.485117,2663 6.885408,44.485146,2663 6.885360,44.485262,2662 6.885368,44.485270,2662 6.885419,44.485306,2662 6.885455,44.485306,2662 6.885322,44.485266,2663 6.885269,44.485291,2663 6.885356,44.485266,2663 6.885384,44.485260,2664 6.885329,44.485288,2664 6.885373,44.485277,2664 6.885439,44.485284,2664 6.885373,44.485277,2664 6.885414,44.485269,2664 6.885452,44.485297,2664 6.885514,44.485316,2665 6.885471,44.485312,2665 6.885414,44.485295,2665 6.885393,44.485283,2665 6.885369,44.485316,2665 6.885347,44.485286,2665 6.885379,44.485262,2666 6.885400,44.485267,2665 6.885420,44.485287,2665 6.885359,44.485247,2665 6.885422,44.485266,2665 6.885448,44.485292,2665 6.885446,44.485278,2665 6.885446,44.485288,2665 6.885421,44.485299,2666 6.885438,44.485293,2666 6.885477,44.485297,2666 6.885416,44.485270,2666 6.885429,44.485261,2666 6.885420,44.485257,2666 6.885404,44.485245,2666 6.885485,44.485302,2666 6.885428,44.485263,2666 6.885372,44.485223,2666 6.885383,44.485250,2666 6.883811,44.487436,2642 6.883843,44.487495,2642 6.883900,44.487549,2641 6.883907,44.487603,2640 6.883926,44.487658,2638 6.883964,44.487783,2638 6.883979,44.487890,2639 6.883913,44.487930,2640 6.883919,44.487967,2641 6.883891,44.488028,2642 6.883924,44.488095,2641 6.883930,44.488133,2640 6.883881,44.488216,2640 6.883866,44.488230,2641 6.883907,44.488253,2643 6.883922,44.488278,2644 6.883839,44.488269,2644 6.883944,44.488296,2644 6.883934,44.488347,2644 6.883996,44.488375,2645 6.884040,44.488377,2646 6.884036,44.488380,2646 6.884101,44.488361,2646 6.884113,44.488335,2646 6.884051,44.488363,2645 6.883994,44.488414,2645 6.884036,44.488441,2646 6.884018,44.488460,2645 6.884036,44.488476,2646 6.884040,44.488471,2646 6.884083,44.488514,2647 6.884052,44.488574,2646 6.884042,44.488574,2647 6.884033,44.488574,2647 6.884045,44.488604,2647 6.884052,44.488599,2647 6.884113,44.488633,2647 6.884123,44.488703,2647 6.884179,44.488690,2648 6.884221,44.488710,2648 6.884159,44.488760,2647 6.884178,44.488785,2647 6.884170,44.488801,2647 6.884160,44.488836,2646 6.884178,44.488873,2645 6.884214,44.488887,2645 6.884211,44.488955,2644 6.884228,44.488999,2644 6.884273,44.489009,2645 6.884268,44.489047,2645 6.884238,44.489119,2646 6.884302,44.489168,2644 6.884311,44.489179,2644 6.884262,44.489210,2645 6.884298,44.489237,2646 6.884274,44.489292,2647 6.884263,44.489313,2648 6.884261,44.489328,2648 6.884272,44.489336,2649 6.884285,44.489357,2650 6.884302,44.489392,2651 6.884316,44.489422,2653 6.884377,44.489452,2654 6.884384,44.489451,2654 6.884391,44.489450,2655 6.884377,44.489493,2656 6.884357,44.489535,2657 6.884378,44.489558,2659 6.884386,44.489566,2660 6.884398,44.489577,2661 6.884413,44.489596,2662 6.884353,44.489623,2664 6.884367,44.489660,2665 6.884385,44.489669,2666 6.884406,44.489677,2667 6.884397,44.489685,2667 6.884386,44.489681,2668 6.884333,44.489702,2669 6.884338,44.489729,2670 6.884353,44.489737,2670 6.884331,44.489742,2670 6.884309,44.489739,2672 6.884326,44.489747,2674 6.884296,44.489767,2674 6.884314,44.489774,2675 6.884261,44.489783,2680 6.884360,44.489763,2680 6.884372,44.489746,2681 6.884334,44.489757,2681 6.884338,44.489776,2681 6.884296,44.489769,2681 6.884309,44.489746,2681 6.884286,44.489752,2682 6.884242,44.489739,2682 6.884210,44.489711,2682 6.884277,44.489723,2682 6.884321,44.489731,2683 6.884308,44.489778,2683 6.884291,44.489802,2683 6.884229,44.489817,2684 6.884114,44.489809,2684 6.884140,44.489805,2684 6.884184,44.489802,2685 6.884224,44.489798,2686 6.884239,44.489798,2687 6.884254,44.489790,2688 6.884224,44.489807,2689 6.884167,44.489820,2690 6.884142,44.489866,2690 6.884135,44.489872,2691 6.884134,44.489881,2692 6.884115,44.489901,2692 6.884151,44.489897,2693 6.884145,44.489901,2693 6.884133,44.489905,2694 6.884144,44.489901,2695 6.884176,44.489935,2697 6.884173,44.489950,2697 6.884150,44.489928,2698 6.884140,44.489928,2699 6.884130,44.489951,2700 6.884124,44.489967,2701 6.884122,44.489965,2702 6.884095,44.489997,2703 6.884113,44.489990,2704 6.884118,44.489973,2705 6.884124,44.490006,2706 6.884086,44.490041,2707 6.884067,44.490058,2707 6.884079,44.490093,2708 6.884098,44.490101,2709 6.884114,44.490108,2710 6.884124,44.490131,2710 6.884137,44.490136,2711 6.884144,44.490165,2712 6.884146,44.490207,2714 6.884155,44.490220,2715 6.884169,44.490221,2716 6.884170,44.490234,2716 6.884201,44.490245,2717 6.884205,44.490248,2717 6.884251,44.490247,2719 6.884394,44.490247,2720 6.884465,44.490260,2721 6.884469,44.490276,2721 6.884494,44.490276,2722 6.884435,44.490266,2723 6.884424,44.490303,2723 6.884413,44.490289,2724 6.884429,44.490302,2725 6.884443,44.490304,2726 6.884491,44.490307,2727 6.884520,44.490332,2729 6.884644,44.490374,2731 6.884675,44.490369,2731 6.884732,44.490376,2732 6.884760,44.490378,2733 6.884768,44.490394,2734 6.884709,44.490375,2735 6.884507,44.490384,2736 6.884492,44.490386,2737 6.884482,44.490395,2738 6.884532,44.490460,2739 6.884578,44.490461,2739 6.884634,44.490469,2741 6.884655,44.490488,2743 6.884623,44.490487,2743 6.884587,44.490483,2743 6.884569,44.490483,2743 6.884572,44.490469,2744 6.884529,44.490461,2745 6.884537,44.490452,2746 6.884703,44.490463,2748 6.884814,44.490489,2749 6.884874,44.490508,2750 6.884930,44.490515,2750 6.884914,44.490549,2751 6.884915,44.490565,2751 6.884841,44.490550,2752 6.884746,44.490547,2752 6.884664,44.490569,2754 6.884628,44.490566,2754 6.884707,44.490577,2755 6.884833,44.490625,2757 6.884809,44.490641,2757 6.884776,44.490614,2758 6.884629,44.490620,2759 6.884534,44.490641,2759 6.884451,44.490651,2760 6.884389,44.490662,2761 6.884321,44.490698,2761 6.884268,44.490735,2762 6.884261,44.490740,2762 6.884250,44.490766,2763 6.884244,44.490786,2764 6.884250,44.490771,2765 6.884253,44.490803,2766 6.884245,44.490819,2766 6.884233,44.490802,2766 6.884261,44.490753,2767 6.884305,44.490740,2768 6.884337,44.490723,2769 6.884351,44.490757,2769 6.884365,44.490778,2769 6.884399,44.490793,2770 6.884426,44.490792,2771 6.884428,44.490817,2772 6.884450,44.490837,2773 6.884443,44.490845,2774 6.884439,44.490840,2775 6.884450,44.490867,2776 6.884469,44.490898,2777 6.884445,44.490896,2777 6.884459,44.490911,2778 6.884461,44.490942,2779 6.884448,44.490923,2780 6.884448,44.490923,2781 6.884479,44.490929,2781 6.884483,44.490947,2782 6.884492,44.490963,2782 6.884444,44.490967,2783 6.884477,44.490990,2784 6.884499,44.490981,2785 6.884505,44.490969,2785 6.884534,44.490966,2786 6.884539,44.490971,2787 6.884580,44.490977,2787 6.884611,44.490995,2789 6.884644,44.491013,2790 6.884649,44.491019,2791 6.884691,44.491040,2792 6.884713,44.491046,2793 6.884717,44.491065,2794 6.884707,44.491079,2795 6.884705,44.491088,2796 6.884703,44.491117,2796 6.884703,44.491143,2798 6.884707,44.491176,2799 6.884733,44.491180,2800 6.884773,44.491189,2801 6.884770,44.491219,2802 6.884762,44.491223,2803 6.884752,44.491224,2804 6.884734,44.491253,2805 6.884742,44.491288,2806 6.884763,44.491285,2806 6.884803,44.491296,2807 6.884819,44.491346,2809 6.884758,44.491351,2809 6.884754,44.491351,2808 6.884739,44.491349,2808 6.884757,44.491358,2807 6.884731,44.491353,2806 6.884753,44.491345,2806 6.884740,44.491357,2805 6.884722,44.491364,2805 6.884730,44.491357,2804 6.884747,44.491351,2804 6.884743,44.491356,2804 6.884745,44.491351,2803 6.884756,44.491360,2802 6.884769,44.491356,2802 6.884749,44.491345,2801 6.884738,44.491360,2800 6.884726,44.491368,2800 6.884739,44.491354,2799 6.884759,44.491341,2798 6.884761,44.491334,2798 6.884751,44.491327,2797 6.884784,44.491342,2797 6.884830,44.491335,2797 6.884795,44.491315,2797 6.884783,44.491338,2796 6.884796,44.491351,2796 6.884805,44.491303,2795 6.884811,44.491304,2795 6.884797,44.491297,2794 6.884800,44.491344,2793 6.884766,44.491325,2793 6.884805,44.491297,2793 6.884752,44.491337,2794 6.884756,44.491348,2793 6.884762,44.491353,2793 6.884756,44.491354,2793 6.884739,44.491346,2793 6.884745,44.491335,2793 6.884758,44.491334,2794 6.884752,44.491344,2794 6.884795,44.491378,2794 6.884797,44.491377,2794 6.884793,44.491371,2794 6.884836,44.491341,2794 6.884773,44.491362,2793 6.884767,44.491364,2793 6.884780,44.491351,2794 6.884725,44.491357,2793 6.884751,44.491353,2793 6.884728,44.491342,2792 6.884744,44.491345,2792 6.884749,44.491361,2793 6.884797,44.491339,2793 6.884733,44.491356,2793 6.884779,44.491330,2794 6.884789,44.491368,2793 6.884769,44.491357,2794 6.884773,44.491369,2793 6.884756,44.491415,2792 6.884762,44.491428,2791 6.884754,44.491482,2789 6.884764,44.491534,2787 6.884768,44.491565,2786 6.884783,44.491597,2784 6.884794,44.491639,2783 6.884802,44.491663,2782 6.884816,44.491734,2781 6.884837,44.491784,2779 6.884849,44.491842,2778 6.884860,44.491906,2776 6.884863,44.491964,2776 6.884874,44.492016,2774 6.884881,44.492046,2773 6.884920,44.492137,2770 6.884860,44.492163,2770 6.884906,44.492170,2769 6.884880,44.492207,2767 6.884873,44.492219,2766 6.884860,44.492241,2764 6.884839,44.492283,2763 6.884794,44.492304,2761 6.884806,44.492329,2759 6.884818,44.492370,2759 6.884811,44.492391,2758 6.884810,44.492421,2757 6.884823,44.492438,2756 6.884828,44.492471,2754 6.884828,44.492469,2754 6.884771,44.492483,2753 6.884708,44.492492,2751 6.884628,44.492506,2750 6.884564,44.492526,2749 6.884547,44.492566,2748 6.884542,44.492582,2747 6.884542,44.492631,2746 6.884541,44.492664,2744 6.884504,44.492687,2744 6.884460,44.492699,2742 6.884465,44.492717,2741 6.884499,44.492768,2740 6.884417,44.492819,2739 6.884379,44.492851,2737 6.884404,44.492894,2735 6.884427,44.492918,2734 6.884471,44.492944,2732 6.884473,44.492972,2731 6.884428,44.493009,2730 6.884431,44.493056,2727 6.884407,44.493083,2726 6.884383,44.493120,2725 6.884382,44.493209,2723 6.884379,44.493248,2722 6.884355,44.493302,2720 6.884349,44.493390,2719 6.884319,44.493450,2718 6.884331,44.493556,2718 6.884392,44.493514,2719 6.884310,44.493550,2719 6.884350,44.493619,2718 6.884319,44.493644,2717 6.884289,44.493671,2715 6.884280,44.493672,2714 6.884250,44.493669,2715 6.884295,44.493684,2715 6.884190,44.493665,2714 6.884222,44.493747,2712 6.884225,44.493781,2712 6.884191,44.493775,2711 6.884158,44.493781,2710 6.883990,44.493802,2707 6.883974,44.493830,2705 6.883989,44.493904,2703 6.883991,44.493955,2701 6.883941,44.493972,2700 6.883873,44.494004,2698 6.883828,44.494029,2697 6.883825,44.494036,2696 6.883840,44.494053,2694 6.883870,44.494084,2693 6.883934,44.494151,2692 6.883900,44.494175,2691 6.883894,44.494197,2691 6.883906,44.494252,2689 6.883933,44.494424,2689 6.883939,44.494468,2687 6.883930,44.494492,2686 6.883902,44.494537,2684 6.883903,44.494609,2682 6.883830,44.494612,2681 6.883737,44.494605,2679 6.883701,44.494659,2678 6.883664,44.494676,2677 6.883593,44.494693,2676 6.883452,44.494669,2674 6.883404,44.494652,2673 6.883307,44.494664,2671 6.883159,44.494711,2669 6.883098,44.494729,2668 6.883026,44.494776,2666 6.882922,44.494808,2665 6.882887,44.494815,2664 6.882832,44.494841,2662 6.882861,44.494852,2661 6.882947,44.494924,2659 6.882937,44.494992,2658 6.882858,44.495054,2657 6.882835,44.495099,2656 6.882757,44.495142,2653 6.882732,44.495160,2653 6.882685,44.495234,2651 6.882630,44.495294,2650 6.882567,44.495321,2649 6.882477,44.495368,2648 6.882437,44.495381,2647 6.882436,44.495409,2647 6.882399,44.495485,2645 6.882334,44.495520,2644 6.882285,44.495589,2642 6.882219,44.495625,2641 6.882065,44.495658,2641 6.882076,44.495660,2641 6.882056,44.495666,2641 6.882077,44.495670,2641 6.882086,44.495655,2641 6.881984,44.495718,2641 6.881870,44.495816,2640 6.881783,44.495899,2639 6.881607,44.496012,2639 6.881523,44.496082,2641 6.881312,44.496195,2640 6.881160,44.496275,2639 6.880960,44.496303,2639 6.880735,44.496291,2639 6.880673,44.496284,2640 6.880490,44.496329,2638 6.880416,44.496333,2637 6.880295,44.496347,2636 6.880128,44.496379,2635 6.880037,44.496413,2634 6.879971,44.496482,2633 6.879942,44.496538,2631 6.879911,44.496601,2630 6.879895,44.496677,2629 6.879860,44.496824,2631 6.879864,44.496918,2632 6.879819,44.496995,2633 6.879763,44.497066,2634 6.879719,44.497186,2634 6.879655,44.497306,2634 6.879587,44.497422,2634 6.879571,44.497517,2635 6.879554,44.497582,2637 6.879553,44.497663,2638 6.879585,44.497734,2638 6.879558,44.497926,2637 6.879560,44.498023,2638 6.879564,44.498225,2639 6.879585,44.498221,2640 6.879602,44.498230,2640 6.879595,44.498251,2640 6.879556,44.498301,2641 6.879574,44.498378,2641 6.879565,44.498372,2641 6.879565,44.498382,2642 6.879578,44.498375,2641 6.879533,44.498380,2641 6.879544,44.498358,2640 6.879572,44.498343,2641 6.879567,44.498361,2641 6.879614,44.498413,2641 6.879590,44.498401,2641 6.879597,44.498401,2642 6.879565,44.498356,2642 6.879619,44.498383,2641 6.879622,44.498344,2641 6.879560,44.498388,2641 6.879572,44.498392,2641 6.879574,44.498390,2640 6.879567,44.498375,2640 6.879569,44.498394,2640 6.879579,44.498376,2639 6.879570,44.498394,2639 6.879597,44.498406,2639 6.879555,44.498402,2639 6.879576,44.498423,2639 6.879580,44.498375,2639 6.879548,44.498392,2639 6.879590,44.498376,2639 6.879520,44.498454,2638 6.879537,44.498439,2638 6.879542,44.498374,2638 6.879562,44.498399,2638 6.879533,44.498418,2638 6.879464,44.498486,2637 6.879523,44.498489,2637 6.879594,44.498446,2637 6.879575,44.498398,2637 6.879558,44.498394,2637 6.879569,44.498414,2637 6.879597,44.498396,2636 6.879565,44.498417,2637 6.879579,44.498399,2636 6.879574,44.498408,2636 6.879542,44.498394,2637 6.879583,44.498368,2637 6.879585,44.498374,2637 6.879584,44.498375,2637 6.879577,44.498396,2637 6.879588,44.498404,2637 6.879575,44.498406,2637 6.879538,44.498434,2637 6.879528,44.498415,2637 6.879537,44.498394,2638 6.879554,44.498344,2638 6.879553,44.498346,2638 6.879544,44.498403,2638 6.879578,44.498365,2639 6.879554,44.498410,2639 6.879540,44.498410,2640 6.879545,44.498373,2639 6.879587,44.498345,2639 6.879576,44.498349,2639 6.879553,44.498364,2640 6.879533,44.498431,2639 6.879509,44.498479,2639 6.879563,44.498406,2639 6.879564,44.498389,2639 6.879577,44.498390,2639 6.879553,44.498367,2639 6.879559,44.498402,2639 6.879551,44.498404,2639 6.879546,44.498401,2639 6.879575,44.498394,2639 6.879567,44.498386,2640 6.879571,44.498399,2640 6.879579,44.498411,2640 6.879582,44.498391,2640 6.879587,44.498373,2642 6.879579,44.498359,2641 6.879596,44.498371,2641 6.879577,44.498389,2640 6.879584,44.498383,2640 6.879610,44.498398,2639 6.879569,44.498404,2640 6.879587,44.498410,2640 6.879614,44.498403,2640 6.879599,44.498382,2641 6.879616,44.498380,2641 6.879613,44.498388,2641 6.879539,44.498398,2641 6.879568,44.498390,2641 6.879561,44.498395,2641 6.879574,44.498399,2641 6.879583,44.498407,2641 6.879576,44.498395,2641 6.879577,44.498400,2640 6.879571,44.498398,2641 6.879554,44.498411,2640 6.879558,44.498382,2640 6.879559,44.498386,2640 6.879581,44.498394,2640 6.879565,44.498378,2640 6.879591,44.498384,2640 6.879596,44.498376,2640 6.879604,44.498398,2641 6.879588,44.498395,2641 6.879617,44.498384,2641 6.879609,44.498369,2642 6.879573,44.498381,2641 6.879507,44.498410,2642 6.879366,44.498403,2643 6.879291,44.498404,2644 6.879219,44.498443,2644 6.879044,44.498501,2645 6.878867,44.498549,2646 6.878752,44.498578,2648 6.878650,44.498607,2649 6.878605,44.498649,2650 6.878559,44.498688,2651 6.878524,44.498723,2652 6.878498,44.498739,2653 6.878447,44.498751,2655 6.878347,44.498768,2656 6.878259,44.498763,2657 6.878211,44.498758,2658 6.878188,44.498768,2659 6.878064,44.498773,2661 6.878039,44.498772,2662 6.877989,44.498775,2663 6.877944,44.498806,2665 6.877876,44.498858,2666 6.877752,44.498902,2668 6.877660,44.498912,2669 6.877594,44.498935,2671 6.877554,44.498972,2672 6.877519,44.498997,2673 6.877466,44.499005,2674 6.877230,44.498966,2675 6.877158,44.498923,2676 6.877069,44.498867,2676 6.876854,44.498867,2676 6.876665,44.498867,2675 6.876445,44.498768,2675 6.876200,44.498677,2675 6.876032,44.498633,2674 6.875807,44.498545,2675 6.875677,44.498511,2675 6.875484,44.498373,2676 6.875371,44.498320,2677 6.875205,44.498284,2676 6.875024,44.498216,2677 6.874909,44.498207,2678 6.874797,44.498178,2679 6.874720,44.498124,2680 6.874601,44.498058,2680 6.874512,44.498022,2681 6.874459,44.498007,2682 6.874378,44.498010,2683 6.874323,44.497988,2685 6.874273,44.497956,2685 6.874195,44.497907,2685 6.874144,44.497818,2686 6.874142,44.497869,2686 6.874213,44.497892,2686 6.874320,44.497901,2684 6.874447,44.497885,2682 6.874473,44.497916,2681 6.874503,44.497936,2680 6.874594,44.498041,2679 6.874648,44.498141,2680 6.874645,44.498187,2681 6.874652,44.498219,2682 6.874682,44.498250,2683 6.874642,44.498258,2685 6.874595,44.498264,2686 6.874564,44.498258,2686 6.874527,44.498267,2687 6.874461,44.498309,2689 6.874416,44.498336,2690 6.874391,44.498347,2690 6.874337,44.498390,2691 6.874300,44.498421,2693 6.874298,44.498427,2693 6.874288,44.498433,2694 6.874252,44.498450,2695 6.874216,44.498525,2697 6.874194,44.498557,2698 6.874186,44.498587,2699 6.874145,44.498632,2701 6.874083,44.498699,2702 6.874013,44.498723,2703 6.873992,44.498731,2703 6.873940,44.498858,2704 6.873959,44.498957,2703 6.873950,44.499054,2701 6.873942,44.499099,2700 6.873949,44.499132,2699 6.873974,44.499201,2697 6.873967,44.499288,2695 6.873945,44.499330,2694 6.873918,44.499384,2692 6.873890,44.499424,2690 6.873793,44.499534,2689 6.873701,44.499648,2688 6.873680,44.499750,2688 6.873642,44.499858,2687 6.873593,44.499971,2685 6.873597,44.500026,2683 6.873591,44.500119,2681 6.873569,44.500175,2680 6.873533,44.500305,2678 6.873529,44.500355,2677 6.873529,44.500412,2675 6.873524,44.500434,2675 6.873452,44.500522,2673 6.873422,44.500556,2673 6.873416,44.500605,2671 6.873384,44.500653,2669 6.873389,44.500682,2668 6.873393,44.500786,2666 6.873370,44.500830,2664 6.873350,44.500869,2663 6.873293,44.500984,2661 6.873269,44.501073,2659 6.873218,44.501135,2657 6.873197,44.501208,2656 6.873194,44.501332,2655 6.873243,44.501433,2654 6.873293,44.501503,2653 6.873342,44.501604,2651 6.873376,44.501785,2651 6.873424,44.501864,2650 6.873424,44.501929,2649 6.873436,44.502015,2648 6.873432,44.502124,2647 6.873440,44.502209,2646 6.873447,44.502324,2646 6.873404,44.502507,2646 6.873405,44.502670,2646 6.873401,44.502773,2647 6.873408,44.502782,2646 6.873422,44.502779,2646 6.873362,44.502890,2647 6.873304,44.502967,2648 6.873266,44.503037,2649 6.873239,44.503084,2650 6.873207,44.503142,2651 6.873166,44.503225,2651 6.873071,44.503352,2650 6.872995,44.503376,2650 6.872880,44.503449,2651 6.872847,44.503503,2651 6.872864,44.503564,2652 6.872830,44.503613,2653 6.872814,44.503660,2654 6.872789,44.503696,2655 6.872763,44.503767,2657 6.872676,44.503900,2657 6.872635,44.503948,2658 6.872571,44.504006,2659 6.872567,44.504049,2660 6.872451,44.504115,2660 6.872289,44.504218,2660 6.872215,44.504285,2660 6.872219,44.504351,2660 6.872250,44.504518,2660 6.872249,44.504555,2661 6.872249,44.504603,2661 6.872232,44.504792,2661 6.872255,44.504960,2661 6.872245,44.505019,2661 6.872259,44.505134,2661 6.872234,44.505243,2659 6.872133,44.505279,2660 6.872104,44.505314,2661 6.872039,44.505342,2662 6.871990,44.505378,2663 6.871944,44.505440,2665 6.871932,44.505502,2666 6.871871,44.505550,2666 6.871869,44.505623,2664 6.871871,44.505684,2664 6.871866,44.505701,2665 6.871851,44.505720,2665 6.871828,44.505751,2666 6.871810,44.505773,2666 6.871789,44.505822,2668 6.871726,44.505858,2669 6.871711,44.505882,2670 6.871668,44.505911,2672 6.871636,44.505922,2673 6.871613,44.505926,2674 6.871528,44.505954,2675 6.871452,44.505996,2676 6.871315,44.506043,2676 6.871295,44.506068,2676 6.871231,44.506216,2677 6.871168,44.506260,2678 6.871131,44.506284,2678 6.871127,44.506323,2679 6.871118,44.506361,2681 6.871107,44.506394,2682 6.871073,44.506430,2683 6.871044,44.506478,2684 6.871010,44.506511,2685 6.870996,44.506541,2686 6.870944,44.506587,2687 6.870862,44.506617,2688 6.870673,44.506706,2688 6.870596,44.506752,2689 6.870549,44.506778,2690 6.870451,44.506789,2691 6.870371,44.506793,2692 6.870296,44.506835,2693 6.870209,44.506876,2694 6.870165,44.506876,2695 6.870108,44.506893,2696 6.870076,44.506912,2697 6.870071,44.506923,2697 6.869858,44.506953,2696 6.869693,44.506970,2695 6.869558,44.506985,2694 6.869448,44.507036,2693 6.869281,44.507062,2694 6.869247,44.507065,2695 6.869039,44.507136,2695 6.869007,44.507132,2697 6.868942,44.507177,2697 6.868866,44.507210,2698 6.868628,44.507253,2698 6.868444,44.507311,2698 6.868384,44.507301,2697 6.868274,44.507320,2696 6.868246,44.507332,2696 6.868078,44.507421,2695 6.867963,44.507457,2696 6.867939,44.507476,2697 6.867875,44.507519,2697 6.867633,44.507537,2696 6.867491,44.507567,2696 6.867346,44.507626,2696 6.867359,44.507610,2695 6.867214,44.507569,2695 6.867154,44.507552,2696 6.867192,44.507619,2695 6.867168,44.507572,2695 6.867236,44.507603,2695 6.867201,44.507590,2695 6.867162,44.507587,2696 6.867131,44.507559,2695 6.867140,44.507566,2695 6.867176,44.507599,2695 6.867023,44.507527,2695 6.866936,44.507521,2694 6.866715,44.507542,2695 6.866632,44.507525,2695 6.866509,44.507500,2697 6.866420,44.507476,2698 6.866341,44.507442,2698 6.866258,44.507443,2699 6.866189,44.507441,2699 6.866123,44.507472,2700 6.866108,44.507509,2701 6.866086,44.507564,2702 6.866066,44.507642,2702 6.866014,44.507711,2703 6.865991,44.507757,2704 6.865981,44.507773,2705 6.865975,44.507783,2705 6.865923,44.507860,2704 6.865775,44.507946,2704 6.865591,44.508019,2704 6.865541,44.508101,2705 6.865519,44.508258,2704 6.865531,44.508343,2704 6.865569,44.508350,2703 6.865569,44.508360,2703 6.865609,44.508448,2702 6.865660,44.508516,2702 6.865621,44.508559,2701 6.865542,44.508586,2700 6.865533,44.508604,2698 6.865508,44.508625,2697 6.865463,44.508649,2695 6.865446,44.508660,2693 6.865345,44.508699,2694 6.865336,44.508783,2693 6.865324,44.508875,2692 6.865354,44.508926,2690 6.865393,44.508976,2689 6.865401,44.509052,2688 6.865379,44.509187,2688 6.865342,44.509333,2687 6.865294,44.509386,2687 6.865262,44.509411,2686 6.865108,44.509451,2685 6.865009,44.509486,2686 6.864945,44.509497,2687 6.864910,44.509482,2688 6.864826,44.509465,2690 6.864799,44.509502,2689 6.864784,44.509536,2689 6.864737,44.509556,2689 6.864723,44.509599,2690 6.864686,44.509633,2691 6.864638,44.509672,2692 6.864627,44.509664,2693 6.864596,44.509628,2694 6.864566,44.509660,2695 6.864532,44.509697,2696 6.864509,44.509718,2697 6.864465,44.509754,2698 6.864446,44.509834,2698 6.864417,44.509863,2698 6.864364,44.509909,2698 6.864350,44.509937,2699 6.864343,44.509979,2699 6.864338,44.510041,2700 6.864292,44.510091,2701 6.864294,44.510230,2701 6.864260,44.510265,2703 6.864245,44.510306,2704 6.864222,44.510391,2704 6.864225,44.510445,2705 6.864272,44.510493,2706 6.864289,44.510661,2707 6.864270,44.510737,2707 6.864265,44.510747,2708 6.864305,44.510762,2707 6.864316,44.510836,2708 6.864358,44.510874,2707 6.864377,44.510951,2706 6.864413,44.511062,2705 6.864423,44.511134,2704 6.864439,44.511202,2704 6.864442,44.511224,2703 6.864511,44.511273,2702 6.864513,44.511285,2701 6.864527,44.511301,2700 6.864598,44.511356,2699 6.864661,44.511398,2698 6.864704,44.511518,2698 6.864743,44.511536,2698 6.864724,44.511536,2697 6.864711,44.511613,2696 6.864722,44.511689,2695 6.864727,44.511748,2694 6.864679,44.511758,2693 6.864624,44.511785,2693 6.864620,44.511790,2692 6.864617,44.511796,2693 6.864619,44.511832,2693 6.864627,44.511825,2693 6.864645,44.511802,2693 6.864691,44.511805,2692 6.864735,44.511822,2691 6.864730,44.511873,2689 6.864704,44.511912,2688 6.864704,44.511927,2687 6.864738,44.511936,2686 6.864783,44.511959,2684 6.864783,44.511969,2683 6.864812,44.512036,2682 6.864837,44.512042,2680 6.864913,44.512090,2678 6.864926,44.512119,2678 6.864925,44.512140,2676 6.864932,44.512150,2675 6.864943,44.512141,2674 6.864953,44.512204,2673 6.864962,44.512244,2673 6.864982,44.512245,2671 6.865023,44.512285,2669 6.865017,44.512329,2668 6.865044,44.512339,2667 6.865032,44.512388,2666 6.865031,44.512430,2664 6.865066,44.512494,2662 6.865062,44.512504,2661 6.865078,44.512539,2660 6.865071,44.512612,2660 6.865096,44.512648,2658 6.865092,44.512653,2657 6.865089,44.512661,2657 6.865051,44.512679,2655 6.865024,44.512708,2654 6.865023,44.512751,2653 6.865040,44.512780,2652 6.865072,44.512824,2651 6.865048,44.512867,2650 6.865072,44.512910,2648 6.865113,44.512909,2647 6.865118,44.512942,2646 6.865129,44.512987,2645 6.865118,44.512973,2644 6.865099,44.513021,2643 6.865051,44.513085,2642 6.865033,44.513169,2642 6.865053,44.513233,2642 6.865092,44.513312,2641 6.865133,44.513444,2640 6.865126,44.513480,2640 6.865141,44.513547,2638 6.865140,44.513632,2637 6.865187,44.513674,2636 6.865171,44.513751,2634 6.865164,44.513800,2633 6.865157,44.513813,2632 6.865154,44.513862,2631 6.865181,44.513962,2628 6.865188,44.514013,2627 6.865228,44.514069,2625 6.865258,44.514104,2623 6.865233,44.514165,2621 6.865239,44.514208,2620 6.865261,44.514284,2619 6.865261,44.514321,2618 6.865271,44.514359,2617 6.865292,44.514402,2616 6.865300,44.514426,2615 6.865290,44.514498,2613 6.865258,44.514557,2612 6.865269,44.514558,2612 6.865281,44.514622,2612 6.865284,44.514640,2611 6.865258,44.514663,2610 6.865177,44.514708,2608 6.865216,44.514777,2607 6.865190,44.514813,2609 6.865213,44.514826,2610 6.865246,44.514936,2610 6.865251,44.515003,2608 6.865230,44.515064,2607 6.865144,44.515123,2608 6.865056,44.515164,2608 6.865100,44.515211,2605 6.865151,44.515235,2604 6.865179,44.515242,2603 6.865257,44.515245,2601 6.865291,44.515228,2600 6.865332,44.515270,2599 6.865394,44.515303,2599 6.865424,44.515314,2599 6.865556,44.515321,2599 6.865671,44.515347,2598 6.865805,44.515355,2598 6.865857,44.515356,2596 6.865924,44.515367,2594 6.865973,44.515376,2593 6.865969,44.515384,2592 6.865988,44.515418,2591 6.865997,44.515456,2589 6.865974,44.515492,2587 6.865947,44.515541,2585 6.865930,44.515551,2584 6.865917,44.515575,2582 6.865889,44.515608,2581 6.865848,44.515624,2580 6.865811,44.515667,2577 6.865824,44.515706,2575 6.865785,44.515718,2573 6.865741,44.515749,2572 6.865717,44.515784,2571 6.865715,44.515808,2569 6.865736,44.515867,2568 6.865776,44.516005,2567 6.865817,44.516042,2567 6.865858,44.516130,2565 6.865930,44.516206,2564 6.865943,44.516221,2564 6.866176,44.516310,2563 6.866224,44.516464,2564 6.866224,44.516480,2565 6.866277,44.516582,2566 6.866324,44.516597,2566 6.866387,44.516672,2568 6.866376,44.516713,2569 6.866371,44.516737,2569 6.866397,44.516762,2570 6.866424,44.516766,2571 6.866468,44.516760,2571 6.866494,44.516794,2573 6.866576,44.516876,2574 6.866591,44.516888,2574 6.866637,44.516990,2573 6.866642,44.517000,2573 6.866665,44.517075,2574 6.866677,44.517147,2576 6.866676,44.517218,2577 6.866618,44.517303,2577 6.866604,44.517382,2578 6.866630,44.517442,2580 6.866614,44.517499,2580 6.866562,44.517604,2580 6.866511,44.517716,2581 6.866468,44.517743,2581 6.866437,44.517760,2582 6.866377,44.517753,2583 6.866309,44.517790,2585 6.866285,44.517856,2586 6.866223,44.517943,2586 6.866159,44.518010,2585 6.866021,44.518083,2586 6.865993,44.518127,2587 6.865976,44.518156,2588 6.865875,44.518195,2590 6.865870,44.518240,2591 6.865890,44.518326,2592 6.865855,44.518317,2593 6.865865,44.518350,2595 6.865804,44.518415,2596 6.865742,44.518475,2597 6.865759,44.518555,2598 6.865744,44.518642,2599 6.865747,44.518670,2599 6.865750,44.518748,2599 6.865720,44.518806,2600 6.865691,44.518824,2600 6.865682,44.518827,2601 6.865678,44.518859,2602 6.865705,44.518911,2603 6.865658,44.518959,2604 6.865584,44.519027,2604 6.865520,44.519058,2605 6.865410,44.519086,2607 6.865352,44.519144,2609 6.865344,44.519172,2610 6.865350,44.519185,2611 6.865367,44.519211,2612 6.865345,44.519268,2614 6.865327,44.519303,2615 6.865317,44.519333,2616 6.865327,44.519345,2617 6.865337,44.519373,2618 6.865338,44.519405,2619 6.865357,44.519413,2620 6.865358,44.519445,2621 6.865332,44.519472,2623 6.865319,44.519483,2623 6.865296,44.519506,2624 6.865293,44.519518,2625 6.865238,44.519590,2627 6.865201,44.519637,2628 6.865183,44.519664,2630 6.865128,44.519697,2631 6.865081,44.519732,2632 6.865064,44.519751,2633 6.865020,44.519782,2634 6.865022,44.519812,2635 6.865016,44.519849,2636 6.864954,44.519898,2637 6.864922,44.519916,2639 6.864896,44.519952,2640 6.864903,44.519983,2641 6.864879,44.519992,2642 6.864853,44.520011,2643 6.864863,44.520009,2644 6.864848,44.520095,2646 6.864766,44.520154,2647 6.864684,44.520185,2648 6.864636,44.520237,2650 6.864645,44.520266,2651 6.864607,44.520362,2652 6.864574,44.520418,2653 6.864530,44.520478,2654 6.864509,44.520562,2655 6.864477,44.520649,2655 6.864414,44.520701,2656 6.864359,44.520753,2657 6.864349,44.520800,2658 6.864372,44.520884,2659 6.864397,44.520971,2660 6.864366,44.521064,2661 6.864324,44.521120,2662 6.864294,44.521199,2664 6.864348,44.521287,2665 6.864417,44.521367,2666 6.864421,44.521438,2668 6.864388,44.521483,2669 6.864375,44.521522,2670 6.864369,44.521602,2671 6.864349,44.521635,2672 6.864362,44.521652,2673 6.864375,44.521722,2674 6.864345,44.521796,2675 6.864326,44.521834,2677 6.864317,44.521880,2678 6.864280,44.521941,2679 6.864259,44.521977,2680 6.864266,44.522071,2681 6.864222,44.522103,2682 6.864197,44.522210,2683 6.864320,44.522223,2684 6.864365,44.522240,2686 6.864326,44.522312,2687 6.864307,44.522354,2689 6.864330,44.522374,2690 6.864414,44.522438,2692 6.864419,44.522457,2692 6.864427,44.522532,2693 6.864426,44.522572,2694 6.864451,44.522652,2695 6.864501,44.522701,2696 6.864534,44.522709,2697 6.864531,44.522713,2697 6.864567,44.522743,2699 6.864575,44.522816,2700 6.864586,44.522892,2701 6.864585,44.522943,2703 6.864576,44.522971,2704 6.864607,44.523000,2705 6.864588,44.523110,2706 6.864612,44.523169,2708 6.864615,44.523237,2709 6.864591,44.523267,2710 6.864585,44.523292,2711 6.864616,44.523313,2713 6.864642,44.523333,2714 6.864620,44.523394,2716 6.864659,44.523436,2717 6.864693,44.523450,2719 6.864702,44.523481,2720 6.864714,44.523518,2721 6.864714,44.523576,2722 6.864720,44.523634,2723 6.864746,44.523642,2724 6.864754,44.523677,2726 6.864766,44.523731,2727 6.864753,44.523815,2728 6.864799,44.523876,2729 6.864797,44.523931,2730 6.864788,44.523995,2730 6.864793,44.524073,2731 6.864785,44.524174,2732 6.864776,44.524196,2733 6.864786,44.524207,2733 6.864799,44.524238,2734 6.864781,44.524315,2735 6.864717,44.524382,2737 6.864699,44.524393,2738 6.864689,44.524421,2739 6.864692,44.524523,2740 6.864659,44.524555,2741 6.864628,44.524626,2744 6.864639,44.524663,2745 6.864592,44.524733,2747 6.864571,44.524756,2747 6.864569,44.524776,2748 6.864574,44.524809,2749 6.864594,44.524857,2749 6.864618,44.524904,2751 6.864601,44.524939,2752 6.864594,44.524954,2753 6.864578,44.524998,2755 6.864626,44.525032,2756 6.864636,44.525087,2758 6.864657,44.525110,2759 6.864668,44.525158,2761 6.864700,44.525193,2763 6.864693,44.525244,2764 6.864654,44.525270,2765 6.864624,44.525298,2766 6.864624,44.525327,2767 6.864605,44.525446,2769 6.864552,44.525509,2771 6.864525,44.525539,2772 6.864487,44.525578,2773 6.864453,44.525655,2773 6.864492,44.525870,2773 6.864452,44.525981,2773 6.864419,44.526088,2774 6.864392,44.526116,2775 6.864401,44.526249,2775 6.864375,44.526324,2776 6.864347,44.526501,2776 6.864298,44.526568,2777 6.864258,44.526626,2779 6.864237,44.526707,2780 6.864220,44.526850,2780 6.864171,44.527028,2781 6.864157,44.527128,2782 6.864129,44.527283,2782 6.864154,44.527414,2784 6.864191,44.527467,2785 6.864205,44.527496,2787 6.864232,44.527532,2788 6.864224,44.527560,2789 6.864198,44.527581,2790 6.864187,44.527615,2791 6.864211,44.527646,2792 6.864258,44.527687,2794 6.864270,44.527706,2794 6.864301,44.527782,2796 6.864301,44.527863,2798 6.864308,44.527946,2799 6.864295,44.527973,2800 6.864236,44.528010,2801 6.864206,44.528049,2803 6.864194,44.528120,2804 6.864195,44.528154,2806 6.864199,44.528180,2807 6.864220,44.528215,2808 6.864261,44.528274,2809 6.864423,44.528372,2811 6.864604,44.528509,2813 6.864640,44.528556,2814 6.864736,44.528583,2815 6.864764,44.528610,2817 6.864758,44.528630,2818 6.864781,44.528645,2819 6.864850,44.528627,2820 6.864902,44.528621,2821 6.864932,44.528604,2823 6.864975,44.528677,2824 6.865037,44.528703,2825 6.865153,44.528695,2825 6.865248,44.528744,2826 6.865281,44.528824,2827 6.865366,44.528880,2827 6.865484,44.528916,2829 6.865604,44.528991,2830 6.865633,44.529067,2830 6.865794,44.529162,2829 6.865803,44.529172,2828 6.865829,44.529183,2829 6.864761,44.529476,2822</coordinates></LineString></Placemark></Document></kml>