<?xml version="1.0" encoding="UTF-8"?>
<kml xmlns="http://www.opengis.net/kml/2.2"><Document><name>Alta Linea Continua – Stage 19: Grange dell'Autaret to Bivacco Boerio</name><Style id="l"><LineStyle><color>ff2b30c4</color><width>4</width></LineStyle></Style><Placemark><name>Alta Linea Continua – Stage 19: Grange dell'Autaret to Bivacco Boerio</name><styleUrl>#l</styleUrl><LineString><tessellate>1</tessellate><altitudeMode>clampToGround</altitudeMode><coordinates>6.929246,44.554618,2610 6.929237,44.554645,2610 6.929170,44.554683,2611 6.929062,44.554735,2612 6.929031,44.554744,2613 6.929058,44.554767,2614 6.929125,44.554828,2615 6.929164,44.554888,2614 6.929132,44.554948,2613 6.929004,44.554983,2614 6.928974,44.554992,2615 6.928933,44.555007,2616 6.928939,44.555045,2617 6.928962,44.555192,2617 6.929023,44.555370,2616 6.929087,44.555452,2617 6.929157,44.555559,2617 6.929293,44.555700,2616 6.929330,44.555887,2616 6.929331,44.556004,2616 6.929387,44.556151,2616 6.929453,44.556212,2616 6.929472,44.556217,2616 6.929456,44.556271,2616 6.929385,44.556237,2617 6.929347,44.556249,2618 6.929300,44.556241,2620 6.929253,44.556230,2620 6.929208,44.556210,2621 6.929178,44.556203,2621 6.929170,44.556193,2622 6.929109,44.556169,2623 6.929084,44.556165,2624 6.929045,44.556120,2626 6.929011,44.556111,2627 6.928992,44.556104,2627 6.928972,44.556112,2628 6.928947,44.556085,2629 6.928925,44.556065,2630 6.928890,44.556047,2631 6.928859,44.556011,2632 6.928883,44.555996,2632 6.928865,44.555990,2632 6.928833,44.555985,2633 6.928807,44.555991,2634 6.928815,44.555984,2636 6.928762,44.555941,2637 6.928750,44.555921,2638 6.928737,44.555902,2639 6.928705,44.555892,2640 6.928674,44.555875,2641 6.928658,44.555876,2642 6.928625,44.555867,2643 6.928595,44.555860,2644 6.928582,44.555877,2645 6.928553,44.555884,2646 6.928544,44.555876,2647 6.928514,44.555872,2648 6.928480,44.555864,2648 6.928490,44.555876,2649 6.928476,44.555872,2650 6.928445,44.555831,2652 6.928420,44.555833,2653 6.928373,44.555825,2653 6.928359,44.555824,2654 6.928326,44.555841,2655 6.928298,44.555867,2655 6.928206,44.555875,2656 6.928123,44.555895,2656 6.927966,44.556028,2655 6.927904,44.556091,2656 6.927823,44.556204,2656 6.927741,44.556280,2656 6.927691,44.556368,2655 6.927586,44.556546,2655 6.927521,44.556749,2656 6.927432,44.557024,2656 6.927368,44.557227,2657 6.927340,44.557340,2658 6.927333,44.557430,2658 6.927364,44.557564,2658 6.927470,44.557681,2657 6.927571,44.557881,2658 6.927616,44.557963,2659 6.927673,44.558062,2658 6.927766,44.558116,2658 6.927953,44.558154,2658 6.928042,44.558209,2657 6.928070,44.558217,2656 6.928119,44.558274,2656 6.928122,44.558338,2655 6.928099,44.558418,2654 6.928098,44.558502,2653 6.928086,44.558623,2652 6.928081,44.558708,2651 6.928139,44.558812,2650 6.928189,44.558920,2649 6.928176,44.559079,2649 6.928171,44.559240,2648 6.928179,44.559346,2648 6.928176,44.559418,2647 6.928152,44.559592,2647 6.928164,44.559617,2648 6.928192,44.559627,2648 6.928244,44.559732,2649 6.928254,44.559780,2649 6.928304,44.559806,2650 6.928402,44.559820,2650 6.928501,44.559819,2651 6.928663,44.559845,2652 6.928690,44.559846,2653 6.928799,44.559854,2654 6.928889,44.559876,2655 6.928981,44.559898,2656 6.929059,44.559869,2658 6.929084,44.559855,2658 6.929210,44.559838,2659 6.929319,44.559842,2660 6.929498,44.559851,2661 6.929598,44.559848,2662 6.929669,44.559869,2663 6.929763,44.559904,2664 6.929894,44.559926,2665 6.929927,44.559947,2666 6.930003,44.559989,2667 6.930105,44.560036,2668 6.930191,44.560071,2670 6.930223,44.560048,2670 6.930309,44.560084,2671 6.930392,44.560102,2672 6.930456,44.560119,2673 6.930548,44.560128,2674 6.930638,44.560136,2675 6.930708,44.560148,2676 6.930782,44.560171,2677 6.930812,44.560179,2678 6.930820,44.560150,2678 6.930800,44.560142,2678 6.930824,44.560157,2678 6.930805,44.560244,2679 6.930766,44.560352,2680 6.930671,44.560375,2681 6.930564,44.560439,2682 6.930444,44.560530,2682 6.930366,44.560567,2683 6.930284,44.560605,2684 6.930204,44.560661,2685 6.930180,44.560754,2686 6.930169,44.560789,2687 6.930100,44.560862,2688 6.930012,44.560962,2688 6.930014,44.560981,2689 6.930020,44.561024,2689 6.929957,44.561099,2690 6.929975,44.561130,2691 6.930010,44.561201,2692 6.929986,44.561233,2692 6.929965,44.561308,2693 6.929950,44.561375,2695 6.929927,44.561450,2696 6.929907,44.561473,2696 6.929890,44.561488,2697 6.929854,44.561493,2698 6.929806,44.561531,2699 6.929815,44.561550,2699 6.929841,44.561590,2700 6.929827,44.561561,2700 6.929805,44.561578,2700 6.929802,44.561568,2701 6.929837,44.561561,2700 6.929821,44.561593,2700 6.929894,44.561554,2701 6.929875,44.561529,2701 6.929860,44.561561,2701 6.929874,44.561587,2701 6.929965,44.561626,2702 6.930076,44.561672,2703 6.930157,44.561701,2704 6.930223,44.561723,2705 6.930263,44.561751,2706 6.930303,44.561782,2708 6.930335,44.561786,2709 6.930349,44.561786,2710 6.930319,44.561841,2711 6.930272,44.561879,2712 6.930224,44.561921,2713 6.930145,44.561989,2714 6.930075,44.562032,2714 6.930046,44.562052,2715 6.929925,44.562165,2717 6.929837,44.562236,2718 6.929671,44.562313,2720 6.929628,44.562371,2721 6.929603,44.562439,2721 6.929518,44.562578,2722 6.929458,44.562684,2723 6.929394,44.562781,2724 6.929370,44.562900,2725 6.929331,44.562982,2726 6.929291,44.563070,2727 6.929221,44.563163,2727 6.929107,44.563333,2729 6.929077,44.563415,2729 6.928984,44.563532,2731 6.928845,44.563620,2732 6.928759,44.563668,2732 6.928583,44.563780,2733 6.928454,44.563856,2733 6.928265,44.563953,2733 6.928038,44.564023,2734 6.927909,44.564025,2735 6.927815,44.564024,2736 6.927687,44.563999,2737 6.927606,44.563996,2738 6.927588,44.563992,2738 6.927598,44.563993,2739 6.927542,44.563991,2739 6.927464,44.563988,2740 6.927428,44.563985,2742 6.927354,44.564028,2743 6.927334,44.564045,2744 6.927291,44.564064,2744 6.927210,44.564079,2745 6.927123,44.564071,2747 6.927086,44.564069,2748 6.927034,44.564080,2749 6.926974,44.564203,2749 6.926934,44.564282,2750 6.926900,44.564460,2751 6.926855,44.564537,2752 6.926842,44.564618,2752 6.926749,44.564761,2754 6.926727,44.564836,2755 6.926699,44.564956,2756 6.926681,44.565023,2757 6.926677,44.565106,2757 6.926685,44.565174,2758 6.926663,44.565262,2759 6.926625,44.565347,2761 6.926594,44.565431,2762 6.926597,44.565516,2763 6.926546,44.565574,2764 6.926542,44.565617,2764 6.926516,44.565662,2765 6.926453,44.565697,2766 6.926428,44.565712,2767 6.926370,44.565747,2768 6.926280,44.565788,2770 6.926250,44.565816,2770 6.926204,44.565902,2771 6.926160,44.565962,2772 6.926065,44.566055,2773 6.926036,44.566103,2774 6.925981,44.566151,2776 6.925956,44.566178,2777 6.925922,44.566185,2777 6.925857,44.566215,2779 6.925785,44.566281,2780 6.925732,44.566301,2781 6.925695,44.566302,2783 6.925660,44.566339,2784 6.925636,44.566370,2786 6.925581,44.566447,2786 6.925503,44.566594,2788 6.925494,44.566619,2789 6.925436,44.566644,2790 6.925407,44.566691,2791 6.925407,44.566723,2792 6.925402,44.566758,2793 6.925374,44.566790,2794 6.925326,44.566866,2796 6.925276,44.566912,2797 6.925249,44.566965,2798 6.925204,44.567036,2800 6.925173,44.567087,2801 6.925137,44.567164,2802 6.925106,44.567225,2803 6.925096,44.567240,2804 6.925040,44.567352,2803 6.924979,44.567510,2803 6.924939,44.567542,2802 6.924850,44.567614,2802 6.924768,44.567678,2803 6.924716,44.567708,2804 6.924638,44.567751,2806 6.924621,44.567790,2807 6.924611,44.567806,2809 6.924562,44.567844,2810 6.924526,44.567916,2811 6.924539,44.567968,2811 6.924526,44.567950,2811 6.924497,44.567967,2810 6.924495,44.567965,2810 6.924521,44.567949,2810 6.924528,44.567960,2810 6.924549,44.567945,2810 6.924532,44.567949,2809 6.924536,44.567942,2809 6.924546,44.567970,2809 6.924521,44.567955,2809 6.924514,44.567971,2809 6.924502,44.567954,2809 6.924507,44.567948,2809 6.924486,44.567961,2809 6.924527,44.567939,2809 6.924520,44.567988,2809 6.924501,44.567939,2809 6.924490,44.567931,2810 6.924525,44.567945,2810 6.924531,44.567954,2810 6.924537,44.567963,2810 6.924495,44.567960,2809 6.924480,44.567962,2809 6.924501,44.567948,2809 6.924494,44.567952,2809 6.924507,44.567911,2810 6.924512,44.567934,2810 6.924502,44.567960,2810 6.924492,44.567964,2809 6.924510,44.567951,2809 6.924529,44.567939,2810 6.924499,44.567970,2809 6.924482,44.568101,2810 6.924365,44.568213,2810 6.924238,44.568376,2811 6.924202,44.568434,2812 6.924134,44.568495,2813 6.924113,44.568519,2814 6.924113,44.568551,2815 6.924090,44.568598,2817 6.924057,44.568643,2818 6.924013,44.568692,2819 6.923993,44.568713,2820 6.923960,44.568735,2821 6.923941,44.568767,2822 6.923917,44.568828,2823 6.923942,44.568887,2824 6.923927,44.568898,2825 6.923883,44.568962,2827 6.923871,44.568986,2828 6.923876,44.569054,2829 6.923875,44.569133,2830 6.923893,44.569198,2832 6.923874,44.569226,2833 6.923882,44.569265,2834 6.923839,44.569305,2835 6.923804,44.569341,2837 6.923826,44.569382,2838 6.923829,44.569459,2840 6.923835,44.569488,2840 6.923823,44.569519,2841 6.923824,44.569596,2842 6.923841,44.569630,2843 6.923835,44.569704,2845 6.923833,44.569771,2846 6.923791,44.569819,2847 6.923765,44.569846,2849 6.923724,44.569881,2850 6.923672,44.569912,2851 6.923635,44.569941,2852 6.923662,44.570059,2854 6.923654,44.570101,2855 6.923609,44.570121,2857 6.923563,44.570133,2858 6.923603,44.570244,2860 6.923614,44.570292,2861 6.923624,44.570327,2862 6.923616,44.570381,2864 6.923621,44.570417,2865 6.923634,44.570472,2866 6.923706,44.570557,2867 6.923757,44.570621,2868 6.923849,44.570704,2869 6.923933,44.570770,2870 6.923997,44.570834,2870 6.924035,44.570881,2872 6.924070,44.570917,2873 6.924093,44.570971,2875 6.924113,44.571003,2875 6.924156,44.571039,2877 6.924231,44.571055,2878 6.924235,44.571044,2878 6.924215,44.571073,2878 6.924208,44.571082,2878 6.924219,44.571074,2878 6.924367,44.571072,2878 6.924427,44.571093,2879 6.924495,44.571092,2880 6.924603,44.571087,2882 6.924665,44.571087,2883 6.924728,44.571111,2885 6.924781,44.571116,2886 6.924858,44.571120,2887 6.924942,44.571099,2888 6.925020,44.571082,2889 6.925089,44.571079,2890 6.925164,44.571090,2892 6.925195,44.571108,2893 6.925271,44.571127,2895 6.925334,44.571150,2896 6.925382,44.571181,2897 6.925387,44.571181,2897 6.925389,44.571199,2898 6.925411,44.571201,2900 6.925465,44.571206,2901 6.925475,44.571195,2902 6.925530,44.571234,2903 6.925587,44.571267,2904 6.925614,44.571268,2906 6.925637,44.571252,2907 6.925716,44.571243,2909 6.925747,44.571251,2910 6.925783,44.571258,2911 6.925816,44.571259,2912 6.925859,44.571269,2913 6.925916,44.571292,2914 6.925941,44.571284,2915 6.925969,44.571306,2917 6.925993,44.571327,2918 6.926011,44.571346,2918 6.926027,44.571326,2919 6.926085,44.571346,2921 6.926105,44.571376,2922 6.926102,44.571378,2923 6.926177,44.571394,2925 6.926204,44.571415,2926 6.926261,44.571391,2927 6.926314,44.571403,2928 6.926331,44.571410,2929 6.926356,44.571406,2930 6.926371,44.571401,2931 6.926401,44.571397,2931 6.926435,44.571401,2932 6.926510,44.571397,2933 6.926531,44.571401,2934 6.926545,44.571434,2935 6.926545,44.571460,2935 6.926562,44.571472,2936 6.926589,44.571458,2937 6.926699,44.571493,2939 6.926691,44.571528,2939 6.926686,44.571526,2938 6.926674,44.571509,2938 6.926693,44.571506,2938 6.926728,44.571503,2937 6.926750,44.571507,2936 6.926829,44.571498,2933 6.926873,44.571513,2933 6.926935,44.571585,2934 6.926955,44.571596,2935 6.926981,44.571609,2935 6.927041,44.571638,2937 6.927049,44.571652,2938 6.927069,44.571679,2939 6.927106,44.571694,2940 6.927099,44.571696,2940 6.927104,44.571718,2939 6.927089,44.571729,2938 6.927085,44.571751,2938 6.927099,44.571759,2937 6.927103,44.571756,2937 6.927090,44.571752,2936 6.927105,44.571730,2936 6.927095,44.571694,2936 6.927061,44.571682,2935 6.927059,44.571679,2934 6.927067,44.571692,2934 6.927035,44.571651,2934 6.927061,44.571681,2934 6.927063,44.571680,2933 6.927057,44.571726,2933 6.927038,44.571679,2933 6.927052,44.571706,2932 6.927028,44.571695,2932 6.927044,44.571683,2931 6.927019,44.571680,2931 6.927041,44.571698,2930 6.927070,44.571700,2930 6.927057,44.571687,2930 6.927069,44.571698,2930 6.927076,44.571686,2930 6.927036,44.571664,2930 6.927047,44.571669,2930 6.927048,44.571702,2930 6.927051,44.571662,2930 6.927053,44.571652,2929 6.927052,44.571662,2929 6.927052,44.571662,2929 6.927052,44.571662,2929 6.927036,44.571683,2929 6.927057,44.571650,2929 6.927067,44.571665,2929 6.927041,44.571650,2928 6.927057,44.571678,2928 6.927061,44.571661,2928 6.927050,44.571645,2928 6.927083,44.571693,2929 6.927085,44.571703,2929 6.927048,44.571680,2928 6.927031,44.571665,2928 6.927038,44.571672,2927 6.927023,44.571646,2927 6.926999,44.571593,2926 6.926994,44.571573,2925 6.926980,44.571586,2925 6.926959,44.571585,2924 6.926924,44.571615,2923 6.926947,44.571679,2922 6.926931,44.571676,2922 6.926942,44.571697,2921 6.926940,44.571704,2921 6.926965,44.571711,2920 6.926975,44.571715,2920 6.927031,44.571683,2920 6.927059,44.571718,2921 6.927089,44.571744,2922 6.927136,44.571711,2923 6.927138,44.571718,2923 6.927170,44.571745,2923 6.927146,44.571768,2923 6.927128,44.571760,2923 6.927140,44.571748,2924 6.927159,44.571733,2924 6.927182,44.571722,2924 6.927215,44.571716,2923 6.927246,44.571716,2922 6.927293,44.571720,2920 6.927326,44.571698,2919 6.927364,44.571716,2919 6.927515,44.571777,2918 6.927559,44.571790,2916 6.927575,44.571791,2915 6.927594,44.571789,2914 6.927607,44.571792,2914 6.927649,44.571798,2912 6.927717,44.571832,2912 6.927722,44.571840,2911 6.927748,44.571833,2911 6.927833,44.571880,2910 6.927888,44.571880,2909 6.927921,44.571932,2911 6.927993,44.571940,2910 6.928111,44.571949,2909 6.928189,44.571954,2909 6.928216,44.571951,2910 6.928225,44.571964,2911 6.928269,44.572002,2911 6.928332,44.571983,2911 6.928335,44.571948,2909 6.928461,44.571973,2910 6.928515,44.571973,2910 6.928653,44.571983,2909 6.928706,44.571962,2908 6.928779,44.571965,2908 6.928782,44.571963,2908 6.928806,44.571958,2907 6.928824,44.571969,2907 6.928866,44.571977,2907 6.928881,44.571961,2906 6.928996,44.571990,2908 6.929073,44.572005,2910 6.929112,44.572003,2911 6.929154,44.572016,2912 6.929220,44.572010,2913 6.929254,44.572008,2914 6.929296,44.572007,2914 6.929354,44.571995,2915 6.929398,44.571999,2916 6.929422,44.572004,2916 6.929479,44.572006,2918 6.929524,44.572020,2919 6.929553,44.572021,2920 6.929589,44.572054,2922 6.929613,44.572047,2922 6.929626,44.572037,2923 6.929645,44.572020,2923 6.929661,44.572014,2924 6.929736,44.572033,2925 6.929724,44.572059,2926 6.929750,44.572065,2928 6.929778,44.572062,2929 6.929827,44.572085,2930 6.929857,44.572084,2931 6.929867,44.572094,2932 6.929885,44.572110,2932 6.929918,44.572121,2933 6.929918,44.572144,2935 6.929938,44.572140,2936 6.929953,44.572150,2937 6.929972,44.572188,2938 6.930001,44.572199,2939 6.930042,44.572218,2939 6.930102,44.572221,2939 6.930161,44.572258,2940 6.930212,44.572271,2940 6.930254,44.572306,2942 6.930343,44.572312,2942 6.930391,44.572324,2943 6.930463,44.572370,2944 6.930505,44.572402,2945 6.930525,44.572406,2946 6.930579,44.572396,2945 6.930668,44.572446,2946 6.930691,44.572459,2947 6.930710,44.572474,2949 6.930699,44.572497,2950 6.930741,44.572517,2951 6.930785,44.572517,2951 6.930811,44.572558,2952 6.930819,44.572560,2953 6.930834,44.572568,2954 6.930863,44.572621,2956 6.930866,44.572627,2957 6.930888,44.572632,2958 6.930888,44.572644,2959 6.930913,44.572658,2958 6.930929,44.572614,2958 6.930927,44.572635,2958 6.930935,44.572638,2958 6.930925,44.572638,2957 6.930936,44.572637,2957 6.930905,44.572640,2957 6.930916,44.572644,2957 6.930961,44.572655,2958 6.930960,44.572651,2957 6.930948,44.572656,2957 6.930958,44.572646,2957 6.930962,44.572654,2957 6.930958,44.572649,2957 6.930947,44.572625,2956 6.930942,44.572621,2955 6.930958,44.572625,2955 6.930965,44.572633,2955 6.930952,44.572630,2954 6.930953,44.572634,2954 6.930952,44.572641,2954 6.930952,44.572609,2953 6.930952,44.572601,2953 6.930957,44.572613,2954 6.930960,44.572607,2955 6.930926,44.572618,2954 6.930959,44.572611,2954 6.930934,44.572602,2954 6.930934,44.572625,2954 6.930936,44.572631,2955 6.930952,44.572634,2955 6.930908,44.572660,2956 6.930953,44.572681,2957 6.931044,44.572690,2958 6.931129,44.572708,2959 6.931170,44.572714,2960 6.931239,44.572702,2959 6.931323,44.572722,2959 6.931421,44.572725,2960 6.931504,44.572734,2960 6.931655,44.572687,2958 6.931699,44.572691,2958 6.931729,44.572695,2958 6.931714,44.572682,2958 6.931720,44.572687,2959 6.931720,44.572671,2959 6.931747,44.572674,2959 6.931804,44.572687,2959 6.931815,44.572711,2959 6.931832,44.572747,2958 6.931859,44.572779,2957 6.931878,44.572803,2957 6.931868,44.572827,2956 6.931847,44.572829,2956 6.931838,44.572834,2955 6.931807,44.572799,2956 6.931764,44.572805,2955 6.931756,44.572795,2955 6.931711,44.572787,2954 6.931722,44.572790,2953 6.931734,44.572794,2952 6.931725,44.572828,2952 6.931701,44.572830,2950 6.931677,44.572856,2949 6.931677,44.572884,2948 6.931689,44.572883,2948 6.931706,44.572878,2949 6.931688,44.572864,2949 6.931686,44.572867,2949 6.931681,44.572866,2949 6.931664,44.572874,2950 6.931666,44.572878,2950 6.931687,44.572897,2949 6.931674,44.572922,2948 6.931629,44.572938,2947 6.931617,44.572947,2946 6.931623,44.572946,2945 6.931637,44.572955,2945 6.931596,44.572957,2945 6.931588,44.572983,2944 6.931599,44.572991,2943 6.931595,44.573001,2943 6.931601,44.572994,2942 6.931589,44.573009,2940 6.931587,44.573040,2939 6.931596,44.573071,2937 6.931580,44.573084,2936 6.931573,44.573102,2935 6.931578,44.573123,2933 6.931529,44.573135,2932 6.931492,44.573132,2931 6.931523,44.573173,2930 6.931501,44.573209,2928 6.931489,44.573222,2926 6.931524,44.573261,2924 6.931509,44.573267,2923 6.931467,44.573279,2922 6.931443,44.573306,2921 6.931429,44.573311,2920 6.931459,44.573294,2920 6.931441,44.573331,2919 6.931400,44.573359,2917 6.931415,44.573369,2916 6.931397,44.573370,2916 6.931387,44.573374,2915 6.931355,44.573391,2914 6.931361,44.573406,2913 6.931368,44.573415,2913 6.931363,44.573427,2912 6.931388,44.573454,2911 6.931348,44.573479,2910 6.931344,44.573506,2909 6.931327,44.573505,2908 6.931306,44.573527,2907 6.931348,44.573560,2906 6.931345,44.573571,2905 6.931326,44.573582,2905 6.931332,44.573608,2904 6.931326,44.573603,2903 6.931317,44.573626,2902 6.931322,44.573659,2901 6.931311,44.573683,2899 6.931318,44.573703,2898 6.931300,44.573741,2898 6.931317,44.573770,2897 6.931314,44.573806,2895 6.931336,44.573834,2895 6.931310,44.573871,2894 6.931287,44.573881,2893 6.931277,44.573895,2892 6.931281,44.573918,2891 6.931261,44.573936,2890 6.931215,44.573951,2889 6.931219,44.573972,2886 6.931172,44.573978,2885 6.931139,44.573983,2884 6.931141,44.574013,2883 6.931126,44.574036,2882 6.931142,44.574039,2881 6.931037,44.574068,2881 6.931095,44.574056,2881 6.931101,44.574076,2881 6.931113,44.574101,2879 6.931125,44.574132,2878 6.931100,44.574137,2877 6.931076,44.574161,2875 6.931070,44.574164,2874 6.931045,44.574200,2873 6.931050,44.574206,2872 6.931030,44.574227,2871 6.930995,44.574236,2870 6.930993,44.574275,2869 6.930975,44.574292,2868 6.930926,44.574303,2867 6.930920,44.574303,2866 6.930906,44.574333,2865 6.930904,44.574366,2864 6.930889,44.574367,2863 6.930839,44.574377,2862 6.930833,44.574374,2861 6.930784,44.574411,2860 6.930744,44.574435,2859 6.930717,44.574445,2858 6.930736,44.574447,2857 6.930714,44.574451,2857 6.930678,44.574482,2856 6.930650,44.574466,2855 6.930705,44.574460,2855 6.930709,44.574485,2855 6.930696,44.574479,2855 6.930704,44.574538,2855 6.930785,44.574584,2857 6.930836,44.574628,2856 6.930864,44.574664,2856 6.930893,44.574678,2856 6.930945,44.574717,2856 6.931016,44.574784,2857 6.931063,44.574822,2858 6.931115,44.574863,2858 6.931159,44.574916,2858 6.931189,44.574950,2859 6.931267,44.574961,2860 6.931308,44.574970,2861 6.931313,44.574971,2861 6.931330,44.574990,2861 6.931347,44.575020,2860 6.931291,44.575062,2858 6.931215,44.575074,2857 6.931157,44.575080,2856 6.931149,44.575096,2855 6.931140,44.575121,2854 6.931150,44.575157,2854 6.931128,44.575181,2853 6.931069,44.575175,2851 6.931017,44.575208,2850 6.930981,44.575218,2849 6.930904,44.575233,2849 6.930927,44.575263,2848 6.930912,44.575280,2848 6.930888,44.575260,2848 6.930938,44.575242,2848 6.930954,44.575261,2848 6.930942,44.575266,2848 6.930896,44.575245,2848 6.930857,44.575298,2848 6.930880,44.575353,2847 6.930850,44.575387,2847 6.930834,44.575437,2847 6.930847,44.575473,2846 6.930861,44.575481,2846 6.930872,44.575505,2845 6.930901,44.575547,2847 6.930874,44.575558,2847 6.930849,44.575608,2847 6.930794,44.575641,2848 6.930828,44.575647,2848 6.930830,44.575672,2848 6.930812,44.575650,2847 6.930786,44.575630,2847 6.930814,44.575671,2846 6.930798,44.575609,2846 6.930809,44.575619,2846 6.930904,44.575648,2846 6.930838,44.575652,2846 6.930835,44.575608,2847 6.930788,44.575607,2847 6.930773,44.575665,2847 6.930825,44.575667,2847 6.930786,44.575604,2847 6.930846,44.575609,2847 6.930783,44.575667,2847 6.930799,44.575658,2848 6.930779,44.575619,2847 6.930766,44.575612,2847 6.930839,44.575587,2847 6.930825,44.575608,2847 6.930781,44.575665,2848 6.930786,44.575663,2849 6.930786,44.575680,2849 6.930816,44.575686,2849 6.930795,44.575691,2849 6.930734,44.575688,2849 6.930704,44.575715,2848 6.930701,44.575748,2849 6.930738,44.575799,2850 6.930727,44.575829,2850 6.930664,44.575806,2851 6.930641,44.575835,2852 6.930621,44.575857,2852 6.930599,44.575877,2853 6.930579,44.575853,2854 6.930536,44.575914,2855 6.930531,44.575905,2856 6.930533,44.575900,2857 6.930453,44.575964,2858 6.930454,44.575996,2858 6.930345,44.575964,2858 6.930300,44.575946,2858 6.930253,44.575965,2856 6.930259,44.575957,2856 6.930151,44.575933,2858 6.930131,44.575981,2859 6.930136,44.575970,2859 6.930139,44.575983,2859 6.930135,44.575985,2860 6.930114,44.575995,2861 6.930101,44.575992,2861 6.930075,44.576030,2862 6.930040,44.576011,2863 6.930055,44.576056,2864 6.930041,44.576072,2865 6.930027,44.576075,2865 6.929997,44.576098,2867 6.929971,44.576143,2867 6.930019,44.576115,2867 6.929921,44.576105,2867 6.929900,44.576106,2867 6.929839,44.576129,2868 6.929837,44.576150,2868 6.929884,44.576128,2868 6.929853,44.576159,2869 6.929913,44.576176,2870 6.929939,44.576194,2871 6.929934,44.576193,2872 6.929909,44.576205,2873 6.929960,44.576221,2874 6.929987,44.576225,2874 6.930011,44.576227,2876 6.930043,44.576222,2876 6.930066,44.576243,2877 6.930087,44.576251,2878 6.930063,44.576261,2878 6.930047,44.576301,2880 6.930079,44.576303,2881 6.930121,44.576301,2882 6.930157,44.576310,2883 6.930171,44.576315,2883 6.930212,44.576333,2884 6.930227,44.576337,2885 6.930226,44.576322,2886 6.930220,44.576334,2887 6.930242,44.576355,2888 6.930272,44.576387,2889 6.930236,44.576403,2890 6.930244,44.576425,2891 6.930279,44.576428,2893 6.930275,44.576436,2894 6.930276,44.576476,2894 6.930262,44.576492,2896 6.930203,44.576534,2897 6.930182,44.576532,2898 6.930174,44.576537,2899 6.930154,44.576564,2899 6.930129,44.576583,2900 6.930179,44.576582,2902 6.930175,44.576610,2903 6.930190,44.576612,2903 6.930187,44.576629,2904 6.930179,44.576648,2905 6.930212,44.576670,2907 6.930202,44.576683,2908 6.930237,44.576690,2908 6.930233,44.576710,2909 6.930241,44.576711,2909 6.930226,44.576712,2909 6.930200,44.576704,2910 6.930208,44.576726,2910 6.930224,44.576757,2912 6.930263,44.576762,2912 6.930306,44.576773,2913 6.930285,44.576775,2914 6.930265,44.576786,2915 6.930271,44.576815,2916 6.930280,44.576831,2917 6.930274,44.576838,2918 6.930293,44.576824,2919 6.930288,44.576868,2920 6.930321,44.576903,2921 6.930314,44.576909,2922 6.930319,44.576921,2922 6.930313,44.576912,2923 6.930319,44.576942,2923 6.930321,44.576947,2924 6.930341,44.576965,2924 6.930378,44.576981,2925 6.930381,44.576986,2927 6.930410,44.577015,2927 6.930398,44.577023,2928 6.930389,44.577028,2929 6.930422,44.577023,2930 6.930469,44.576997,2931 6.930512,44.576980,2932 6.930525,44.576972,2932 6.930592,44.576950,2933 6.930613,44.576954,2934 6.930643,44.576948,2934 6.930742,44.576914,2935 6.930759,44.576915,2935 6.930782,44.576895,2936 6.930835,44.576888,2937 6.930873,44.576902,2938 6.930911,44.576893,2939 6.930916,44.576913,2940 6.930951,44.576924,2941 6.930978,44.576929,2942 6.930969,44.576965,2943 6.930968,44.576993,2944 6.930973,44.576980,2944 6.930976,44.576992,2945 6.930988,44.577020,2946 6.931040,44.577036,2947 6.931047,44.577051,2948 6.931066,44.577081,2949 6.931041,44.577102,2950 6.931044,44.577131,2951 6.931089,44.577144,2952 6.931087,44.577134,2952 6.931149,44.577149,2953 6.931182,44.577144,2955 6.931203,44.577155,2956 6.931200,44.577176,2956 6.931197,44.577199,2957 6.931208,44.577228,2959 6.931216,44.577242,2960 6.931223,44.577246,2960 6.931208,44.577281,2962 6.931202,44.577308,2963 6.931207,44.577328,2964 6.931204,44.577339,2964 6.931204,44.577339,2966 6.931215,44.577377,2966 6.931209,44.577383,2966 6.931214,44.577405,2966 6.931229,44.577413,2967 6.931257,44.577420,2969 6.931273,44.577412,2970 6.931336,44.577396,2971 6.931403,44.577390,2972 6.931389,44.577402,2973 6.931393,44.577415,2974 6.931417,44.577439,2975 6.931444,44.577435,2976 6.931446,44.577435,2977 6.931458,44.577456,2977 6.931445,44.577472,2978 6.931446,44.577469,2979 6.931448,44.577466,2979 6.931457,44.577494,2980 6.931452,44.577488,2979 6.931436,44.577501,2979 6.931437,44.577512,2980 6.931426,44.577521,2981 6.931456,44.577537,2982 6.931471,44.577527,2983 6.931491,44.577529,2984 6.931525,44.577545,2985 6.931544,44.577567,2986 6.931580,44.577568,2987 6.931585,44.577570,2988 6.931591,44.577578,2989 6.931592,44.577615,2991 6.931596,44.577638,2992 6.931586,44.577651,2992 6.931590,44.577681,2994 6.931603,44.577683,2995 6.931587,44.577680,2995 6.931606,44.577676,2996 6.931641,44.577706,2997 6.931646,44.577722,2997 6.931627,44.577749,2999 6.931615,44.577774,3000 6.931611,44.577784,3001 6.931612,44.577792,3002 6.931617,44.577805,3003 6.931628,44.577841,3004 6.931655,44.577837,3005 6.931641,44.577847,3006 6.931636,44.577860,3007 6.931623,44.577886,3009 6.931639,44.577927,3010 6.931628,44.577940,3011 6.931617,44.577958,3012 6.931607,44.577989,3013 6.931601,44.578003,3013 6.931610,44.578031,3014 6.931617,44.578032,3015 6.931612,44.578064,3016 6.931597,44.578085,3018 6.931588,44.578131,3020 6.931592,44.578137,3021 6.931605,44.578161,3022 6.931605,44.578161,3022 6.931614,44.578182,3024 6.931605,44.578193,3025 6.931597,44.578192,3026 6.931641,44.578198,3027 6.931653,44.578235,3028 6.931672,44.578241,3029 6.931663,44.578233,3030 6.931678,44.578241,3031 6.931687,44.578251,3031 6.931690,44.578265,3032 6.931696,44.578279,3033 6.931698,44.578283,3033 6.931698,44.578283,3033 6.931698,44.578283,3033 6.931688,44.578297,3033 6.931698,44.578314,3034 6.931706,44.578318,3036 6.931726,44.578335,3035 6.931748,44.578281,3035 6.931825,44.578275,3036 6.931833,44.578258,3036 6.931855,44.578264,3037 6.931862,44.578274,3038 6.931847,44.578278,3038 6.931856,44.578277,3038 6.931866,44.578247,3038 6.931896,44.578244,3038 6.931899,44.578249,3038 6.931935,44.578252,3039 6.931988,44.578287,3039 6.932013,44.578240,3040 6.932019,44.578227,3041 6.931979,44.578275,3044 6.931989,44.578290,3045 6.931995,44.578303,3046 6.932005,44.578316,3046 6.931979,44.578333,3046 6.931983,44.578317,3046 6.932013,44.578344,3048 6.932073,44.578348,3049 6.932066,44.578330,3050 6.932063,44.578324,3051 6.932037,44.578325,3052 6.932060,44.578365,3053 6.932071,44.578338,3054 6.932123,44.578332,3055 6.932137,44.578335,3056 6.932116,44.578326,3056 6.932166,44.578360,3057 6.932181,44.578369,3058 6.932184,44.578366,3059 6.932218,44.578356,3059 6.932249,44.578349,3061 6.932254,44.578339,3062 6.932261,44.578364,3063 6.932263,44.578391,3064 6.932272,44.578385,3065 6.932290,44.578408,3065 6.932275,44.578438,3067 6.932282,44.578450,3068 6.932284,44.578445,3068 6.932247,44.578460,3069 6.932264,44.578481,3070 6.932289,44.578492,3072 6.932278,44.578511,3072 6.932270,44.578517,3073 6.932268,44.578521,3073 6.932342,44.578519,3075 6.932358,44.578515,3076 6.932417,44.578522,3077 6.932425,44.578521,3078 6.932428,44.578536,3078 6.932436,44.578538,3079 6.932418,44.578566,3080 6.932404,44.578584,3081 6.932399,44.578587,3082 6.932388,44.578623,3083 6.932369,44.578673,3084 6.932351,44.578708,3085 6.932331,44.578678,3086 6.932339,44.578673,3084 6.932341,44.578677,3084 6.932343,44.578678,3084 6.932349,44.578685,3084 6.932347,44.578690,3084 6.932317,44.578666,3084 6.932339,44.578675,3084 6.932342,44.578685,3084 6.932350,44.578684,3084 6.932321,44.578682,3085 6.932341,44.578675,3085 6.932366,44.578715,3086 6.932356,44.578737,3087 6.932347,44.578756,3088 6.932313,44.578778,3089 6.932311,44.578796,3090 6.932299,44.578822,3091 6.932304,44.578835,3091 6.932331,44.578855,3092 6.932330,44.578876,3093 6.932340,44.578895,3094 6.932325,44.578879,3094 6.932326,44.578872,3094 6.932370,44.578889,3094 6.932336,44.578917,3095 6.932327,44.578933,3097 6.932341,44.578946,3098 6.932338,44.578952,3098 6.932344,44.578957,3099 6.932354,44.578971,3100 6.932338,44.578986,3101 6.932319,44.578997,3103 6.932305,44.579034,3104 6.932305,44.579062,3105 6.932296,44.579089,3106 6.932296,44.579110,3107 6.932310,44.579119,3108 6.932297,44.579127,3109 6.932283,44.579145,3110 6.932258,44.579154,3111 6.932279,44.579194,3112 6.932282,44.579262,3112 6.932286,44.579303,3113 6.932301,44.579338,3114 6.932321,44.579346,3114 6.932303,44.579330,3114 6.932315,44.579398,3114 6.932324,44.579367,3113 6.932312,44.579361,3113 6.932320,44.579364,3113 6.932325,44.579373,3113 6.932342,44.579352,3113 6.932333,44.579345,3114 6.932328,44.579336,3114 6.932309,44.579325,3114 6.932296,44.579303,3114 6.932301,44.579309,3114 6.932301,44.579309,3114 6.932308,44.579373,3113 6.932314,44.579397,3113 6.932371,44.579356,3115 6.932395,44.579341,3116 6.932402,44.579344,3116 6.932420,44.579344,3117 6.932471,44.579344,3118 6.932483,44.579351,3119 6.932511,44.579350,3121 6.932565,44.579352,3123 6.932583,44.579347,3124 6.932649,44.579333,3125 6.932708,44.579339,3126 6.932762,44.579338,3127 6.932749,44.579360,3128 6.932779,44.579380,3130 6.932839,44.579370,3132 6.932858,44.579375,3132 6.932898,44.579381,3134 6.932906,44.579376,3135 6.932874,44.579368,3136 6.932895,44.579402,3136 6.932951,44.579411,3137 6.933025,44.579451,3139 6.933027,44.579463,3140 6.933060,44.579474,3141 6.933117,44.579508,3143 6.933110,44.579553,3143 6.933089,44.579547,3143 6.933096,44.579492,3142 6.933031,44.579546,3142 6.933030,44.579582,3142 6.933043,44.579583,3141 6.933065,44.579524,3140 6.933121,44.579508,3139 6.933093,44.579516,3138 6.933102,44.579533,3138 6.933109,44.579549,3137 6.933124,44.579539,3136 6.933130,44.579532,3136 6.933108,44.579525,3135 6.933108,44.579512,3134 6.933105,44.579517,3134 6.933096,44.579547,3133 6.933100,44.579551,3133 6.933081,44.579530,3132 6.933092,44.579535,3132 6.933101,44.579535,3132 6.933096,44.579529,3132 6.933116,44.579516,3131 6.933113,44.579521,3131 6.933109,44.579520,3131 6.933098,44.579518,3130 6.933093,44.579516,3130 6.933089,44.579518,3130 6.933119,44.579512,3130 6.933099,44.579528,3130 6.933102,44.579517,3130 6.933100,44.579530,3131 6.933093,44.579518,3130 6.933109,44.579518,3129 6.933105,44.579509,3129 6.933106,44.579523,3129 6.933125,44.579519,3129 6.933115,44.579519,3128 6.933113,44.579524,3128 6.933121,44.579528,3128 6.933126,44.579520,3128 6.933111,44.579528,3128 6.933122,44.579514,3128 6.933139,44.579509,3128 6.933138,44.579513,3128 6.933111,44.579533,3128 6.933112,44.579495,3128 6.933124,44.579507,3128 6.933121,44.579525,3126 6.933127,44.579515,3126 6.933124,44.579501,3126 6.933112,44.579533,3126 6.933123,44.579520,3126 6.933103,44.579506,3126 6.933121,44.579514,3126 6.933123,44.579502,3126 6.933103,44.579497,3126 6.933109,44.579515,3126 6.933113,44.579510,3126 6.933064,44.579524,3126 6.933042,44.579572,3127 6.933048,44.579601,3127 6.933051,44.579607,3128 6.933048,44.579597,3128 6.933057,44.579599,3128 6.933059,44.579590,3128 6.933069,44.579584,3128 6.933064,44.579587,3128 6.933044,44.579587,3128 6.933076,44.579568,3127 6.933061,44.579603,3127 6.933085,44.579581,3127 6.933022,44.579574,3127 6.933039,44.579575,3127 6.933034,44.579566,3126 6.933053,44.579581,3127 6.933041,44.579581,3127 6.933077,44.579558,3125 6.933114,44.579526,3124 6.933097,44.579541,3124 6.933112,44.579522,3123 6.933117,44.579521,3123 6.933104,44.579513,3123 6.933107,44.579523,3123 6.933100,44.579501,3123 6.933102,44.579490,3122 6.933089,44.579491,3122 6.933093,44.579498,3122 6.933101,44.579501,3122 6.933105,44.579508,3122 6.933112,44.579510,3122 6.933106,44.579510,3122 6.933095,44.579498,3122 6.933083,44.579514,3122 6.933099,44.579498,3121 6.933080,44.579507,3121 6.933083,44.579517,3121 6.933090,44.579519,3121 6.933109,44.579522,3121 6.933103,44.579514,3121 6.933091,44.579514,3121 6.933106,44.579505,3121 6.933128,44.579509,3121 6.933099,44.579517,3121 6.933100,44.579508,3121 6.933087,44.579507,3121 6.933139,44.579503,3121 6.933092,44.579500,3121 6.933071,44.579462,3120 6.933044,44.579466,3119 6.933013,44.579454,3118 6.933015,44.579429,3117 6.933007,44.579401,3116 6.932991,44.579384,3115 6.932931,44.579374,3114 6.932897,44.579368,3113 6.932906,44.579369,3113 6.932891,44.579367,3112 6.932854,44.579355,3110 6.932802,44.579318,3108 6.932771,44.579302,3106 6.932751,44.579308,3106 6.932701,44.579318,3104 6.932614,44.579333,3103 6.932585,44.579323,3102 6.932520,44.579311,3099 6.932447,44.579342,3097 6.932415,44.579350,3096 6.932394,44.579335,3094 6.932377,44.579340,3093 6.932334,44.579358,3092 6.932336,44.579353,3092 6.932336,44.579343,3093 6.932344,44.579341,3093 6.932340,44.579359,3093 6.932362,44.579381,3093 6.932366,44.579342,3093 6.932323,44.579323,3094 6.932351,44.579348,3095 6.932348,44.579336,3095 6.932341,44.579334,3095 6.932342,44.579332,3095 6.932378,44.579385,3095 6.932339,44.579367,3096 6.932342,44.579361,3096 6.932250,44.579356,3094 6.932214,44.579351,3094 6.932192,44.579349,3092 6.932197,44.579351,3092 6.932168,44.579341,3091 6.932155,44.579348,3092 6.932152,44.579338,3091 6.932167,44.579360,3091 6.932134,44.579356,3090 6.932094,44.579358,3088 6.932051,44.579368,3087 6.932015,44.579371,3087 6.931967,44.579366,3086 6.931910,44.579365,3084 6.931897,44.579368,3084 6.931902,44.579385,3085 6.931894,44.579390,3086 6.931887,44.579430,3088 6.931913,44.579460,3089 6.931926,44.579466,3091 6.931933,44.579467,3091 6.931939,44.579481,3093 6.931950,44.579477,3094 6.931968,44.579475,3095 6.932017,44.579487,3097 6.932032,44.579505,3097 6.932003,44.579508,3097 6.931950,44.579567,3098 6.931931,44.579613,3098 6.931926,44.579617,3098 6.931897,44.579626,3098 6.931889,44.579636,3098 6.931893,44.579660,3097 6.931898,44.579670,3096 6.931894,44.579702,3096 6.931951,44.579747,3097 6.931957,44.579762,3098 6.931950,44.579773,3097 6.931927,44.579777,3096 6.931916,44.579772,3096 6.931907,44.579803,3095 6.931922,44.579832,3095 6.931943,44.579876,3096 6.931920,44.579889,3095 6.931894,44.579900,3093 6.931854,44.579898,3092 6.931851,44.579892,3091 6.931821,44.579907,3090 6.931823,44.579933,3089 6.931824,44.579938,3089 6.931809,44.579927,3088 6.931777,44.579929,3087 6.931749,44.579942,3086 6.931763,44.579935,3085 6.931754,44.579988,3084 6.931781,44.580039,3085 6.931792,44.580068,3086 6.931797,44.580083,3086 6.931818,44.580070,3087 6.931848,44.580075,3088 6.931869,44.580108,3088 6.931846,44.580124,3086 6.931842,44.580100,3086 6.931825,44.580088,3085 6.931811,44.580140,3085 6.931802,44.580141,3084 6.931810,44.580150,3084 6.931814,44.580158,3084 6.931764,44.580171,3083 6.931732,44.580153,3082 6.931715,44.580139,3082 6.931723,44.580138,3082 6.931727,44.580158,3082 6.931797,44.580186,3083 6.931778,44.580196,3084 6.931775,44.580199,3085 6.931746,44.580269,3085 6.931745,44.580268,3084 6.931742,44.580282,3084 6.931738,44.580280,3084 6.931727,44.580335,3084 6.931693,44.580439,3085 6.931674,44.580517,3085 6.931665,44.580578,3086 6.931637,44.580624,3087 6.931607,44.580652,3087 6.931559,44.580706,3088 6.931523,44.580710,3088 6.931520,44.580751,3088 6.931439,44.580775,3088 6.931355,44.580804,3088 6.931297,44.580819,3089 6.931217,44.580875,3091 6.931148,44.580901,3092 6.931109,44.580931,3093 6.931026,44.580991,3094 6.930991,44.581016,3094 6.930943,44.581047,3095 6.930923,44.581052,3095 6.930921,44.581053,3096 6.930935,44.581047,3096 6.930929,44.581051,3096 6.930907,44.581040,3096 6.930880,44.581024,3096 6.930890,44.581079,3096 6.930873,44.581135,3098 6.930851,44.581172,3099 6.930811,44.581214,3100 6.930801,44.581224,3101 6.930831,44.581246,3102 6.930821,44.581247,3103 6.930743,44.581227,3101 6.930717,44.581231,3100 6.930701,44.581213,3099 6.930662,44.581244,3098 6.930664,44.581265,3097 6.930659,44.581285,3096 6.930652,44.581291,3095 6.930672,44.581290,3095 6.930777,44.581285,3097 6.930770,44.581280,3097 6.930820,44.581279,3097 6.930866,44.581290,3097 6.930869,44.581264,3096 6.930869,44.581285,3095 6.930865,44.581278,3095 6.930864,44.581280,3095 6.930855,44.581288,3094 6.930869,44.581312,3093 6.930913,44.581334,3093 6.930880,44.581310,3093 6.930853,44.581308,3092 6.930814,44.581304,3091 6.930788,44.581311,3090 6.930760,44.581302,3088 6.930775,44.581314,3088 6.930757,44.581293,3088 6.930761,44.581317,3088 6.930753,44.581379,3085 6.930748,44.581381,3085 6.930778,44.581376,3084 6.930800,44.581405,3083 6.930762,44.581411,3083 6.930864,44.581394,3082 6.930908,44.581431,3081 6.930929,44.581436,3081 6.930938,44.581459,3080 6.930968,44.581465,3078 6.931021,44.581495,3078 6.931062,44.581557,3076 6.931086,44.581563,3075 6.931132,44.581583,3075 6.931081,44.581601,3075 6.931036,44.581615,3075 6.931040,44.581611,3074 6.931070,44.581609,3073 6.931095,44.581616,3073 6.931113,44.581629,3072 6.931102,44.581632,3071 6.931129,44.581764,3069 6.931158,44.581832,3068 6.931126,44.581872,3066 6.931141,44.581888,3067 6.931164,44.581919,3066 6.931160,44.581920,3065 6.931120,44.581923,3064 6.931073,44.581935,3064 6.931087,44.581904,3063 6.931083,44.581916,3062 6.931081,44.581917,3062 6.931078,44.581924,3061 6.931081,44.581930,3061 6.931122,44.581914,3060 6.931117,44.581889,3059 6.931120,44.581897,3059 6.931164,44.581925,3058 6.931180,44.581952,3056 6.931175,44.581999,3054 6.931189,44.582019,3054 6.931174,44.582054,3054 6.931184,44.582038,3052 6.931136,44.582003,3052 6.931168,44.582035,3050 6.931171,44.582054,3050 6.931219,44.582119,3049 6.931197,44.582085,3048 6.931174,44.582090,3047 6.931202,44.582089,3046 6.931212,44.582115,3044 6.931247,44.582182,3043 6.931266,44.582236,3041 6.931298,44.582274,3040 6.931301,44.582312,3040 6.931315,44.582284,3040 6.931300,44.582288,3040 6.931313,44.582283,3040 6.931319,44.582274,3041 6.931313,44.582307,3040 6.931339,44.582310,3040 6.931308,44.582275,3040 6.931294,44.582233,3041 6.931307,44.582298,3040 6.931316,44.582269,3041 6.931322,44.582232,3041 6.931295,44.582284,3041 6.931276,44.582317,3041 6.931235,44.582345,3039 6.931213,44.582337,3038 6.931205,44.582369,3036 6.931187,44.582387,3035 6.931216,44.582399,3033 6.931263,44.582448,3033 6.931378,44.582505,3033 6.931392,44.582538,3032 6.931427,44.582567,3031 6.931462,44.582587,3030 6.931493,44.582622,3029 6.931566,44.582692,3028 6.931709,44.582801,3029 6.931760,44.582829,3029 6.931843,44.582969,3029 6.931828,44.583029,3027 6.931875,44.583101,3027 6.931989,44.583191,3028 6.932020,44.583224,3028 6.932032,44.583322,3027 6.932031,44.583324,3027 6.932034,44.583310,3027 6.932057,44.583369,3027 6.932077,44.583433,3026 6.932084,44.583546,3025 6.932123,44.583635,3025 6.932107,44.583728,3025 6.932092,44.583779,3025 6.932060,44.583925,3027 6.932021,44.584015,3028 6.931989,44.584086,3029 6.931992,44.584141,3029 6.931987,44.584190,3030 6.931980,44.584192,3030 6.931978,44.584191,3030 6.931935,44.584316,3031 6.931907,44.584405,3032 6.931858,44.584485,3033 6.931794,44.584618,3034 6.931769,44.584721,3035 6.931766,44.584746,3035 6.931766,44.584876,3036 6.931799,44.584996,3037 6.931839,44.585015,3037 6.931834,44.585011,3037 6.931820,44.585018,3037 6.931818,44.585081,3035 6.931803,44.585112,3034 6.931810,44.585163,3032 6.931835,44.585216,3032 6.931839,44.585303,3031 6.931860,44.585358,3031 6.931862,44.585417,3030 6.931864,44.585507,3031 6.931859,44.585663,3032 6.931806,44.585801,3033 6.931772,44.585947,3032 6.931782,44.586034,3032 6.931736,44.586213,3031 6.931720,44.586359,3032 6.931721,44.586449,3033 6.931701,44.586524,3034 6.931700,44.586550,3035 6.931711,44.586593,3035 6.931757,44.586692,3037 6.931781,44.586742,3037 6.931752,44.586879,3036 6.931735,44.586913,3035 6.931701,44.586908,3035 6.931739,44.586938,3035 6.931748,44.586932,3035 6.931753,44.586918,3035 6.931795,44.586945,3034 6.931882,44.586985,3036 6.931921,44.587001,3037 6.931957,44.587002,3037 6.932053,44.587068,3038 6.932073,44.587106,3038 6.932081,44.587109,3038 6.932144,44.587105,3040 6.932149,44.587136,3041 6.932198,44.587175,3042 6.932211,44.587183,3043 6.932242,44.587189,3044 6.932268,44.587216,3044 6.932282,44.587322,3044 6.932306,44.587358,3043 6.932338,44.587402,3043 6.932334,44.587441,3043 6.932380,44.587489,3044 6.932387,44.587525,3044 6.932428,44.587611,3043 6.932441,44.587663,3043 6.932488,44.587704,3042 6.932561,44.587786,3043 6.932559,44.587846,3042 6.932598,44.587902,3040 6.932644,44.588004,3041 6.932685,44.588049,3042 6.932711,44.588122,3043 6.932739,44.588135,3044 6.932783,44.588168,3045 6.932818,44.588230,3046 6.932846,44.588295,3047 6.932853,44.588327,3047 6.932898,44.588376,3048 6.932899,44.588413,3048 6.932893,44.588477,3048 6.932929,44.588571,3049 6.932948,44.588629,3049 6.932958,44.588772,3049 6.932928,44.588854,3049 6.932940,44.588934,3049 6.932942,44.589025,3049 6.932914,44.589072,3049 6.932857,44.589164,3049 6.932856,44.589234,3050 6.932836,44.589322,3050 6.932816,44.589377,3049 6.932822,44.589513,3050 6.932849,44.589617,3050 6.932870,44.589682,3050 6.932905,44.589764,3051 6.932954,44.589815,3052 6.932996,44.589865,3054 6.933031,44.589907,3055 6.933041,44.589923,3056 6.933068,44.589957,3057 6.933095,44.590008,3057 6.933108,44.590040,3058 6.933133,44.590079,3059 6.933165,44.590118,3060 6.933194,44.590162,3061 6.933227,44.590221,3062 6.933238,44.590278,3062 6.933251,44.590303,3062 6.933231,44.590291,3062 6.933211,44.590293,3061 6.933222,44.590308,3060 6.933245,44.590286,3059 6.933267,44.590278,3059 6.933257,44.590289,3060 6.933239,44.590293,3060 6.933274,44.590327,3060 6.933301,44.590326,3061 6.933286,44.590333,3061 6.933289,44.590368,3062 6.933311,44.590331,3061 6.933286,44.590305,3060 6.933311,44.590315,3060 6.933273,44.590319,3061 6.933269,44.590328,3061 6.933266,44.590309,3061 6.933303,44.590367,3061 6.933345,44.590413,3062 6.933385,44.590468,3064 6.933404,44.590479,3064 6.933401,44.590518,3065 6.933397,44.590561,3066 6.933397,44.590595,3067 6.933393,44.590617,3068 6.933392,44.590629,3069 6.933385,44.590680,3070 6.933358,44.590720,3071 6.933356,44.590743,3072 6.933364,44.590774,3073 6.933342,44.590810,3074 6.933344,44.590860,3076 6.933337,44.590889,3077 6.933349,44.590928,3078 6.933354,44.590966,3079 6.933370,44.591054,3080 6.933353,44.591073,3081 6.933338,44.591129,3082 6.933251,44.591209,3084 6.933203,44.591258,3085 6.933185,44.591268,3085 6.933153,44.591329,3086 6.933153,44.591376,3087 6.933163,44.591436,3088 6.933174,44.591484,3089 6.933205,44.591578,3090 6.933162,44.591691,3091 6.933119,44.591757,3091 6.933072,44.591807,3092 6.933048,44.591833,3093 6.933015,44.591856,3094 6.932999,44.591899,3096 6.933001,44.591929,3097 6.933020,44.591948,3098 6.933049,44.591961,3100 6.933068,44.591985,3101 6.933082,44.592005,3102 6.933091,44.592019,3103 6.933077,44.592039,3104 6.933143,44.592070,3106 6.933155,44.592088,3107 6.933113,44.592101,3108 6.933099,44.592115,3109 6.933064,44.592153,3110 6.933008,44.592165,3112 6.932980,44.592177,3113 6.932962,44.592220,3114 6.932913,44.592236,3114 6.932896,44.592242,3116 6.932877,44.592242,3117 6.932838,44.592257,3118 6.932845,44.592272,3119 6.932854,44.592313,3121 6.932858,44.592318,3121 6.932845,44.592335,3122 6.932831,44.592336,3123 6.932828,44.592334,3125 6.932862,44.592369,3125 6.932845,44.592382,3125 6.932795,44.592407,3127 6.932777,44.592419,3129 6.932774,44.592431,3129 6.932749,44.592453,3130 6.932755,44.592466,3131 6.932748,44.592494,3132 6.932790,44.592484,3132 6.932796,44.592490,3132 6.932717,44.592534,3133 6.932726,44.592558,3134 6.932726,44.592578,3135 6.932738,44.592591,3136 6.932730,44.592612,3137 6.932688,44.592633,3138 6.932647,44.592637,3139 6.932637,44.592683,3140 6.932637,44.592713,3142 6.932632,44.592750,3143 6.932674,44.592799,3143 6.932690,44.592806,3143 6.932684,44.592810,3143 6.932675,44.592810,3142 6.932681,44.592803,3142 6.932674,44.592795,3142 6.932670,44.592790,3142 6.932674,44.592786,3142 6.932674,44.592784,3141 6.932649,44.592774,3141 6.932661,44.592794,3140 6.932663,44.592777,3140 6.932675,44.592759,3140 6.932665,44.592785,3139 6.932682,44.592768,3139 6.932682,44.592759,3139 6.932671,44.592776,3139 6.932667,44.592750,3138 6.932681,44.592783,3138 6.932658,44.592803,3137 6.932668,44.592768,3138 6.932612,44.592765,3137 6.932611,44.592711,3135 6.932596,44.592692,3134 6.932597,44.592673,3132 6.932581,44.592664,3131 6.932555,44.592647,3130 6.932535,44.592631,3129 6.932526,44.592613,3128 6.932497,44.592607,3127 6.932463,44.592574,3125 6.932434,44.592536,3123 6.932441,44.592521,3122 6.932422,44.592519,3121 6.932360,44.592531,3119 6.932313,44.592523,3118 6.932289,44.592506,3116 6.932216,44.592506,3114 6.932188,44.592534,3112 6.932120,44.592536,3111 6.932080,44.592543,3109 6.932070,44.592589,3108 6.932037,44.592596,3105 6.932004,44.592599,3104 6.932000,44.592616,3103 6.931982,44.592600,3102 6.931951,44.592596,3101 6.931920,44.592628,3099 6.931916,44.592650,3098 6.931877,44.592657,3097 6.931853,44.592642,3095 6.931827,44.592645,3093 6.931793,44.592640,3092 6.931770,44.592638,3091 6.931774,44.592693,3089 6.931767,44.592709,3088 6.931721,44.592738,3087 6.931690,44.592719,3086 6.931660,44.592706,3084 6.931647,44.592692,3083 6.931635,44.592720,3082 6.931576,44.592713,3081 6.931532,44.592709,3079 6.931544,44.592720,3078 6.931519,44.592741,3077 6.931499,44.592751,3076 6.931475,44.592737,3075 6.931432,44.592746,3074 6.931444,44.592765,3073 6.931432,44.592775,3071 6.931390,44.592773,3071 6.931388,44.592785,3070 6.931373,44.592799,3069 6.931363,44.592782,3069 6.931361,44.592784,3068 6.931341,44.592821,3067 6.931321,44.592810,3066 6.931284,44.592801,3066 6.931232,44.592805,3065 6.931239,44.592801,3064 6.931238,44.592803,3063 6.931228,44.592798,3063 6.931219,44.592811,3062 6.931195,44.592824,3061 6.931152,44.592830,3060 6.931130,44.592828,3060 6.931120,44.592841,3058 6.931095,44.592842,3057 6.931102,44.592868,3056 6.931100,44.592857,3056 6.931041,44.592844,3055 6.931039,44.592850,3054 6.930984,44.592886,3053 6.930993,44.592886,3052 6.930977,44.592891,3051 6.930981,44.592892,3050 6.930958,44.592932,3049 6.930943,44.592940,3048 6.930921,44.592974,3047 6.930964,44.592968,3047 6.930930,44.592995,3046 6.930924,44.593048,3044 6.930914,44.593045,3043 6.930906,44.593041,3042 6.930860,44.593052,3041 6.930839,44.593054,3040 6.930828,44.593062,3039 6.930852,44.593091,3038 6.930857,44.593113,3037 6.930848,44.593141,3036 6.930829,44.593138,3035 6.930785,44.593143,3034 6.930746,44.593141,3032 6.930715,44.593147,3031 6.930687,44.593150,3030 6.930692,44.593176,3028 6.930702,44.593197,3028 6.930707,44.593226,3026 6.930694,44.593255,3025 6.930680,44.593254,3024 6.930642,44.593247,3023 6.930626,44.593266,3022 6.930579,44.593277,3021 6.930557,44.593290,3019 6.930522,44.593303,3017 6.930477,44.593355,3015 6.930489,44.593389,3014 6.930541,44.593439,3013 6.930549,44.593420,3014 6.930553,44.593417,3014 6.930553,44.593419,3014 6.930554,44.593462,3014 6.930557,44.593481,3013 6.930522,44.593521,3011 6.930492,44.593546,3009 6.930474,44.593563,3008 6.930443,44.593608,3006 6.930457,44.593664,3005 6.930469,44.593680,3005 6.930508,44.593765,3005 6.930495,44.593781,3005 6.930514,44.593788,3005 6.930559,44.593857,3005 6.930603,44.593895,3006 6.930645,44.593913,3006 6.930677,44.593994,3007 6.930696,44.594026,3007 6.930717,44.594088,3007 6.930826,44.594157,3008 6.930932,44.594293,3007 6.931006,44.594378,3007 6.931103,44.594462,3007 6.931153,44.594516,3006 6.931210,44.594558,3006 6.931264,44.594621,3005 6.931355,44.594676,3004 6.931371,44.594754,3005 6.931469,44.594855,3005 6.931576,44.594937,3005 6.931595,44.594969,3005 6.931612,44.594986,3005 6.931653,44.595018,3005 6.931656,44.595041,3005 6.931698,44.595078,3005 6.931698,44.595078,3005 6.931728,44.595099,3006 6.931760,44.595128,3007 6.931771,44.595142,3007 6.931761,44.595175,3007 6.931777,44.595215,3006 6.931769,44.595225,3005 6.931765,44.595251,3004 6.931746,44.595258,3003 6.931746,44.595339,3002 6.931801,44.595387,3002 6.931858,44.595473,3001 6.931860,44.595565,3000 6.931865,44.595615,2999 6.931869,44.595622,2998 6.931869,44.595668,2997 6.931889,44.595787,2998 6.931965,44.595882,3000 6.932000,44.595879,3001 6.932071,44.595903,3001 6.932092,44.595937,3002 6.932147,44.595957,3004 6.932148,44.595994,3006 6.932144,44.596028,3007 6.932161,44.596034,3008 6.932229,44.596053,3009 6.932312,44.596075,3010 6.932284,44.596098,3010 6.932295,44.596057,3010 6.932302,44.596086,3011 6.932339,44.596083,3011 6.932438,44.596135,3011 6.932442,44.596177,3011 6.932493,44.596213,3012 6.932520,44.596256,3012 6.932573,44.596312,3013 6.932594,44.596352,3014 6.932677,44.596367,3015 6.932667,44.596393,3017 6.932655,44.596434,3018 6.932663,44.596428,3018 6.932694,44.596441,3019 6.932703,44.596458,3020 6.932714,44.596453,3021 6.932723,44.596478,3022 6.932758,44.596451,3022 6.932739,44.596507,3023 6.932710,44.596589,3024 6.932784,44.596508,3024 6.932748,44.596511,3025 6.932727,44.596552,3025 6.932759,44.596579,3025 6.932736,44.596617,3025 6.932711,44.596652,3026 6.932759,44.596613,3026 6.932821,44.596537,3026 6.932790,44.596519,3026 6.932777,44.596594,3026 6.932783,44.596606,3027 6.932787,44.596633,3027 6.932806,44.596637,3028 6.932814,44.596595,3028 6.932811,44.596570,3028 6.932772,44.596576,3028 6.932805,44.596559,3028 6.932836,44.596518,3029 6.932858,44.596543,3029 6.932886,44.596564,3031 6.932894,44.596555,3031 6.932865,44.596560,3033 6.932882,44.596563,3034 6.932931,44.596576,3035 6.932948,44.596591,3036 6.932972,44.596631,3037 6.932985,44.596631,3038 6.933013,44.596691,3039 6.932982,44.596697,3039 6.932998,44.596705,3040 6.932989,44.596712,3041 6.933024,44.596737,3042 6.933039,44.596755,3044 6.933047,44.596785,3045 6.933065,44.596794,3045 6.933050,44.596804,3045 6.933085,44.596848,3047 6.933100,44.596851,3048 6.933105,44.596904,3048 6.933115,44.596923,3049 6.933147,44.596924,3050 6.933165,44.596927,3051 6.933191,44.596948,3052 6.933209,44.596958,3053 6.933205,44.596985,3054 6.933220,44.597009,3055 6.933260,44.597028,3056 6.933307,44.597041,3058 6.933319,44.597102,3058 6.933382,44.597119,3059 6.933445,44.597112,3060 6.933518,44.597088,3061 6.933527,44.597140,3062 6.933577,44.597148,3063 6.933631,44.597139,3064 6.933684,44.597145,3065 6.933716,44.597202,3066 6.933721,44.597212,3066 6.933746,44.597229,3067 6.933823,44.597233,3069 6.933829,44.597249,3069 6.933823,44.597249,3069 6.933823,44.597249,3069 6.933848,44.597243,3069 6.933828,44.597236,3069 6.933843,44.597231,3069 6.933848,44.597270,3070 6.933895,44.597316,3070 6.933930,44.597337,3071 6.934001,44.597370,3073 6.934046,44.597386,3074 6.934080,44.597391,3075 6.934152,44.597396,3076 6.934182,44.597433,3077 6.934250,44.597484,3079 6.934304,44.597488,3080 6.934319,44.597477,3081 6.934372,44.597497,3082 6.934383,44.597498,3083 6.934436,44.597507,3083 6.934519,44.597522,3084 6.934507,44.597520,3084 6.934518,44.597528,3084 6.934653,44.597569,3087 6.934686,44.597605,3088 6.934740,44.597645,3089 6.934827,44.597663,3091 6.934863,44.597649,3091 6.934919,44.597656,3092 6.934976,44.597672,3093 6.935054,44.597741,3095 6.935097,44.597757,3096 6.935144,44.597792,3096 6.935190,44.597856,3097 6.935232,44.597904,3098 6.935363,44.597924,3098 6.935448,44.597954,3099 6.935435,44.597998,3100 6.935433,44.598023,3101 6.935456,44.598062,3102 6.935477,44.598064,3103 6.935555,44.598122,3105 6.935584,44.598166,3106 6.935644,44.598186,3107 6.935700,44.598194,3108 6.935731,44.598225,3109 6.935754,44.598243,3110 6.935804,44.598258,3112 6.935841,44.598284,3113 6.935843,44.598334,3114 6.935859,44.598379,3115 6.935897,44.598408,3117 6.935945,44.598441,3118 6.935987,44.598442,3119 6.936019,44.598487,3120 6.936056,44.598527,3122 6.936081,44.598517,3123 6.936125,44.598527,3124 6.936163,44.598534,3125 6.936195,44.598548,3126 6.936215,44.598597,3127 6.936249,44.598618,3129 6.936285,44.598643,3130 6.936310,44.598666,3131 6.936329,44.598682,3132 6.936388,44.598673,3134 6.936415,44.598681,3135 6.936447,44.598730,3136 6.936468,44.598761,3137 6.936468,44.598788,3139 6.936477,44.598821,3140 6.936498,44.598861,3141 6.936520,44.598890,3142 6.936534,44.598924,3143 6.936560,44.598959,3145 6.936580,44.598996,3146 6.936622,44.599027,3147 6.936644,44.599043,3148 6.936657,44.599032,3149 6.936722,44.599043,3151 6.936732,44.599100,3153 6.936760,44.599132,3154 6.936776,44.599146,3155 6.936794,44.599164,3156 6.936786,44.599176,3156 6.936814,44.599210,3158 6.936822,44.599240,3160 6.936815,44.599271,3161 6.936820,44.599293,3162 6.936870,44.599310,3164 6.936906,44.599315,3165 6.936939,44.599347,3166 6.936960,44.599357,3167 6.936966,44.599371,3168 6.937023,44.599373,3169 6.937064,44.599370,3171 6.937089,44.599390,3172 6.937100,44.599400,3173 6.937126,44.599418,3174 6.937196,44.599418,3175 6.937236,44.599427,3177 6.937275,44.599416,3178 6.937310,44.599415,3179 6.937322,44.599429,3180 6.937353,44.599464,3182 6.937368,44.599495,3183 6.937388,44.599496,3185 6.937435,44.599537,3187 6.937452,44.599563,3189 6.937463,44.599586,3189 6.937443,44.599614,3190 6.937422,44.599634,3191 6.937397,44.599688,3193 6.937406,44.599708,3194 6.937423,44.599738,3195 6.937426,44.599773,3196 6.937438,44.599802,3197 6.937453,44.599829,3198 6.937472,44.599855,3200 6.937487,44.599882,3201 6.937494,44.599901,3202 6.937510,44.599933,3203 6.937536,44.599957,3204 6.937538,44.599986,3205 6.937487,44.600038,3206 6.937444,44.600096,3207 6.937427,44.600121,3207 6.937371,44.600167,3208 6.937361,44.600192,3209 6.937354,44.600230,3210 6.937308,44.600254,3211 6.937269,44.600281,3211 6.937260,44.600301,3212 6.937222,44.600343,3213 6.937188,44.600419,3214 6.937186,44.600432,3214 6.937186,44.600432,3213 6.937186,44.600432,3213 6.937186,44.600432,3213 6.937187,44.600423,3212 6.937181,44.600418,3212 6.937200,44.600423,3211 6.937187,44.600449,3210 6.937184,44.600424,3210 6.937209,44.600405,3210 6.937182,44.600409,3209 6.937213,44.600421,3209 6.937174,44.600377,3209 6.937185,44.600403,3209 6.937200,44.600412,3208 6.937194,44.600425,3208 6.937194,44.600432,3208 6.937198,44.600420,3207 6.937190,44.600444,3208 6.937191,44.600444,3208 6.937173,44.600429,3206 6.937189,44.600406,3206 6.937175,44.600428,3205 6.937182,44.600415,3207 6.937175,44.600409,3208 6.937182,44.600434,3209 6.937175,44.600461,3208 6.937164,44.600453,3207 6.937184,44.600430,3206 6.937181,44.600425,3205 6.937178,44.600431,3204 6.937173,44.600436,3204 6.937170,44.600447,3203 6.937134,44.600504,3202 6.937069,44.600614,3200 6.937004,44.600708,3199 6.936948,44.600800,3198 6.936899,44.600854,3197 6.936828,44.600964,3195 6.936760,44.601136,3194 6.936671,44.601365,3195 6.936733,44.601410,3193 6.936784,44.601436,3192 6.936831,44.601459,3191 6.936837,44.601434,3191 6.936825,44.601402,3190 6.936827,44.601351,3189 6.936838,44.601405,3187 6.936861,44.601441,3186 6.936900,44.601485,3185 6.936958,44.601523,3183 6.936990,44.601545,3182 6.937034,44.601606,3180 6.937061,44.601643,3178 6.937081,44.601690,3176 6.937073,44.601747,3175 6.937030,44.601826,3174 6.937039,44.601853,3173 6.937065,44.601913,3170 6.937096,44.601962,3168 6.937140,44.602025,3167 6.937187,44.602083,3165 6.937219,44.602181,3166 6.937240,44.602352,3167 6.937282,44.602444,3168 6.937271,44.602485,3168 6.937245,44.602519,3167 6.937258,44.602517,3166 6.937266,44.602510,3165 6.937312,44.602519,3164 6.937309,44.602547,3163 6.937323,44.602573,3161 6.937334,44.602597,3160 6.937361,44.602623,3158 6.937400,44.602665,3156 6.937423,44.602751,3156 6.937435,44.602809,3156 6.937487,44.602862,3157 6.937469,44.602899,3156 6.937494,44.602916,3155 6.937521,44.602948,3154 6.937578,44.603021,3153 6.937583,44.603042,3151 6.937639,44.603087,3151 6.937626,44.603147,3148 6.937640,44.603194,3146 6.937700,44.603241,3147 6.937716,44.603253,3147 6.937742,44.603315,3147 6.937752,44.603336,3146 6.937778,44.603376,3144 6.937882,44.603494,3145 6.937923,44.603510,3146 6.937927,44.603513,3147 6.937949,44.603563,3147 6.937954,44.603585,3145 6.937946,44.603605,3144 6.937940,44.603608,3143 6.937967,44.603647,3142 6.937981,44.603740,3140 6.938029,44.603751,3142 6.937989,44.603773,3140 6.937957,44.603839,3139 6.937978,44.603843,3138 6.937996,44.603836,3137 6.938039,44.603866,3136 6.938044,44.603781,3135 6.938070,44.603770,3134 6.938093,44.603774,3132 6.938136,44.603765,3130 6.938171,44.603790,3128 6.938200,44.603788,3127 6.938225,44.603816,3126 6.938293,44.603828,3125 6.938304,44.603808,3123 6.938312,44.603754,3121 6.938310,44.603720,3119 6.938318,44.603675,3116 6.938339,44.603668,3114 6.938354,44.603695,3113 6.938401,44.603729,3111 6.938441,44.603745,3109 6.938477,44.603750,3108 6.938521,44.603766,3106 6.938559,44.603787,3104 6.938609,44.603818,3102 6.938630,44.603819,3101 6.938653,44.603841,3099 6.938701,44.603876,3097 6.938728,44.603877,3096 6.938749,44.603899,3095 6.938803,44.603930,3093 6.938829,44.603941,3093 6.938845,44.603953,3091 6.938881,44.603973,3090 6.938917,44.603981,3089 6.938924,44.603983,3088 6.938936,44.604014,3087 6.938984,44.604038,3086 6.939048,44.604032,3084 6.939068,44.604037,3083 6.939083,44.604064,3082 6.939111,44.604074,3081 6.939163,44.604080,3079 6.939212,44.604093,3078 6.939240,44.604107,3077 6.939253,44.604101,3076 6.939264,44.604103,3074 6.939275,44.604085,3073 6.939343,44.604086,3071 6.939391,44.604110,3070 6.939467,44.604124,3069 6.939561,44.604159,3067 6.939628,44.604193,3067 6.939682,44.604226,3067 6.939725,44.604255,3066 6.939748,44.604278,3064 6.939898,44.604289,3064 6.939897,44.604295,3063 6.939911,44.604309,3063 6.939972,44.604344,3063 6.940026,44.604389,3062 6.940117,44.604450,3063 6.940094,44.604465,3063 6.940118,44.604478,3063 6.940121,44.604474,3061 6.940140,44.604480,3060 6.940148,44.604472,3058 6.940149,44.604463,3057 6.940158,44.604482,3057 6.940233,44.604473,3056 6.940306,44.604490,3055 6.940366,44.604506,3054 6.940460,44.604521,3053 6.940550,44.604521,3053 6.940498,44.604521,3053 6.940464,44.604483,3051 6.940480,44.604460,3050 6.940504,44.604450,3048 6.940493,44.604459,3047 6.940516,44.604456,3046 6.940537,44.604474,3045 6.940596,44.604466,3044 6.940685,44.604473,3043 6.940818,44.604475,3042 6.940886,44.604486,3042 6.940952,44.604485,3043 6.941038,44.604499,3042 6.941271,44.604482,3042 6.941385,44.604518,3043 6.941407,44.604566,3044 6.941380,44.604597,3045 6.941362,44.604633,3047 6.941424,44.604693,3048 6.941465,44.604659,3048 6.941555,44.604702,3049 6.941585,44.604733,3050 6.941625,44.604756,3050 6.941657,44.604801,3051 6.941688,44.604839,3053 6.941714,44.604864,3054 6.941824,44.604920,3055 6.941872,44.604955,3056 6.941880,44.604957,3057 6.941914,44.604973,3058 6.941942,44.604995,3059 6.941923,44.605035,3060 6.941922,44.605062,3060 6.941947,44.605110,3062 6.941969,44.605155,3063 6.941978,44.605179,3064 6.941969,44.605219,3065 6.941999,44.605230,3067 6.942022,44.605235,3067 6.942016,44.605245,3066 6.942060,44.605243,3064 6.942080,44.605238,3063 6.942153,44.605250,3061 6.942234,44.605277,3060 6.942264,44.605282,3060 6.942362,44.605310,3060 6.942385,44.605322,3059 6.942571,44.605422,3059 6.942621,44.605448,3059 6.942755,44.605509,3058 6.942822,44.605528,3058 6.942835,44.605536,3059 6.942893,44.605567,3060 6.942905,44.605600,3062 6.942927,44.605609,3064 6.942957,44.605621,3064 6.942992,44.605628,3065 6.943054,44.605626,3066 6.943058,44.605632,3067 6.943057,44.605642,3069 6.943035,44.605664,3070 6.943032,44.605733,3071 6.943052,44.605745,3072 6.943085,44.605769,3073 6.943071,44.605780,3072 6.943065,44.605777,3071 6.943076,44.605733,3070 6.943089,44.605759,3069 6.943117,44.605781,3068 6.943118,44.605785,3066 6.943134,44.605808,3065 6.943127,44.605764,3063 6.943148,44.605767,3062 6.943133,44.605798,3061 6.943183,44.605812,3060 6.943209,44.605802,3058 6.943230,44.605772,3056 6.943287,44.605760,3054 6.943374,44.605786,3053 6.943466,44.605827,3052 6.943484,44.605811,3052 6.943517,44.605816,3051 6.943567,44.605841,3050 6.943619,44.605861,3049 6.943652,44.605873,3047 6.943713,44.605880,3046 6.943724,44.605866,3044 6.943781,44.605857,3043 6.943912,44.605860,3041 6.943998,44.605844,3041 6.944124,44.605829,3039 6.944242,44.605828,3038 6.944380,44.605836,3039 6.944642,44.605829,3039 6.944779,44.605829,3040 6.944932,44.605858,3041 6.944962,44.605859,3043 6.945003,44.605857,3044 6.945042,44.605861,3046 6.945068,44.605861,3047 6.945121,44.605851,3049 6.945198,44.605849,3050 6.945280,44.605863,3050 6.945356,44.605880,3051 6.945419,44.605904,3052 6.945467,44.605919,3052 6.945546,44.605943,3054 6.945585,44.605955,3055 6.945616,44.605967,3056 6.945686,44.605997,3058 6.945769,44.606029,3059 6.945836,44.606045,3060 6.945877,44.606063,3061 6.945896,44.606129,3062 6.946046,44.606199,3061 6.946113,44.606206,3059 6.946145,44.606212,3058 6.946205,44.606257,3056 6.946265,44.606289,3055 6.946387,44.606338,3052 6.946540,44.606452,3051 6.946580,44.606511,3050 6.946753,44.606680,3051 6.946963,44.606841,3051 6.947036,44.606873,3052 6.947081,44.606881,3051 6.947191,44.606967,3051 6.947286,44.607037,3051 6.947405,44.607120,3052 6.947537,44.607211,3052 6.947680,44.607356,3053 6.947747,44.607429,3053 6.947769,44.607497,3054 6.947818,44.607546,3053 6.947848,44.607577,3053 6.947926,44.607785,3053 6.947993,44.607918,3054 6.948109,44.608038,3054 6.948145,44.608176,3054 6.948213,44.608212,3053 6.948280,44.608229,3052 6.948307,44.608252,3050 6.948360,44.608311,3049 6.948422,44.608353,3047 6.948441,44.608368,3046 6.948460,44.608378,3045 6.948494,44.608372,3043 6.948567,44.608364,3041 6.948607,44.608370,3040 6.948632,44.608366,3039 6.948692,44.608379,3038 6.948790,44.608430,3036 6.948958,44.608532,3036 6.948996,44.608625,3036 6.949032,44.608737,3038 6.949048,44.608756,3039 6.949046,44.608834,3039 6.949034,44.608923,3040 6.949046,44.608995,3040 6.949039,44.609106,3039 6.949054,44.609203,3038 6.949052,44.609251,3037 6.949031,44.609355,3036 6.949021,44.609417,3035 6.949022,44.609505,3034 6.949092,44.609616,3034 6.949089,44.609653,3033 6.949130,44.609748,3032 6.949164,44.609834,3032 6.949186,44.609906,3031 6.949181,44.609959,3029 6.949264,44.610072,3029 6.949301,44.610109,3031 6.949291,44.610196,3029 6.949391,44.610257,3030 6.949398,44.610296,3029 6.949435,44.610343,3028 6.949453,44.610368,3027 6.949453,44.610394,3027 6.949508,44.610442,3026 6.949484,44.610497,3024 6.949479,44.610507,3022 6.949528,44.610582,3022 6.949602,44.610612,3024 6.949607,44.610667,3025 6.949657,44.610718,3026 6.949709,44.610728,3027 6.949775,44.610746,3028 6.949826,44.610797,3029 6.949852,44.610848,3031 6.949906,44.610880,3031 6.949914,44.610882,3031 6.949940,44.610885,3032 6.950036,44.610904,3034 6.950096,44.610983,3034 6.950120,44.610997,3036 6.950092,44.611021,3037 6.950165,44.611081,3037 6.950225,44.611102,3038 6.950259,44.611163,3039 6.950300,44.611238,3041 6.950336,44.611267,3042 6.950356,44.611268,3043 6.950428,44.611307,3044 6.950487,44.611391,3044 6.950458,44.611458,3042 6.950458,44.611555,3041 6.950451,44.611599,3041 6.950464,44.611666,3042 6.950475,44.611679,3044 6.950464,44.611721,3044 6.950485,44.611824,3044 6.950457,44.611904,3042 6.950459,44.611965,3043 6.950491,44.612003,3044 6.950502,44.612010,3046 6.950465,44.612070,3046 6.950434,44.612193,3046 6.950439,44.612262,3047 6.950453,44.612281,3048 6.950452,44.612309,3049 6.950431,44.612399,3050 6.950438,44.612412,3052 6.950408,44.612422,3053 6.950379,44.612452,3053 6.950354,44.612510,3054 6.950352,44.612566,3055 6.950354,44.612583,3055 6.950373,44.612638,3057 6.950402,44.612631,3056 6.950457,44.612673,3058 6.950445,44.612695,3059 6.950431,44.612740,3061 6.950426,44.612727,3060 6.950426,44.612731,3060 6.950429,44.612735,3060 6.950447,44.612748,3059 6.950420,44.612748,3057 6.950438,44.612752,3057 6.950446,44.612752,3057 6.950449,44.612751,3056 6.950449,44.612747,3056 6.950438,44.612746,3055 6.950442,44.612750,3055 6.950429,44.612747,3055 6.950415,44.612753,3054 6.950407,44.612743,3054 6.950438,44.612762,3054 6.950397,44.612753,3055 6.950412,44.612752,3056 6.950407,44.612772,3057 6.950391,44.612809,3059 6.950394,44.612836,3061 6.950432,44.612797,3062 6.950473,44.612815,3064 6.950475,44.612858,3066 6.950419,44.612882,3065 6.950407,44.612924,3064 6.950423,44.612995,3064 6.950439,44.613078,3065 6.950499,44.613122,3066 6.950558,44.613173,3066 6.950539,44.613195,3065 6.950509,44.613223,3064 6.950429,44.613286,3062 6.950338,44.613364,3061 6.950223,44.613511,3062 6.950232,44.613583,3061 6.950226,44.613607,3061 6.950317,44.613722,3062 6.950367,44.613840,3063 6.950452,44.613954,3065 6.950468,44.614024,3067 6.950522,44.614072,3068 6.950576,44.614101,3070 6.950601,44.614147,3070 6.950613,44.614192,3071 6.950620,44.614262,3071 6.950703,44.614372,3072 6.950766,44.614482,3074 6.950755,44.614581,3075 6.950755,44.614608,3076 6.950767,44.614663,3078 6.950760,44.614687,3079 6.950739,44.614729,3081 6.950718,44.614761,3083 6.950686,44.614784,3084 6.950654,44.614857,3086 6.950696,44.614927,3087 6.950679,44.614957,3087 6.950684,44.614937,3087 6.950697,44.614933,3086 6.950693,44.614946,3086 6.950690,44.614951,3086 6.950705,44.614942,3085 6.950693,44.614951,3085 6.950680,44.614995,3088 6.950681,44.614979,3088</coordinates></LineString></Placemark></Document></kml>