<?xml version="1.0" encoding="UTF-8"?>
<kml xmlns="http://www.opengis.net/kml/2.2"><Document><name>Alta Linea Continua – Stage 22: Lac d'Asti to Vallone di Soustra</name><Style id="l"><LineStyle><color>ff2b30c4</color><width>4</width></LineStyle></Style><Placemark><name>Alta Linea Continua – Stage 22: Lac d'Asti to Vallone di Soustra</name><styleUrl>#l</styleUrl><LineString><tessellate>1</tessellate><altitudeMode>clampToGround</altitudeMode><coordinates>7.003507,44.695061,2908 7.003507,44.695090,2907 7.003591,44.695104,2908 7.003633,44.695116,2909 7.003685,44.695113,2910 7.003718,44.695106,2911 7.003744,44.695124,2912 7.003758,44.695134,2912 7.003780,44.695122,2913 7.003781,44.695077,2914 7.003780,44.695039,2914 7.003768,44.695001,2915 7.003768,44.694988,2915 7.003766,44.694930,2917 7.003749,44.694868,2917 7.003751,44.694810,2918 7.003752,44.694729,2918 7.003738,44.694678,2920 7.003732,44.694558,2922 7.003741,44.694520,2923 7.003736,44.694456,2924 7.003764,44.694360,2926 7.003775,44.694325,2927 7.003804,44.694305,2928 7.003863,44.694267,2930 7.003888,44.694259,2931 7.003918,44.694247,2932 7.003949,44.694193,2934 7.003991,44.694143,2935 7.004019,44.694141,2936 7.004073,44.694111,2937 7.004097,44.694081,2938 7.004110,44.694073,2938 7.004137,44.694050,2940 7.004152,44.694033,2941 7.004192,44.693973,2942 7.004191,44.693937,2943 7.004256,44.693896,2944 7.004332,44.693836,2946 7.004368,44.693770,2947 7.004383,44.693718,2948 7.004416,44.693668,2949 7.004450,44.693633,2950 7.004472,44.693604,2951 7.004477,44.693590,2952 7.004489,44.693492,2953 7.004505,44.693434,2954 7.004518,44.693368,2955 7.004571,44.693349,2956 7.004611,44.693352,2957 7.004613,44.693359,2958 7.004653,44.693302,2959 7.004684,44.693270,2960 7.004759,44.693195,2963 7.004774,44.693141,2964 7.004803,44.693099,2965 7.004842,44.693063,2966 7.004886,44.693004,2967 7.004922,44.692963,2968 7.004955,44.692958,2969 7.005018,44.692890,2971 7.005076,44.692824,2972 7.005167,44.692762,2972 7.005158,44.692706,2973 7.005167,44.692647,2974 7.005162,44.692582,2975 7.005100,44.692527,2976 7.005082,44.692500,2977 7.005107,44.692493,2978 7.005118,44.692451,2980 7.005098,44.692398,2981 7.005088,44.692352,2982 7.005097,44.692323,2984 7.005099,44.692294,2984 7.005138,44.692247,2985 7.005122,44.692186,2987 7.005121,44.692180,2987 7.005072,44.692199,2987 7.005019,44.692221,2984 7.004993,44.692237,2984 7.004987,44.692255,2984 7.005032,44.692223,2984 7.005032,44.692202,2983 7.005021,44.692195,2983 7.004964,44.692209,2983 7.005040,44.692184,2984 7.004993,44.692191,2984 7.005012,44.692187,2984 7.005014,44.692216,2984 7.005059,44.692192,2985 7.005106,44.692186,2986 7.005114,44.692173,2986 7.005101,44.692193,2986 7.005110,44.692191,2986 7.005103,44.692130,2986 7.005098,44.692018,2989 7.005117,44.691982,2989 7.005164,44.691967,2991 7.005206,44.691960,2993 7.005222,44.691934,2994 7.005198,44.691864,2995 7.005178,44.691815,2995 7.005213,44.691783,2997 7.005208,44.691740,2998 7.005194,44.691706,3000 7.005207,44.691692,3001 7.005203,44.691627,3002 7.005196,44.691602,3003 7.005202,44.691578,3004 7.005200,44.691568,3005 7.005196,44.691562,3005 7.005190,44.691515,3007 7.005207,44.691467,3008 7.005196,44.691387,3010 7.005207,44.691366,3010 7.005196,44.691341,3011 7.005230,44.691331,3012 7.005279,44.691305,3013 7.005327,44.691278,3015 7.005276,44.691228,3016 7.005292,44.691185,3016 7.005276,44.691125,3017 7.005293,44.691087,3018 7.005324,44.691006,3020 7.005357,44.690973,3021 7.005430,44.690923,3022 7.005455,44.690865,3023 7.005460,44.690840,3023 7.005491,44.690816,3025 7.005569,44.690799,3026 7.005596,44.690758,3027 7.005611,44.690698,3027 7.005624,44.690690,3028 7.005679,44.690671,3029 7.005724,44.690641,3030 7.005790,44.690606,3031 7.005841,44.690580,3032 7.005863,44.690572,3033 7.005925,44.690528,3035 7.005937,44.690509,3035 7.005952,44.690480,3036 7.005951,44.690478,3037 7.005937,44.690462,3037 7.005939,44.690470,3037 7.005947,44.690439,3037 7.005944,44.690395,3038 7.005967,44.690369,3039 7.005992,44.690338,3041 7.005965,44.690294,3042 7.005942,44.690231,3043 7.005914,44.690182,3044 7.005897,44.690146,3046 7.005879,44.690082,3047 7.005898,44.690035,3048 7.005895,44.690001,3049 7.005900,44.689983,3049 7.005900,44.689925,3052 7.005862,44.689862,3053 7.005832,44.689814,3054 7.005818,44.689787,3055 7.005812,44.689775,3055 7.005821,44.689779,3055 7.005821,44.689758,3055 7.005811,44.689763,3055 7.005817,44.689756,3055 7.005821,44.689750,3056 7.005883,44.689720,3057 7.005861,44.689689,3058 7.005851,44.689658,3059 7.005837,44.689608,3061 7.005870,44.689575,3062 7.005902,44.689524,3064 7.005915,44.689453,3065 7.005906,44.689384,3066 7.005848,44.689323,3067 7.005809,44.689302,3068 7.005766,44.689246,3069 7.005769,44.689204,3070 7.005679,44.689149,3071 7.005669,44.689131,3071 7.005694,44.689063,3072 7.005674,44.688989,3073 7.005651,44.688956,3075 7.005636,44.688939,3076 7.005569,44.688877,3077 7.005580,44.688848,3078 7.005593,44.688790,3079 7.005540,44.688741,3080 7.005583,44.688747,3081 7.005607,44.688748,3081 7.005668,44.688711,3082 7.005673,44.688714,3083 7.005682,44.688717,3084 7.005719,44.688667,3086 7.005732,44.688657,3088 7.005771,44.688647,3089 7.005806,44.688634,3090 7.005831,44.688616,3091 7.005846,44.688600,3093 7.005863,44.688575,3094 7.005885,44.688563,3095 7.005911,44.688547,3096 7.005943,44.688516,3097 7.005962,44.688520,3098 7.005988,44.688509,3100 7.006060,44.688513,3102 7.006092,44.688501,3103 7.006134,44.688491,3105 7.006199,44.688481,3106 7.006192,44.688446,3108 7.006200,44.688441,3109 7.006220,44.688431,3110 7.006224,44.688428,3110 7.006237,44.688429,3111 7.006291,44.688415,3112 7.006309,44.688399,3114 7.006339,44.688406,3113 7.006375,44.688437,3115 7.006438,44.688489,3115 7.006497,44.688531,3116 7.006522,44.688545,3117 7.006605,44.688605,3117 7.006656,44.688639,3119 7.006691,44.688670,3120 7.006781,44.688652,3121 7.006792,44.688650,3123 7.006892,44.688705,3123 7.006929,44.688714,3124 7.006955,44.688713,3125 7.007016,44.688740,3127 7.007074,44.688783,3126 7.007133,44.688800,3126 7.007176,44.688814,3127 7.007238,44.688820,3127 7.007295,44.688854,3127 7.007309,44.688862,3126 7.007381,44.688861,3127 7.007418,44.688875,3128 7.007468,44.688896,3130 7.007509,44.688925,3131 7.007576,44.688969,3132 7.007583,44.688969,3133 7.007595,44.688974,3133 7.007600,44.688973,3133 7.007626,44.688973,3135 7.007649,44.688988,3136 7.007690,44.689027,3137 7.007699,44.689029,3138 7.007725,44.689021,3139 7.007754,44.688994,3141 7.007770,44.689015,3142 7.007799,44.689032,3140 7.007807,44.689020,3142 7.007806,44.689039,3144 7.007869,44.689047,3145 7.007894,44.689060,3146 7.007941,44.689080,3147 7.007953,44.689082,3147 7.007981,44.689101,3148 7.008006,44.689106,3150 7.008062,44.689123,3150 7.008057,44.689118,3151 7.008120,44.689155,3153 7.008146,44.689136,3154 7.008134,44.689126,3153 7.008173,44.689137,3155 7.008192,44.689149,3156 7.008189,44.689130,3156 7.008252,44.689157,3157 7.008262,44.689152,3157 7.008276,44.689149,3157 7.008311,44.689165,3155 7.008349,44.689185,3156 7.008352,44.689183,3158 7.008286,44.689157,3156 7.008279,44.689162,3155 7.008294,44.689175,3153 7.008293,44.689196,3151 7.008360,44.689243,3151 7.008421,44.689265,3152 7.008439,44.689272,3154 7.008443,44.689270,3155 7.008509,44.689262,3154 7.008540,44.689247,3153 7.008546,44.689164,3153 7.008609,44.689159,3154 7.008590,44.689161,3152 7.008592,44.689151,3150 7.008546,44.689162,3151 7.008635,44.689191,3150 7.008584,44.689142,3150 7.008584,44.689148,3149 7.008539,44.689130,3148 7.008612,44.689153,3148 7.008568,44.689166,3147 7.008580,44.689118,3147 7.008549,44.689086,3146 7.008549,44.689086,3146 7.008556,44.689114,3144 7.008593,44.689138,3144 7.008664,44.689205,3145 7.008612,44.689126,3144 7.008599,44.689108,3143 7.008579,44.689123,3142 7.008607,44.689086,3141 7.008607,44.689115,3141 7.008578,44.689106,3140 7.008594,44.689093,3140 7.008588,44.689086,3140 7.008592,44.689097,3139 7.008581,44.689105,3138 7.008564,44.689091,3138 7.008560,44.689081,3137 7.008579,44.689099,3137 7.008591,44.689094,3138 7.008609,44.689103,3137 7.008616,44.689122,3136 7.008599,44.689140,3136 7.008621,44.689128,3136 7.008623,44.689106,3136 7.008613,44.689103,3135 7.008671,44.689108,3133 7.008645,44.689081,3132 7.008653,44.689065,3131 7.008683,44.689024,3130 7.008719,44.688988,3130 7.008735,44.689006,3129 7.008732,44.689029,3128 7.008755,44.689076,3126 7.008742,44.689092,3125 7.008717,44.689090,3124 7.008749,44.689090,3123 7.008791,44.689086,3121 7.008852,44.689054,3119 7.008886,44.689071,3118 7.008877,44.689107,3116 7.008859,44.689149,3115 7.008857,44.689183,3114 7.008890,44.689213,3113 7.008890,44.689216,3112 7.008878,44.689271,3109 7.008847,44.689310,3108 7.008836,44.689317,3106 7.008860,44.689296,3104 7.008917,44.689335,3102 7.008946,44.689353,3102 7.008953,44.689365,3101 7.008975,44.689366,3100 7.008962,44.689385,3098 7.008988,44.689400,3098 7.008992,44.689416,3097 7.009003,44.689444,3097 7.009040,44.689457,3097 7.009076,44.689474,3097 7.009014,44.689474,3097 7.008992,44.689454,3097 7.009031,44.689413,3096 7.009030,44.689403,3094 7.009067,44.689422,3095 7.008984,44.689419,3095 7.008937,44.689384,3095 7.008797,44.689348,3095 7.009020,44.689391,3096 7.009002,44.689429,3097 7.008961,44.689444,3098 7.008975,44.689469,3098 7.009036,44.689426,3098 7.009028,44.689408,3098 7.008929,44.689416,3098 7.009050,44.689393,3098 7.009094,44.689411,3098 7.009084,44.689406,3098 7.009052,44.689402,3098 7.009069,44.689388,3096 7.009094,44.689360,3095 7.009105,44.689380,3094 7.009116,44.689409,3094 7.009159,44.689428,3092 7.009165,44.689392,3091 7.009175,44.689392,3090 7.009182,44.689384,3089 7.009184,44.689339,3088 7.009195,44.689338,3087 7.009196,44.689312,3085 7.009214,44.689310,3084 7.009239,44.689275,3083 7.009281,44.689217,3081 7.009325,44.689208,3080 7.009362,44.689188,3079 7.009431,44.689167,3078 7.009513,44.689126,3076 7.009564,44.689075,3075 7.009657,44.688969,3075 7.009700,44.688939,3075 7.009762,44.688922,3074 7.009831,44.688890,3074 7.009862,44.688851,3073 7.009922,44.688792,3074 7.009861,44.688779,3075 7.009914,44.688746,3074 7.009918,44.688712,3074 7.009918,44.688712,3074 7.009941,44.688690,3075 7.009953,44.688650,3075 7.010008,44.688530,3074 7.010079,44.688447,3073 7.010182,44.688372,3072 7.010303,44.688311,3072 7.010408,44.688287,3073 7.010514,44.688240,3074 7.010589,44.688219,3075 7.010659,44.688206,3075 7.010739,44.688167,3077 7.010813,44.688134,3077 7.010869,44.688118,3078 7.010941,44.688122,3079 7.010996,44.688114,3080 7.011006,44.688090,3081 7.011011,44.688078,3082 7.011033,44.688043,3083 7.011071,44.687998,3085 7.011130,44.687998,3086 7.011146,44.687979,3087 7.011179,44.687949,3088 7.011211,44.687959,3089 7.011264,44.687969,3090 7.011282,44.687945,3091 7.011278,44.687882,3092 7.011354,44.687851,3094 7.011377,44.687831,3096 7.011369,44.687807,3097 7.011361,44.687757,3098 7.011441,44.687739,3099 7.011533,44.687761,3100 7.011594,44.687803,3101 7.011635,44.687833,3101 7.011674,44.687902,3102 7.011684,44.687908,3102 7.011686,44.687922,3102 7.011712,44.688006,3102 7.011706,44.688064,3102 7.011678,44.688100,3102 7.011701,44.688141,3101 7.011724,44.688173,3102 7.011752,44.688177,3103 7.011763,44.688203,3105 7.011783,44.688216,3106 7.011799,44.688234,3108 7.011851,44.688249,3109 7.011878,44.688279,3110 7.011910,44.688297,3110 7.011909,44.688332,3111 7.011915,44.688356,3112 7.011925,44.688398,3114 7.011938,44.688434,3114 7.011952,44.688448,3115 7.011990,44.688490,3116 7.011999,44.688541,3116 7.012054,44.688565,3118 7.012063,44.688564,3118 7.012107,44.688594,3119 7.012163,44.688634,3120 7.012207,44.688665,3121 7.012211,44.688705,3122 7.012212,44.688725,3123 7.012244,44.688753,3124 7.012294,44.688777,3125 7.012334,44.688822,3126 7.012378,44.688855,3127 7.012401,44.688876,3128 7.012430,44.688871,3129 7.012487,44.688840,3130 7.012523,44.688830,3131 7.012577,44.688829,3132 7.012592,44.688842,3132 7.012605,44.688845,3132 7.012664,44.688876,3133 7.012734,44.688903,3134 7.012800,44.688976,3134 7.012895,44.689008,3135 7.012931,44.689002,3135 7.012982,44.689030,3134 7.013054,44.689060,3135 7.013127,44.689075,3136 7.013182,44.689085,3137 7.013231,44.689105,3138 7.013300,44.689110,3139 7.013307,44.689112,3140 7.013313,44.689119,3141 7.013350,44.689134,3142 7.013413,44.689162,3143 7.013430,44.689168,3144 7.013472,44.689187,3145 7.013482,44.689183,3145 7.013494,44.689166,3146 7.013527,44.689139,3148 7.013572,44.689155,3149 7.013611,44.689169,3150 7.013678,44.689227,3151 7.013695,44.689248,3152 7.013715,44.689259,3153 7.013757,44.689268,3153 7.013774,44.689275,3153 7.013830,44.689264,3154 7.013889,44.689278,3153 7.013925,44.689286,3154 7.013934,44.689267,3155 7.013952,44.689249,3155 7.013980,44.689249,3153 7.013985,44.689241,3153 7.013989,44.689253,3152 7.014028,44.689274,3152 7.014029,44.689272,3151 7.014085,44.689293,3150 7.014108,44.689297,3149 7.014117,44.689294,3149 7.014116,44.689298,3148 7.014122,44.689294,3148 7.014114,44.689294,3148 7.014144,44.689316,3148 7.014205,44.689320,3149 7.014215,44.689321,3150 7.014213,44.689324,3150 7.014212,44.689323,3150 7.014215,44.689314,3148 7.014214,44.689312,3147 7.014206,44.689300,3146 7.014203,44.689298,3145 7.014233,44.689300,3146 7.014242,44.689322,3146 7.014260,44.689336,3146 7.014261,44.689321,3144 7.014259,44.689338,3144 7.014278,44.689322,3143 7.014280,44.689289,3142 7.014290,44.689302,3141 7.014248,44.689307,3141 7.014297,44.689303,3141 7.014245,44.689308,3140 7.014285,44.689327,3140 7.014277,44.689350,3139 7.014316,44.689317,3138 7.014365,44.689339,3137 7.014355,44.689324,3137 7.014455,44.689340,3137 7.014510,44.689344,3137 7.014525,44.689353,3137 7.014571,44.689365,3139 7.014610,44.689378,3138 7.014682,44.689397,3137 7.014743,44.689400,3138 7.014851,44.689407,3139 7.014915,44.689396,3139 7.014928,44.689395,3140 7.014999,44.689422,3141 7.015029,44.689431,3143 7.015041,44.689424,3144 7.015052,44.689435,3145 7.015118,44.689422,3143 7.015226,44.689409,3143 7.015346,44.689420,3144 7.015380,44.689407,3145 7.015411,44.689388,3146 7.015440,44.689392,3147 7.015474,44.689398,3146 7.015492,44.689399,3147 7.015534,44.689413,3148 7.015579,44.689419,3149 7.015622,44.689446,3150 7.015645,44.689452,3151 7.015663,44.689456,3152 7.015688,44.689453,3154 7.015687,44.689451,3154 7.015704,44.689465,3155 7.015736,44.689460,3156 7.015736,44.689463,3157 7.015770,44.689476,3158 7.015793,44.689498,3159 7.015804,44.689489,3161 7.015851,44.689502,3162 7.015859,44.689502,3163 7.015889,44.689511,3165 7.015920,44.689486,3164 7.015958,44.689497,3166 7.016020,44.689496,3168 7.016033,44.689495,3169 7.016058,44.689489,3171 7.016071,44.689483,3172 7.016098,44.689476,3173 7.016094,44.689461,3174 7.016120,44.689445,3174 7.016186,44.689413,3174 7.016239,44.689479,3174 7.016237,44.689485,3173 7.016237,44.689485,3173 7.016237,44.689485,3173 7.016234,44.689470,3172 7.016237,44.689452,3173 7.016192,44.689460,3173 7.016234,44.689436,3173 7.016219,44.689451,3172 7.016228,44.689463,3172 7.016257,44.689442,3172 7.016215,44.689436,3171 7.016218,44.689443,3171 7.016188,44.689440,3171 7.016192,44.689433,3171 7.016186,44.689420,3171 7.016204,44.689426,3171 7.016221,44.689443,3171 7.016226,44.689427,3172 7.016221,44.689426,3172 7.016221,44.689426,3172 7.016226,44.689438,3172 7.016227,44.689458,3172 7.016243,44.689456,3172 7.016242,44.689451,3172 7.016241,44.689434,3171 7.016230,44.689448,3171 7.016217,44.689438,3171 7.016188,44.689410,3171 7.016201,44.689429,3171 7.016177,44.689446,3171 7.016203,44.689431,3171 7.016218,44.689458,3171 7.016220,44.689458,3171 7.016238,44.689465,3170 7.016179,44.689438,3170 7.016190,44.689457,3170 7.016202,44.689459,3169 7.016165,44.689443,3169 7.016193,44.689442,3170 7.016236,44.689440,3170 7.016218,44.689436,3171 7.016223,44.689454,3172 7.016225,44.689484,3172 7.016252,44.689427,3171 7.016237,44.689418,3170 7.016235,44.689420,3170 7.016224,44.689449,3170 7.016269,44.689493,3169 7.016282,44.689491,3168 7.016380,44.689517,3170 7.016495,44.689517,3172 7.016529,44.689525,3170 7.016579,44.689534,3169 7.016635,44.689513,3171 7.016676,44.689481,3172 7.016682,44.689498,3172 7.016716,44.689502,3173 7.016736,44.689479,3173 7.016787,44.689469,3172 7.016794,44.689466,3172 7.016793,44.689493,3171 7.016824,44.689510,3168 7.016849,44.689511,3167 7.016906,44.689520,3166 7.016955,44.689512,3165 7.016990,44.689503,3165 7.017073,44.689515,3163 7.017114,44.689521,3163 7.017192,44.689529,3163 7.017317,44.689475,3163 7.017304,44.689484,3163 7.017406,44.689444,3162 7.017552,44.689422,3163 7.017682,44.689410,3164 7.017802,44.689407,3165 7.017915,44.689391,3164 7.018152,44.689374,3164 7.018399,44.689360,3163 7.018615,44.689338,3164 7.018715,44.689332,3165 7.018730,44.689346,3165 7.018735,44.689366,3166 7.018781,44.689402,3166 7.018881,44.689413,3168 7.018957,44.689459,3168 7.019019,44.689497,3169 7.019062,44.689496,3171 7.019081,44.689516,3171 7.019110,44.689572,3172 7.019143,44.689646,3173 7.019185,44.689718,3175 7.019208,44.689768,3177 7.019223,44.689775,3178 7.019241,44.689772,3179 7.019294,44.689805,3180 7.019304,44.689832,3181 7.019330,44.689863,3182 7.019304,44.689885,3184 7.019297,44.689912,3184 7.019293,44.689943,3186 7.019312,44.690004,3187 7.019293,44.690017,3188 7.019279,44.690038,3189 7.019273,44.690050,3191 7.019304,44.690056,3192 7.019375,44.690108,3193 7.019419,44.690143,3194 7.019454,44.690174,3195 7.019479,44.690201,3196 7.019517,44.690196,3198 7.019549,44.690213,3199 7.019579,44.690245,3200 7.019609,44.690254,3201 7.019650,44.690261,3202 7.019665,44.690285,3203 7.019706,44.690344,3204 7.019741,44.690366,3204 7.019770,44.690372,3205 7.019805,44.690396,3207 7.019825,44.690384,3208 7.019831,44.690380,3208 7.019858,44.690415,3209 7.019923,44.690433,3210 7.019968,44.690455,3212 7.019999,44.690465,3213 7.020067,44.690502,3214 7.020090,44.690522,3215 7.020127,44.690539,3216 7.020152,44.690536,3217 7.020168,44.690547,3218 7.020205,44.690560,3219 7.020239,44.690589,3221 7.020264,44.690608,3222 7.020289,44.690584,3223 7.020313,44.690563,3224 7.020337,44.690552,3226 7.020358,44.690574,3227 7.020354,44.690583,3228 7.020404,44.690594,3229 7.020443,44.690613,3231 7.020453,44.690621,3231 7.020533,44.690614,3232 7.020579,44.690609,3233 7.020626,44.690638,3232 7.020679,44.690626,3232 7.020655,44.690632,3232 7.020585,44.690647,3230 7.020603,44.690650,3228 7.020539,44.690642,3229 7.020593,44.690680,3229 7.020577,44.690664,3229 7.020583,44.690632,3230 7.020595,44.690633,3229 7.020600,44.690642,3229 7.020631,44.690650,3230 7.020653,44.690663,3230 7.020660,44.690644,3232 7.020637,44.690626,3232 7.020651,44.690633,3232 7.020661,44.690637,3232 7.020676,44.690666,3231 7.020704,44.690681,3233 7.020783,44.690690,3235 7.020797,44.690699,3236 7.020812,44.690693,3238 7.020835,44.690688,3238 7.020895,44.690696,3238 7.020945,44.690717,3238 7.020952,44.690718,3237 7.021040,44.690760,3237 7.021049,44.690764,3237 7.021068,44.690778,3237 7.021093,44.690779,3236 7.021080,44.690785,3236 7.021120,44.690708,3237 7.021074,44.690810,3237 7.021090,44.690807,3237 7.021120,44.690758,3237 7.021096,44.690710,3238 7.021108,44.690706,3238 7.021132,44.690698,3239 7.021159,44.690660,3240 7.021155,44.690682,3241 7.021164,44.690688,3241 7.021214,44.690691,3240 7.021213,44.690690,3240 7.021193,44.690663,3239 7.021225,44.690670,3239 7.021222,44.690677,3239 7.021241,44.690690,3238 7.021245,44.690671,3237 7.021263,44.690672,3236 7.021265,44.690689,3235 7.021251,44.690694,3235 7.021263,44.690701,3234 7.021290,44.690688,3233 7.021305,44.690678,3232 7.021292,44.690686,3232 7.021292,44.690695,3231 7.021316,44.690706,3229 7.021330,44.690707,3228 7.021357,44.690710,3227 7.021419,44.690716,3225 7.021443,44.690731,3224 7.021483,44.690735,3223 7.021538,44.690729,3222 7.021591,44.690719,3222 7.021616,44.690742,3223 7.021655,44.690758,3224 7.021661,44.690754,3224 7.021667,44.690740,3224 7.021681,44.690716,3222 7.021716,44.690683,3221 7.021715,44.690698,3220 7.021703,44.690721,3220 7.021711,44.690737,3219 7.021722,44.690752,3218 7.021781,44.690771,3217 7.021796,44.690778,3215 7.021791,44.690792,3214 7.021797,44.690805,3213 7.021842,44.690810,3212 7.021864,44.690813,3211 7.021920,44.690843,3210 7.021992,44.690875,3209 7.022038,44.690891,3210 7.022094,44.690908,3210 7.022216,44.690960,3211 7.022269,44.690968,3212 7.022362,44.690991,3214 7.022409,44.691027,3214 7.022421,44.691039,3215 7.022440,44.691045,3216 7.022450,44.691031,3217 7.022473,44.691028,3218 7.022511,44.691033,3220 7.022542,44.691038,3221 7.022566,44.691045,3222 7.022586,44.691068,3223 7.022607,44.691071,3224 7.022633,44.691070,3226 7.022644,44.691058,3226 7.022671,44.691044,3227 7.022726,44.691047,3228 7.022712,44.691031,3229 7.022720,44.691039,3230 7.022751,44.691044,3232 7.022782,44.691038,3233 7.022824,44.691022,3234 7.022862,44.691018,3235 7.022867,44.691008,3235 7.022864,44.691000,3236 7.022870,44.691009,3236 7.022902,44.691069,3237 7.022917,44.691080,3238 7.022949,44.691089,3240 7.022946,44.691075,3239 7.022968,44.691099,3240 7.022993,44.691097,3243 7.023034,44.691127,3243 7.023042,44.691118,3244 7.023063,44.691125,3245 7.023063,44.691127,3245 7.023089,44.691174,3246 7.023103,44.691186,3247 7.023143,44.691188,3248 7.023154,44.691187,3250 7.023181,44.691204,3251 7.023193,44.691210,3252 7.023218,44.691207,3253 7.023241,44.691193,3253 7.023253,44.691223,3254 7.023253,44.691226,3255 7.023295,44.691248,3255 7.023326,44.691230,3255 7.023337,44.691228,3256 7.023346,44.691231,3257 7.023399,44.691227,3258 7.023392,44.691240,3259 7.023427,44.691287,3261 7.023444,44.691286,3261 7.023477,44.691274,3262 7.023517,44.691289,3263 7.023536,44.691288,3264 7.023549,44.691306,3265 7.023568,44.691322,3266 7.023559,44.691330,3266 7.023611,44.691362,3267 7.023658,44.691362,3268 7.023698,44.691362,3270 7.023730,44.691396,3270 7.023755,44.691405,3271 7.023773,44.691423,3272 7.023807,44.691431,3274 7.023831,44.691448,3275 7.023842,44.691459,3275 7.023859,44.691434,3276 7.023872,44.691422,3277 7.023883,44.691435,3277 7.023909,44.691482,3278 7.023955,44.691492,3279 7.023959,44.691509,3278 7.023992,44.691514,3277 7.024054,44.691508,3278 7.024045,44.691498,3277 7.024080,44.691504,3276 7.024111,44.691507,3275 7.024156,44.691505,3274 7.024168,44.691496,3273 7.024175,44.691509,3273 7.024216,44.691527,3271 7.024227,44.691521,3272 7.024269,44.691542,3272 7.024259,44.691475,3271 7.024288,44.691504,3271 7.024323,44.691485,3270 7.024263,44.691497,3269 7.024265,44.691501,3268 7.024295,44.691520,3268 7.024265,44.691507,3267 7.024275,44.691507,3266 7.024320,44.691478,3265 7.024306,44.691470,3265 7.024317,44.691469,3265 7.024284,44.691490,3264 7.024278,44.691499,3264 7.024299,44.691499,3263 7.024310,44.691564,3262 7.024306,44.691495,3261 7.024269,44.691522,3261 7.024272,44.691561,3260 7.024285,44.691504,3259 7.024286,44.691479,3260 7.024329,44.691459,3261 7.024357,44.691438,3261 7.024357,44.691436,3263 7.024358,44.691425,3264 7.024369,44.691415,3263 7.024383,44.691414,3264 7.024403,44.691439,3262 7.024413,44.691469,3259 7.024416,44.691510,3259 7.024428,44.691489,3260 7.024427,44.691478,3259 7.024417,44.691481,3258 7.024406,44.691461,3258 7.024404,44.691460,3258 7.024413,44.691463,3258 7.024415,44.691446,3259 7.024440,44.691489,3259 7.024419,44.691484,3259 7.024413,44.691469,3258 7.024423,44.691488,3259 7.024418,44.691441,3259 7.024416,44.691474,3259 7.024420,44.691478,3259 7.024446,44.691483,3258 7.024417,44.691452,3258 7.024433,44.691446,3258 7.024442,44.691460,3259 7.024425,44.691482,3258 7.024427,44.691476,3259 7.024422,44.691476,3260 7.024470,44.691469,3259 7.024519,44.691493,3259 7.024620,44.691494,3258 7.024694,44.691481,3257 7.024683,44.691464,3257 7.024753,44.691452,3258 7.024773,44.691453,3258 7.024870,44.691435,3257 7.024939,44.691437,3257 7.024997,44.691459,3257 7.025057,44.691462,3255 7.025090,44.691457,3255 7.025108,44.691406,3255 7.025108,44.691406,3255 7.025108,44.691406,3255 7.025164,44.691400,3254 7.025182,44.691400,3254 7.025203,44.691381,3254 7.025187,44.691392,3254 7.025188,44.691411,3253 7.025178,44.691444,3253 7.025237,44.691434,3252 7.025260,44.691424,3251 7.025339,44.691402,3252 7.025364,44.691390,3253 7.025369,44.691381,3254 7.025369,44.691384,3253 7.025385,44.691394,3253 7.025434,44.691403,3253 7.025440,44.691406,3252 7.025577,44.691385,3252 7.025637,44.691373,3254 7.025703,44.691357,3253 7.025787,44.691341,3253 7.025834,44.691314,3254 7.025911,44.691286,3255 7.025937,44.691266,3256 7.025960,44.691256,3257 7.025940,44.691265,3256 7.025978,44.691242,3255 7.025971,44.691223,3254 7.025983,44.691204,3254 7.025993,44.691191,3252 7.026014,44.691166,3252 7.026008,44.691151,3252 7.026041,44.691158,3252 7.026021,44.691164,3251 7.025999,44.691145,3252 7.026036,44.691156,3252 7.026018,44.691159,3252 7.026027,44.691171,3252 7.026024,44.691179,3252 7.026014,44.691167,3252 7.026052,44.691136,3253 7.026049,44.691156,3253 7.026024,44.691165,3254 7.025999,44.691135,3254 7.025974,44.691140,3253 7.025972,44.691140,3253 7.025970,44.691140,3252 7.026001,44.691134,3253 7.025986,44.691116,3253 7.025997,44.691139,3253 7.026006,44.691136,3252 7.026042,44.691149,3253 7.026003,44.691150,3253 7.026002,44.691153,3254 7.025999,44.691158,3254 7.026023,44.691152,3253 7.025977,44.691115,3254 7.026005,44.691128,3254 7.026021,44.691138,3254 7.026016,44.691148,3254 7.025951,44.691151,3255 7.026026,44.691152,3255 7.026008,44.691161,3254 7.026025,44.691175,3254 7.026008,44.691164,3254 7.026003,44.691168,3253 7.026025,44.691161,3253 7.026019,44.691165,3253 7.026018,44.691139,3253 7.026001,44.691143,3254 7.026042,44.691148,3254 7.026053,44.691158,3254 7.025995,44.691158,3254 7.026017,44.691171,3254 7.026007,44.691171,3254 7.026037,44.691185,3254 7.026060,44.691172,3254 7.026028,44.691162,3254 7.026049,44.691166,3254 7.026008,44.691152,3255 7.026041,44.691152,3256 7.026302,44.691279,3255 7.026281,44.691277,3255 7.026049,44.691167,3257 7.026028,44.691164,3256 7.026045,44.691172,3257 7.026035,44.691169,3257 7.026025,44.691160,3257 7.026033,44.691145,3258 7.026073,44.691165,3258 7.026054,44.691165,3257 7.026081,44.691156,3257 7.026093,44.691160,3256 7.026005,44.691168,3256 7.026058,44.691174,3256 7.026041,44.691150,3257 7.026029,44.691137,3258 7.026031,44.691138,3257 7.026029,44.691130,3257 7.026037,44.691124,3258 7.026066,44.691184,3258 7.026114,44.691187,3257 7.026094,44.691144,3257 7.026056,44.691169,3257 7.026049,44.691169,3257 7.026079,44.691149,3257 7.026024,44.691114,3257 7.026015,44.691102,3257 7.026093,44.691112,3257 7.026128,44.691124,3257 7.026133,44.691143,3257 7.026151,44.691175,3257 7.026081,44.691176,3257 7.026071,44.691174,3258 7.026042,44.691148,3258 7.026017,44.691152,3258 7.026031,44.691152,3258 7.026037,44.691150,3258 7.026040,44.691130,3257 7.026037,44.691147,3257 7.026044,44.691143,3257 7.026100,44.691161,3257 7.026080,44.691176,3257 7.026105,44.691176,3257 7.026096,44.691164,3257 7.026057,44.691172,3257 7.026033,44.691157,3256 7.026026,44.691160,3256 7.026059,44.691186,3256 7.026026,44.691192,3256 7.025979,44.691191,3256 7.026007,44.691164,3257 7.026048,44.691209,3257 7.026066,44.691181,3257 7.025979,44.691162,3257 7.026017,44.691156,3257 7.026092,44.691155,3257 7.026172,44.691213,3256 7.026063,44.691166,3257 7.026042,44.691144,3258 7.026016,44.691104,3258 7.025976,44.691085,3258 7.026018,44.691093,3258 7.026032,44.691160,3258 7.026010,44.691107,3259 7.026018,44.691127,3259 7.025992,44.691097,3259 7.025998,44.691101,3260 7.026053,44.691157,3259 7.026015,44.691107,3260 7.026011,44.691115,3261 7.026040,44.691120,3260 7.026035,44.691124,3260 7.026016,44.691137,3261 7.026028,44.691128,3261 7.026018,44.691143,3261 7.025998,44.691114,3261 7.026021,44.691132,3261 7.026007,44.691118,3261 7.026007,44.691118,3261 7.026007,44.691132,3262 7.026026,44.691168,3263 7.026066,44.691177,3264 7.026081,44.691185,3265 7.026094,44.691202,3266 7.026116,44.691206,3266 7.026131,44.691219,3267 7.026164,44.691215,3268 7.026237,44.691181,3268 7.026286,44.691188,3266 7.026327,44.691164,3267 7.026358,44.691170,3266 7.026401,44.691184,3265 7.026397,44.691187,3265 7.026493,44.691151,3265 7.026548,44.691156,3266 7.026550,44.691155,3266 7.026488,44.691171,3266 7.026470,44.691142,3265 7.026478,44.691147,3265 7.026463,44.691146,3265 7.026448,44.691150,3264 7.026471,44.691139,3264 7.026463,44.691141,3263 7.026462,44.691142,3263 7.026448,44.691156,3263 7.026441,44.691154,3263 7.026460,44.691142,3262 7.026474,44.691121,3262 7.026466,44.691119,3263 7.026406,44.691140,3263 7.026371,44.691149,3264 7.026351,44.691123,3265 7.026324,44.691123,3266 7.026325,44.691110,3266 7.026309,44.691116,3266 7.026314,44.691106,3266 7.026290,44.691117,3266 7.026306,44.691097,3266 7.026328,44.691115,3266 7.026336,44.691137,3266 7.026346,44.691118,3266 7.026348,44.691108,3265 7.026302,44.691133,3266 7.026297,44.691113,3265 7.026304,44.691085,3264 7.026299,44.691072,3264 7.026297,44.691074,3263 7.026285,44.691054,3262 7.026266,44.691033,3261 7.026282,44.691033,3260 7.026264,44.691002,3259 7.026264,44.690994,3259 7.026276,44.690972,3258 7.026313,44.690955,3257 7.026323,44.690941,3257 7.026311,44.690929,3256 7.026310,44.690928,3256 7.026309,44.690926,3256 7.026295,44.690925,3256 7.026323,44.690914,3254 7.026304,44.690895,3254 7.026320,44.690881,3253 7.026371,44.690835,3251 7.026385,44.690810,3251 7.026377,44.690781,3249 7.026371,44.690797,3248 7.026325,44.690755,3247 7.026340,44.690734,3246 7.026364,44.690705,3245 7.026370,44.690695,3244 7.026361,44.690662,3243 7.026346,44.690622,3241 7.026311,44.690602,3241 7.026306,44.690587,3239 7.026277,44.690560,3238 7.026300,44.690553,3238 7.026315,44.690524,3237 7.026316,44.690495,3236 7.026316,44.690472,3235 7.026312,44.690434,3233 7.026280,44.690413,3232 7.026283,44.690380,3230 7.026248,44.690371,3229 7.026250,44.690348,3228 7.026264,44.690326,3227 7.026271,44.690315,3227 7.026245,44.690305,3226 7.026241,44.690288,3225 7.026228,44.690274,3224 7.026229,44.690251,3223 7.026238,44.690226,3222 7.026246,44.690192,3221 7.026257,44.690173,3219 7.026274,44.690138,3219 7.026284,44.690114,3218 7.026297,44.690063,3217 7.026303,44.690035,3217 7.026282,44.690003,3216 7.026285,44.689970,3215 7.026273,44.689924,3214 7.026299,44.689890,3214 7.026341,44.689813,3214 7.026418,44.689788,3215 7.026418,44.689782,3216 7.026434,44.689762,3217 7.026448,44.689738,3218 7.026461,44.689720,3217 7.026445,44.689702,3216 7.026440,44.689676,3215 7.026444,44.689647,3214 7.026438,44.689599,3213 7.026430,44.689568,3212 7.026430,44.689570,3212 7.026404,44.689514,3210 7.026388,44.689496,3209 7.026408,44.689510,3208 7.026396,44.689503,3208 7.026396,44.689504,3208 7.026395,44.689514,3208 7.026367,44.689482,3207 7.026392,44.689439,3206 7.026369,44.689424,3205 7.026391,44.689397,3205 7.026371,44.689367,3203 7.026371,44.689338,3202 7.026388,44.689306,3201 7.026394,44.689272,3200 7.026390,44.689245,3198 7.026380,44.689205,3197 7.026370,44.689163,3195 7.026348,44.689156,3194 7.026363,44.689139,3193 7.026362,44.689095,3192 7.026360,44.689085,3191 7.026316,44.689074,3190 7.026318,44.689062,3189 7.026333,44.689012,3187 7.026351,44.688990,3187 7.026376,44.688967,3186 7.026375,44.688946,3185 7.026453,44.688919,3186 7.026457,44.688909,3186 7.026465,44.688891,3185 7.026483,44.688903,3184 7.026476,44.688899,3184 7.026476,44.688899,3184 7.026478,44.688918,3185 7.026476,44.688899,3185 7.026476,44.688899,3185 7.026476,44.688899,3185 7.026476,44.688899,3185 7.026515,44.688896,3184 7.026515,44.688898,3184 7.026482,44.688909,3183 7.026474,44.688900,3182 7.026460,44.688875,3182 7.026452,44.688904,3182 7.026450,44.688893,3181 7.026442,44.688893,3180 7.026457,44.688859,3181 7.026419,44.688870,3180 7.026411,44.688865,3179 7.026424,44.688911,3180 7.026452,44.688880,3180 7.026451,44.688888,3180 7.026419,44.688861,3180 7.026425,44.688891,3181 7.026451,44.688887,3180 7.026460,44.688904,3180 7.026486,44.688911,3179 7.026490,44.688881,3179 7.026434,44.688895,3178 7.026484,44.688933,3178 7.026456,44.688894,3178 7.026453,44.688886,3177 7.026473,44.688931,3177 7.026461,44.688908,3177 7.026457,44.688917,3177 7.026463,44.688918,3177 7.026450,44.688930,3176 7.026446,44.688932,3177 7.026456,44.688936,3177 7.026453,44.688940,3176 7.026427,44.688944,3175 7.026402,44.688926,3175 7.026407,44.688917,3175 7.026439,44.688939,3174 7.026431,44.688904,3174 7.026425,44.688898,3173 7.026430,44.688888,3172 7.026478,44.688879,3172 7.026496,44.688867,3171 7.026494,44.688866,3171 7.026482,44.688856,3170 7.026435,44.688867,3170 7.026487,44.688868,3170 7.026524,44.688803,3170 7.026535,44.688822,3170 7.026547,44.688829,3171 7.026555,44.688834,3170 7.026559,44.688796,3169 7.026536,44.688800,3168 7.026560,44.688805,3169 7.026545,44.688805,3169 7.026540,44.688799,3169 7.026540,44.688790,3170 7.026588,44.688784,3170 7.026561,44.688790,3170 7.026545,44.688795,3170 7.026582,44.688804,3169 7.026577,44.688820,3169 7.026612,44.688781,3168 7.026572,44.688791,3168 7.026523,44.688821,3169 7.026536,44.688823,3169 7.026523,44.688813,3169 7.026561,44.688820,3169 7.026563,44.688846,3169 7.026583,44.688837,3169 7.026549,44.688841,3169 7.026505,44.688855,3169 7.026551,44.688831,3168 7.026605,44.688836,3167 7.026537,44.688822,3167 7.026546,44.688822,3167 7.026543,44.688823,3166 7.026585,44.688867,3166 7.026600,44.688830,3166 7.026591,44.688821,3166 7.026596,44.688823,3166 7.026594,44.688806,3165 7.026598,44.688800,3165 7.026573,44.688804,3165 7.026579,44.688808,3165 7.026561,44.688792,3166 7.026543,44.688782,3166 7.026575,44.688803,3166 7.026586,44.688802,3166 7.026632,44.688830,3166 7.026602,44.688809,3167 7.026618,44.688795,3166 7.026636,44.688785,3165 7.026616,44.688774,3165 7.026616,44.688775,3165 7.026628,44.688787,3164 7.026623,44.688793,3164 7.026622,44.688799,3164 7.026640,44.688773,3164 7.026647,44.688760,3164 7.026641,44.688762,3164 7.026641,44.688762,3164 7.026627,44.688766,3164 7.026632,44.688793,3165 7.026583,44.688774,3165 7.026577,44.688774,3165 7.026612,44.688777,3164 7.026609,44.688788,3166 7.026611,44.688766,3166 7.026615,44.688758,3166 7.026609,44.688761,3166 7.026613,44.688765,3165 7.026621,44.688756,3166 7.026583,44.688761,3165 7.026626,44.688761,3165 7.026637,44.688766,3165 7.026637,44.688772,3164 7.026622,44.688787,3163 7.026585,44.688785,3163 7.026566,44.688774,3163 7.026569,44.688774,3163 7.026575,44.688765,3162 7.026545,44.688784,3162 7.026546,44.688788,3162 7.026559,44.688787,3162 7.026612,44.688740,3162 7.026630,44.688738,3162 7.026619,44.688733,3162 7.026609,44.688715,3161 7.026597,44.688719,3162 7.026554,44.688714,3162 7.026624,44.688736,3161 7.026593,44.688745,3160 7.026601,44.688732,3160 7.026648,44.688676,3159 7.026628,44.688687,3158 7.026631,44.688685,3158 7.026611,44.688674,3158 7.026613,44.688697,3157 7.026620,44.688684,3157 7.026621,44.688673,3157 7.026615,44.688667,3156 7.026624,44.688659,3157 7.026638,44.688668,3157 7.026651,44.688652,3158 7.026646,44.688630,3158 7.026631,44.688634,3158 7.026621,44.688644,3159 7.026609,44.688643,3158 7.026608,44.688634,3158 7.026624,44.688648,3157 7.026581,44.688628,3157 7.026616,44.688636,3156 7.026627,44.688630,3156 7.026637,44.688622,3155 7.026663,44.688593,3154 7.026640,44.688595,3154 7.026657,44.688600,3154 7.026696,44.688596,3154 7.026693,44.688581,3155 7.026721,44.688578,3154 7.026730,44.688541,3154 7.026737,44.688532,3153 7.026757,44.688530,3153 7.026772,44.688532,3153 7.026752,44.688556,3154 7.026779,44.688550,3153 7.026750,44.688523,3154 7.026741,44.688528,3153 7.026752,44.688538,3153 7.026749,44.688530,3154 7.026728,44.688537,3153 7.026750,44.688532,3153 7.026770,44.688520,3153 7.026763,44.688505,3153 7.026765,44.688547,3152 7.026764,44.688519,3152 7.026751,44.688476,3151 7.026752,44.688455,3150 7.026771,44.688420,3149 7.026796,44.688337,3147 7.026766,44.688316,3146 7.026704,44.688244,3143 7.026684,44.688202,3141 7.026702,44.688182,3140 7.026701,44.688145,3139 7.026682,44.688092,3137 7.026684,44.688098,3136 7.026690,44.688068,3136 7.026719,44.688018,3134 7.026714,44.688013,3133 7.026712,44.687982,3132 7.026736,44.687952,3130 7.026781,44.687946,3129 7.026777,44.687977,3129 7.026772,44.688018,3128 7.026776,44.687994,3127 7.026770,44.687992,3126 7.026822,44.687970,3125 7.026796,44.687951,3124 7.026768,44.687957,3123 7.026797,44.687909,3123 7.026802,44.687903,3122 7.026791,44.687873,3121 7.026806,44.687878,3120 7.026797,44.687866,3119 7.026783,44.687854,3119 7.026818,44.687822,3118 7.026796,44.687831,3118 7.026710,44.687870,3118 7.026740,44.687838,3118 7.026878,44.687807,3117 7.026899,44.687788,3117 7.026874,44.687799,3117 7.026860,44.687802,3117 7.026864,44.687811,3117 7.026851,44.687827,3117 7.026896,44.687828,3117 7.026910,44.687822,3117 7.026897,44.687788,3116 7.026928,44.687794,3115 7.026889,44.687774,3114 7.026877,44.687774,3114 7.026839,44.687787,3113 7.026763,44.687776,3112 7.026853,44.687800,3111 7.026848,44.687798,3110 7.026837,44.687797,3110 7.026785,44.687777,3110 7.026862,44.687759,3110 7.026936,44.687783,3109 7.026924,44.687754,3109 7.026935,44.687736,3108 7.026918,44.687722,3107 7.026896,44.687727,3107 7.026947,44.687708,3106 7.026944,44.687707,3106 7.026952,44.687703,3105 7.026960,44.687709,3104 7.026975,44.687728,3103 7.026991,44.687723,3102 7.026959,44.687727,3101 7.026837,44.687722,3101 7.026749,44.687717,3100 7.026686,44.687704,3100 7.026867,44.687716,3099 7.026981,44.687721,3099 7.027006,44.687719,3099 7.026964,44.687693,3099 7.026938,44.687692,3098 7.026907,44.687713,3097 7.026928,44.687689,3096 7.026927,44.687720,3096 7.026930,44.687724,3095 7.026969,44.687717,3094 7.026961,44.687711,3094 7.026962,44.687724,3093 7.026974,44.687739,3093 7.026973,44.687698,3093 7.027043,44.687708,3093 7.027032,44.687681,3093 7.027023,44.687686,3091 7.027018,44.687695,3091 7.027024,44.687679,3090 7.027033,44.687660,3089 7.027018,44.687647,3088 7.027025,44.687635,3087 7.027050,44.687628,3086 7.027047,44.687621,3085 7.027047,44.687616,3084 7.027055,44.687603,3083 7.027062,44.687596,3083 7.026987,44.687585,3082 7.027025,44.687570,3080 7.027015,44.687536,3080 7.027005,44.687523,3081 7.026999,44.687524,3081 7.026993,44.687530,3080 7.026993,44.687529,3081 7.027007,44.687519,3080 7.027016,44.687506,3078 7.027005,44.687473,3078 7.027014,44.687479,3076 7.027007,44.687457,3075 7.027013,44.687442,3073 7.027030,44.687431,3073 7.027066,44.687460,3072 7.027073,44.687491,3071 7.027115,44.687451,3070 7.027128,44.687440,3069 7.027142,44.687427,3069 7.027125,44.687444,3069 7.027102,44.687446,3070 7.027053,44.687423,3069 7.027042,44.687408,3068 7.027074,44.687391,3066 7.027068,44.687395,3065 7.027047,44.687384,3065 7.027039,44.687369,3064 7.027073,44.687356,3064 7.027129,44.687313,3064 7.027079,44.687343,3064 7.027087,44.687352,3064 7.027070,44.687368,3064 7.027065,44.687387,3064 7.027058,44.687388,3064 7.027117,44.687373,3064 7.027123,44.687303,3063 7.027109,44.687323,3063 7.027088,44.687358,3063 7.027097,44.687359,3062 7.027109,44.687326,3062 7.027064,44.687332,3061 7.027026,44.687348,3060 7.027034,44.687347,3059 7.027058,44.687340,3059 7.027061,44.687332,3058 7.027087,44.687322,3057 7.027051,44.687314,3057 7.027104,44.687290,3057 7.027094,44.687279,3057 7.027093,44.687286,3056 7.027111,44.687294,3056 7.027081,44.687287,3055 7.027102,44.687269,3054 7.027103,44.687248,3053 7.027060,44.687256,3054 7.027001,44.687232,3053 7.027025,44.687230,3052 7.027042,44.687231,3052 7.027065,44.687238,3051 7.027048,44.687164,3050 7.027042,44.687153,3049 7.027011,44.687155,3048 7.026980,44.687134,3046 7.026961,44.687121,3045 7.026921,44.687122,3045 7.026960,44.687093,3045 7.026928,44.687083,3044 7.026925,44.687068,3043 7.026920,44.687048,3042 7.026931,44.687029,3040 7.026888,44.687034,3039 7.026881,44.686983,3038 7.026879,44.686990,3037 7.026893,44.686920,3036 7.026890,44.686891,3035 7.026883,44.686877,3034 7.026830,44.686852,3033 7.026783,44.686848,3032 7.026798,44.686797,3031 7.026842,44.686722,3029 7.026879,44.686682,3028 7.026902,44.686632,3027 7.026916,44.686615,3025 7.026975,44.686592,3024 7.026940,44.686579,3023 7.026929,44.686524,3021 7.026937,44.686498,3020 7.026934,44.686483,3019 7.026923,44.686436,3017 7.026945,44.686409,3016 7.026951,44.686366,3015 7.026965,44.686342,3013 7.026975,44.686341,3014 7.026935,44.686340,3014 7.026917,44.686369,3013 7.026926,44.686367,3012 7.026943,44.686319,3011 7.026940,44.686286,3010 7.026923,44.686261,3009 7.026903,44.686249,3007 7.026875,44.686234,3006 7.026861,44.686196,3005 7.026866,44.686174,3003 7.026862,44.686114,3001 7.026866,44.686074,3001 7.026862,44.686051,3000 7.026872,44.686022,2999 7.026894,44.685955,2999 7.026886,44.685987,2999 7.026890,44.685993,2999 7.026851,44.685933,2998 7.026851,44.685888,2998 7.026901,44.685811,2995 7.026920,44.685792,2994 7.026937,44.685781,2992 7.026980,44.685775,2991 7.026942,44.685772,2991 7.026926,44.685762,2991 7.026950,44.685749,2991 7.026965,44.685742,2991 7.026990,44.685690,2989 7.026998,44.685630,2988 7.027016,44.685601,2987 7.027010,44.685585,2986 7.027008,44.685541,2984 7.027001,44.685518,2982 7.027012,44.685518,2981 7.026997,44.685472,2982 7.027020,44.685431,2979 7.027033,44.685392,2977 7.027016,44.685369,2976 7.026981,44.685381,2977 7.027002,44.685349,2976 7.027017,44.685307,2974 7.026990,44.685305,2972 7.026992,44.685281,2970 7.026968,44.685262,2969 7.026951,44.685263,2967 7.026951,44.685227,2967 7.026973,44.685169,2964 7.026954,44.685165,2963 7.026936,44.685165,2962 7.026922,44.685153,2960 7.026913,44.685156,2959 7.026882,44.685163,2958 7.026859,44.685151,2957 7.026850,44.685151,2956 7.026802,44.685131,2954 7.026786,44.685098,2953 7.026802,44.685085,2952 7.026818,44.685052,2951 7.026803,44.685042,2951 7.026807,44.685027,2950 7.026815,44.684986,2949 7.026848,44.684916,2948 7.026823,44.684897,2947 7.026832,44.684829,2945 7.026822,44.684812,2945 7.026799,44.684788,2944 7.026796,44.684705,2942 7.026817,44.684658,2941 7.026842,44.684593,2939 7.026856,44.684553,2938 7.026783,44.684496,2937 7.026715,44.684386,2937 7.026655,44.684318,2936 7.026626,44.684220,2935 7.026625,44.684199,2934 7.026596,44.684156,2933 7.026594,44.684091,2930 7.026595,44.684070,2929 7.026610,44.684022,2929 7.026610,44.683993,2928 7.026623,44.683967,2927 7.026642,44.683946,2926 7.026634,44.683906,2925 7.026628,44.683880,2924 7.026631,44.683863,2922 7.026637,44.683826,2921 7.026639,44.683772,2920 7.026589,44.683688,2918 7.026567,44.683660,2918 7.026526,44.683627,2916 7.026508,44.683599,2915 7.026491,44.683541,2912 7.026509,44.683477,2910 7.026528,44.683441,2909 7.026561,44.683386,2908 7.026565,44.683275,2907 7.026538,44.683203,2906 7.026519,44.683155,2904 7.026528,44.683120,2902 7.026560,44.683085,2900 7.026560,44.683066,2898 7.026585,44.683023,2896 7.026574,44.682985,2894 7.026568,44.682968,2893 7.026595,44.682946,2892 7.026608,44.682914,2890 7.026602,44.682870,2888 7.026588,44.682841,2886 7.026593,44.682819,2886 7.026576,44.682792,2884 7.026566,44.682754,2883 7.026562,44.682721,2882 7.026537,44.682687,2881 7.026507,44.682644,2879 7.026497,44.682604,2877 7.026501,44.682580,2876 7.026532,44.682533,2874 7.026505,44.682479,2873 7.026493,44.682454,2872 7.026517,44.682434,2870 7.026577,44.682398,2869 7.026608,44.682365,2867 7.026616,44.682325,2866 7.026647,44.682297,2864 7.026706,44.682249,2863 7.026724,44.682193,2862 7.026738,44.682174,2861 7.026777,44.682127,2860 7.026799,44.682115,2860 7.026774,44.682111,2860 7.026734,44.682121,2860 7.026706,44.682113,2859 7.026690,44.682117,2860 7.026701,44.682116,2861 7.026769,44.682113,2861 7.026720,44.682101,2861 7.026722,44.682108,2862 7.026724,44.682119,2863 7.026761,44.682123,2863 7.026765,44.682110,2863 7.026787,44.682098,2863 7.026779,44.682098,2862 7.026764,44.682095,2862 7.026757,44.682095,2863 7.026758,44.682092,2863 7.026762,44.682107,2863 7.026800,44.682128,2863 7.026784,44.682133,2864 7.026766,44.682126,2864 7.026781,44.682096,2864 7.026785,44.682095,2864 7.026801,44.682117,2865 7.026808,44.682125,2870 7.026806,44.682121,2870 7.026826,44.682122,2870 7.026846,44.682099,2870 7.026831,44.682094,2869 7.026829,44.682094,2869 7.026858,44.682071,2869 7.026900,44.682030,2868 7.026956,44.682015,2867 7.026988,44.681978,2865 7.027022,44.681967,2864 7.027158,44.681888,2864 7.027356,44.681826,2864 7.027416,44.681817,2862 7.027415,44.681820,2862 7.027434,44.681821,2861 7.027463,44.681818,2860 7.027427,44.681851,2860 7.027486,44.681826,2860 7.027476,44.681828,2860 7.027480,44.681832,2860 7.027480,44.681826,2860 7.027532,44.681863,2860 7.027446,44.681837,2860 7.027416,44.681789,2860 7.027418,44.681792,2860 7.027467,44.681802,2860 7.027379,44.681760,2860 7.027304,44.681783,2860 7.027131,44.681814,2860 7.027090,44.681834,2861 7.027045,44.681831,2860 7.027026,44.681853,2859 7.026990,44.681862,2858 7.026927,44.681832,2857 7.026821,44.681770,2856 7.026773,44.681735,2856 7.026736,44.681680,2854 7.026639,44.681593,2854 7.026595,44.681555,2855 7.026532,44.681439,2855 7.026492,44.681401,2856 7.026464,44.681334,2858 7.026437,44.681275,2858 7.026407,44.681221,2860 7.026398,44.681159,2860 7.026407,44.681126,2860 7.026397,44.681000,2860 7.026400,44.680910,2858 7.026395,44.680823,2857 7.026397,44.680753,2856 7.026386,44.680647,2855 7.026369,44.680563,2854 7.026367,44.680482,2852 7.026365,44.680434,2851 7.026305,44.680268,2851 7.026285,44.680177,2850 7.026276,44.680134,2848 7.026269,44.680118,2846 7.026256,44.680092,2845 7.026264,44.680049,2844 7.026273,44.679983,2841 7.026268,44.679962,2840 7.026247,44.679913,2838 7.026236,44.679898,2836 7.026217,44.679835,2835 7.026184,44.679795,2834 7.026162,44.679781,2832 7.026137,44.679689,2831 7.026124,44.679687,2830 7.026128,44.679653,2829 7.026119,44.679599,2826 7.026126,44.679569,2825 7.026163,44.679540,2823 7.026176,44.679521,2822 7.026192,44.679486,2821 7.026202,44.679464,2819 7.026205,44.679451,2817 7.026205,44.679426,2815 7.026212,44.679414,2814 7.026230,44.679373,2813 7.026221,44.679337,2811 7.026218,44.679320,2809 7.026209,44.679271,2807 7.026220,44.679248,2806 7.026228,44.679225,2804 7.026228,44.679216,2802 7.026236,44.679195,2802 7.026272,44.679176,2800 7.026301,44.679189,2800 7.026301,44.679166,2801 7.026322,44.679197,2801 7.026315,44.679178,2800 7.026301,44.679179,2800 7.026304,44.679189,2800 7.026306,44.679176,2800 7.026305,44.679130,2799 7.026334,44.679105,2797 7.026351,44.679117,2797 7.026353,44.679124,2798 7.026335,44.679086,2796 7.026332,44.679028,2794 7.026332,44.678993,2793 7.026340,44.678964,2791 7.026357,44.678947,2791 7.026327,44.678901,2788 7.026320,44.678875,2787 7.026315,44.678841,2784 7.026352,44.678801,2783 7.026377,44.678773,2782 7.026372,44.678759,2781 7.026419,44.678708,2779 7.026433,44.678690,2778 7.026444,44.678684,2777 7.026449,44.678686,2777 7.026458,44.678678,2776 7.026437,44.678678,2775 7.026451,44.678716,2775 7.026401,44.678676,2775 7.026333,44.678637,2773 7.026323,44.678618,2772 7.026305,44.678574,2770 7.026345,44.678504,2769 7.026409,44.678427,2766 7.026465,44.678403,2764 7.026498,44.678351,2762 7.026488,44.678335,2761 7.026441,44.678303,2760 7.026422,44.678270,2758 7.026344,44.678245,2757 7.026300,44.678235,2755 7.026284,44.678238,2753 7.026207,44.678246,2752 7.026087,44.678261,2750 7.025997,44.678298,2750 7.025848,44.678380,2749 7.025791,44.678395,2749 7.025699,44.678443,2749 7.025528,44.678517,2749 7.025352,44.678592,2749 7.025315,44.678625,2749 7.025215,44.678640,2749 7.025150,44.678633,2748 7.025094,44.678624,2746 7.025067,44.678620,2745 7.024922,44.678626,2742 7.024888,44.678632,2742 7.024854,44.678602,2741 7.024830,44.678588,2738 7.024808,44.678587,2736 7.024771,44.678582,2734 7.024706,44.678581,2733 7.024669,44.678580,2732 7.024614,44.678593,2731 7.024594,44.678573,2730 7.024566,44.678561,2729 7.024542,44.678547,2727 7.024517,44.678516,2726 7.024478,44.678518,2725 7.024442,44.678489,2724 7.024410,44.678477,2721 7.024394,44.678449,2719 7.024393,44.678402,2717 7.024355,44.678401,2716 7.024302,44.678391,2715 7.024251,44.678370,2713 7.024200,44.678354,2711 7.024169,44.678348,2710 7.024118,44.678340,2709 7.024068,44.678330,2707 7.024027,44.678327,2706 7.023991,44.678326,2704 7.023929,44.678321,2702 7.023861,44.678301,2702 7.023813,44.678277,2700 7.023787,44.678281,2698 7.023709,44.678293,2696 7.023659,44.678288,2695 7.023618,44.678282,2694 7.023562,44.678269,2692 7.023540,44.678252,2690 7.023463,44.678212,2688 7.023428,44.678195,2686 7.023411,44.678177,2684 7.023384,44.678170,2683 7.023318,44.678155,2682 7.023250,44.678140,2680 7.023189,44.678141,2678 7.023251,44.678123,2678 7.023188,44.678116,2678 7.023167,44.678112,2676 7.023131,44.678119,2674 7.023051,44.678111,2673 7.023001,44.678095,2671 7.022937,44.678088,2669 7.022837,44.678065,2666 7.022790,44.678055,2665 7.022757,44.678059,2664 7.022709,44.678056,2662 7.022669,44.678067,2661 7.022625,44.678078,2660 7.022615,44.678045,2658 7.022555,44.678036,2656 7.022518,44.678038,2655 7.022487,44.678016,2654 7.022462,44.677990,2652 7.022416,44.677983,2651 7.022341,44.677988,2650 7.022356,44.677989,2649 7.022343,44.677998,2649 7.022359,44.677928,2649 7.022366,44.677874,2645 7.022362,44.677849,2643 7.022355,44.677788,2642 7.022356,44.677780,2641 7.022357,44.677758,2641 7.022336,44.677750,2639 7.022307,44.677710,2638 7.022306,44.677698,2636 7.022312,44.677672,2635 7.022316,44.677653,2634 7.022330,44.677629,2632 7.022344,44.677597,2632 7.022341,44.677589,2631 7.022325,44.677563,2629 7.022353,44.677518,2627 7.022361,44.677492,2625 7.022356,44.677484,2624 7.022369,44.677481,2625 7.022343,44.677482,2624 7.022367,44.677440,2623 7.022345,44.677413,2621 7.022317,44.677414,2620 7.022276,44.677413,2619 7.022208,44.677398,2617 7.022176,44.677382,2616 7.022138,44.677379,2614 7.022110,44.677357,2613 7.022118,44.677316,2610 7.022095,44.677292,2607 7.022078,44.677283,2606 7.022033,44.677253,2605 7.022000,44.677242,2603 7.021988,44.677227,2601 7.021977,44.677204,2600 7.021946,44.677187,2598 7.021928,44.677180,2597 7.021888,44.677160,2596 7.021859,44.677142,2594 7.021843,44.677139,2593 7.021806,44.677131,2591 7.021762,44.677135,2590 7.021704,44.677105,2587 7.021687,44.677072,2585 7.021677,44.677065,2583 7.021650,44.677041,2581 7.021576,44.677020,2579 7.021549,44.677011,2578 7.021482,44.677005,2576 7.021436,44.677021,2575 7.021443,44.677030,2575 7.021443,44.677036,2575 7.021429,44.677044,2575 7.021359,44.677025,2573 7.021343,44.677027,2572 7.021316,44.677057,2570 7.021280,44.677074,2569 7.021237,44.677074,2566 7.021232,44.677077,2565 7.021193,44.677095,2563 7.021178,44.677074,2562 7.021138,44.677044,2561 7.021093,44.677055,2559 7.021092,44.677043,2557 7.021049,44.677009,2555 7.021011,44.676979,2554 7.020991,44.676941,2553 7.020989,44.676946,2551 7.020951,44.676955,2550 7.020916,44.676935,2549 7.020887,44.676898,2547 7.020917,44.676887,2546 7.020901,44.676876,2545 7.020880,44.676883,2546 7.020844,44.676881,2546 7.020841,44.676862,2545 7.020891,44.676877,2544 7.020895,44.676853,2544 7.020878,44.676820,2543 7.020849,44.676776,2541 7.020826,44.676753,2540 7.020796,44.676746,2539 7.020769,44.676737,2538 7.020726,44.676708,2536 7.020702,44.676701,2534 7.020685,44.676704,2533 7.020643,44.676701,2531 7.020629,44.676693,2530 7.020597,44.676690,2528 7.020570,44.676655,2526 7.020553,44.676654,2525 7.020531,44.676625,2524 7.020509,44.676609,2523 7.020495,44.676612,2522 7.020482,44.676596,2521 7.020458,44.676575,2520 7.020489,44.676562,2519 7.020502,44.676542,2521 7.020489,44.676524,2520 7.020470,44.676513,2519 7.020496,44.676501,2519 7.020425,44.676548,2519 7.020475,44.676506,2520 7.020478,44.676504,2520 7.020492,44.676517,2520 7.020461,44.676531,2520 7.020465,44.676519,2520 7.020462,44.676535,2520 7.020459,44.676520,2520 7.020437,44.676523,2520 7.020456,44.676529,2520 7.020449,44.676525,2520 7.020458,44.676511,2519 7.020434,44.676453,2519 7.020400,44.676424,2518 7.020361,44.676410,2516 7.020343,44.676396,2515 7.020298,44.676365,2513 7.020271,44.676354,2512 7.020252,44.676338,2512 7.020209,44.676341,2510 7.020191,44.676304,2509 7.020157,44.676302,2508 7.020139,44.676286,2505 7.020096,44.676274,2504 7.020081,44.676277,2504 7.020031,44.676245,2501 7.019991,44.676232,2500 7.019914,44.676231,2498 7.019881,44.676188,2496 7.019877,44.676161,2495 7.019862,44.676154,2494 7.019849,44.676119,2491 7.019850,44.676073,2489 7.019819,44.676069,2487 7.019800,44.676030,2485 7.019800,44.676005,2484 7.019789,44.675962,2483 7.019783,44.675930,2480 7.019765,44.675898,2478 7.019727,44.675887,2477 7.019703,44.675888,2475 7.019692,44.675870,2474 7.019695,44.675864,2472 7.019679,44.675840,2471 7.019674,44.675812,2470 7.019689,44.675805,2468 7.019615,44.675836,2468 7.019564,44.675839,2466 7.019530,44.675832,2464 7.019508,44.675830,2462 7.019448,44.675833,2461 7.019385,44.675838,2459 7.019329,44.675837,2457 7.019293,44.675833,2455 7.019241,44.675847,2453 7.019217,44.675847,2452 7.019168,44.675836,2450 7.019129,44.675829,2448 7.019084,44.675826,2447 7.019047,44.675818,2445 7.019020,44.675813,2444 7.018969,44.675796,2442 7.018933,44.675787,2440 7.018908,44.675802,2438 7.018841,44.675798,2436 7.018819,44.675806,2435 7.018777,44.675817,2434 7.018789,44.675815,2434 7.018779,44.675797,2433 7.018763,44.675800,2432 7.018720,44.675807,2430 7.018705,44.675798,2429 7.018654,44.675806,2428 7.018631,44.675796,2427 7.018618,44.675789,2425 7.018608,44.675764,2424 7.018571,44.675736,2423 7.018522,44.675734,2421 7.018489,44.675741,2420 7.018473,44.675748,2418 7.018454,44.675741,2416 7.018394,44.675713,2415 7.018369,44.675690,2414 7.018338,44.675670,2412 7.018321,44.675668,2411 7.018287,44.675653,2410 7.018261,44.675635,2408 7.018240,44.675625,2407 7.018210,44.675608,2406 7.018153,44.675597,2404 7.018149,44.675593,2403 7.018095,44.675565,2402 7.018033,44.675541,2400 7.018008,44.675521,2398 7.017962,44.675488,2396 7.017919,44.675458,2396 7.017935,44.675452,2394 7.017963,44.675449,2394 7.017945,44.675430,2395 7.017923,44.675423,2395 7.017897,44.675426,2394 7.017993,44.675423,2393 7.017985,44.675414,2392 7.017958,44.675412,2393 7.018050,44.675415,2393 7.018064,44.675370,2391 7.018105,44.675338,2391 7.018070,44.675328,2390 7.018078,44.675346,2390 7.018087,44.675334,2390 7.018108,44.675324,2389 7.018130,44.675305,2390 7.018130,44.675303,2389 7.018113,44.675266,2386 7.018130,44.675270,2386 7.018146,44.675250,2385 7.018174,44.675225,2384 7.018160,44.675210,2382 7.018108,44.675204,2382 7.018096,44.675187,2380 7.018083,44.675171,2378 7.018045,44.675162,2378 7.018040,44.675146,2376 7.018042,44.675115,2375 7.018046,44.675093,2374 7.018025,44.675075,2373 7.018018,44.675103,2372 7.018046,44.675078,2373 7.017986,44.675099,2374 7.018006,44.675083,2372 7.018017,44.675072,2370 7.017992,44.675077,2368 7.017996,44.675062,2367 7.017996,44.675039,2366 7.018000,44.675020,2365 7.018005,44.674999,2364 7.018012,44.675004,2364 7.018024,44.674995,2362 7.018034,44.674982,2363 7.018050,44.674974,2363 7.018012,44.674966,2361 7.017997,44.674944,2360 7.018022,44.674926,2359 7.017998,44.674914,2358 7.018008,44.674904,2357 7.018037,44.674882,2355 7.018035,44.674862,2354 7.018022,44.674865,2352 7.018036,44.674877,2351 7.018045,44.674854,2351 7.018024,44.674857,2350 7.017993,44.674830,2349 7.017977,44.674854,2348 7.017940,44.674838,2348 7.017926,44.674846,2348 7.017932,44.674844,2349 7.017949,44.674844,2350 7.017916,44.674840,2348 7.017919,44.674845,2349 7.017892,44.674859,2349 7.017851,44.674875,2348 7.017843,44.674895,2348 7.017808,44.674895,2347 7.017805,44.674883,2346 7.017815,44.674897,2346 7.017783,44.674904,2346 7.017815,44.674889,2346 7.017808,44.674890,2346 7.017786,44.674892,2345 7.017797,44.674887,2345 7.017804,44.674891,2345 7.017795,44.674861,2344 7.017786,44.674851,2343 7.017765,44.674841,2342 7.017730,44.674835,2341 7.017688,44.674820,2339 7.017682,44.674774,2337 7.017684,44.674784,2337 7.017674,44.674758,2336 7.017675,44.674739,2335 7.017686,44.674751,2335 7.017697,44.674705,2334 7.017712,44.674687,2332 7.017730,44.674676,2330 7.017676,44.674655,2329 7.017662,44.674664,2328 7.017691,44.674658,2328 7.017646,44.674651,2327 7.017666,44.674629,2326 7.017667,44.674626,2324 7.017630,44.674603,2324 7.017651,44.674601,2322 7.017650,44.674597,2321 7.017680,44.674550,2320 7.017704,44.674547,2320 7.017655,44.674516,2318 7.017624,44.674512,2317 7.017612,44.674517,2316 7.017575,44.674518,2315 7.017531,44.674519,2313 7.017520,44.674506,2312 7.017514,44.674482,2311 7.017475,44.674466,2310 7.017460,44.674461,2308 7.017408,44.674462,2307 7.017418,44.674443,2306 7.017342,44.674442,2304 7.017369,44.674436,2304 7.017351,44.674393,2303 7.017335,44.674380,2302 7.017306,44.674347,2300 7.017306,44.674357,2300 7.017301,44.674300,2299 7.017310,44.674293,2298 7.017311,44.674294,2297 7.017306,44.674285,2296 7.017305,44.674254,2296 7.017258,44.674289,2298 7.017218,44.674304,2299 7.017265,44.674288,2299 7.017281,44.674315,2299 7.017301,44.674303,2299 7.017314,44.674272,2298 7.017342,44.674273,2297 7.017303,44.674278,2297 7.017304,44.674292,2298 7.017230,44.674341,2299 7.017256,44.674343,2298 7.017238,44.674352,2298 7.017211,44.674390,2297 7.017208,44.674413,2297 7.017208,44.674404,2296 7.017178,44.674387,2295 7.017152,44.674378,2294 7.017142,44.674381,2294 7.017152,44.674394,2293 7.017137,44.674391,2292 7.017119,44.674377,2291 7.017104,44.674377,2291 7.017102,44.674383,2290 7.017087,44.674433,2289 7.017089,44.674413,2288 7.017073,44.674434,2287 7.017031,44.674436,2286 7.017000,44.674423,2286 7.016985,44.674414,2285 7.016989,44.674357,2284 7.016974,44.674347,2284 7.016970,44.674369,2282 7.016940,44.674358,2281 7.016919,44.674339,2280 7.016890,44.674326,2279 7.016883,44.674342,2278 7.016872,44.674330,2277 7.016822,44.674324,2276 7.016809,44.674314,2276 7.016771,44.674305,2275 7.016791,44.674281,2274 7.016787,44.674257,2272 7.016776,44.674244,2271 7.016777,44.674220,2270 7.016771,44.674186,2268 7.016770,44.674178,2268 7.016752,44.674168,2267 7.016712,44.674168,2266 7.016687,44.674126,2265 7.016671,44.674128,2263 7.016728,44.674194,2264 7.016678,44.674163,2264 7.016563,44.674144,2261 7.016522,44.674136,2260 7.016495,44.674135,2259 7.016479,44.674129,2258 7.016448,44.674120,2258 7.016438,44.674106,2256 7.016450,44.674073,2255 7.016407,44.674078,2254 7.016396,44.674051,2252 7.016389,44.674052,2251 7.016324,44.674066,2250 7.016332,44.674068,2250 7.016307,44.674057,2250 7.016280,44.674072,2248 7.016195,44.674055,2249 7.016157,44.673944,2248 7.016159,44.673878,2249 7.016131,44.673920,2249 7.016118,44.673909,2250 7.016148,44.673868,2251 7.016153,44.673894,2251 7.016141,44.673909,2251 7.016138,44.673906,2251 7.016149,44.673902,2252 7.016144,44.673912,2253 7.016128,44.673898,2254 7.016098,44.673924,2255 7.016105,44.673930,2254 7.016150,44.673935,2255 7.016087,44.673939,2256 7.016105,44.673923,2256 7.016170,44.673798,2254 7.016157,44.673775,2253 7.016165,44.673689,2252 7.016160,44.673677,2251 7.016122,44.673633,2249 7.016122,44.673626,2249 7.016131,44.673589,2248 7.016111,44.673526,2246 7.016049,44.673476,2246 7.016084,44.673424,2245 7.016069,44.673410,2244 7.016096,44.673401,2244 7.016189,44.673409,2244 7.016090,44.673405,2245 7.016059,44.673334,2244 7.016114,44.673382,2243 7.016077,44.673416,2243 7.016090,44.673409,2243 7.016068,44.673421,2243 7.016003,44.673401,2243 7.016053,44.673404,2243 7.016092,44.673391,2243 7.016029,44.673418,2243 7.016069,44.673389,2243 7.016074,44.673455,2243 7.016076,44.673407,2244 7.016006,44.673387,2244 7.016055,44.673401,2244 7.016050,44.673403,2244 7.015995,44.673509,2244 7.015998,44.673418,2244 7.016051,44.673413,2244 7.016045,44.673392,2245 7.016089,44.673391,2245 7.016069,44.673400,2245 7.016072,44.673390,2244 7.016089,44.673397,2244 7.016117,44.673375,2244 7.016096,44.673380,2244 7.016092,44.673351,2244 7.016076,44.673394,2243 7.016066,44.673368,2243 7.016071,44.673362,2243 7.016115,44.673368,2243 7.016095,44.673384,2243 7.016067,44.673412,2243 7.016058,44.673425,2243 7.016060,44.673426,2243 7.016092,44.673395,2243 7.016103,44.673382,2244 7.016094,44.673363,2244 7.016082,44.673383,2244 7.016076,44.673413,2245 7.016079,44.673411,2245 7.016090,44.673421,2246 7.016105,44.673409,2246 7.016092,44.673386,2245 7.016112,44.673371,2245 7.016125,44.673367,2245 7.016117,44.673356,2245 7.016093,44.673337,2244 7.016067,44.673415,2244 7.016059,44.673440,2243 7.016127,44.673398,2244 7.016056,44.673440,2243 7.016075,44.673430,2243 7.016068,44.673431,2243 7.016085,44.673428,2243 7.016083,44.673430,2243 7.016077,44.673411,2244 7.016080,44.673376,2244 7.016062,44.673405,2243 7.016020,44.673413,2244 7.016088,44.673383,2244 7.016084,44.673395,2245 7.016080,44.673415,2244 7.016132,44.673388,2243 7.016169,44.673384,2242 7.016199,44.673335,2242 7.016171,44.673280,2241 7.016194,44.673203,2240 7.016205,44.673196,2239 7.016235,44.673109,2236 7.016241,44.673078,2235 7.016284,44.673041,2234 7.016340,44.673010,2232 7.016337,44.672985,2231 7.016291,44.672911,2230 7.016293,44.672829,2229 7.016315,44.672687,2227 7.016336,44.672591,2225 7.016346,44.672463,2223 7.016380,44.672397,2222 7.016423,44.672367,2222 7.016421,44.672349,2221 7.016458,44.672311,2219 7.016511,44.672254,2218 7.016502,44.672196,2217 7.016454,44.672126,2216 7.016435,44.672080,2213 7.016451,44.671989,2215 7.016452,44.671923,2212 7.016426,44.671856,2211 7.016421,44.671855,2210 7.016423,44.671867,2208 7.016433,44.671863,2208 7.016404,44.671853,2209 7.016411,44.671863,2209 7.016411,44.671841,2209 7.016465,44.671802,2208 7.016540,44.671831,2208 7.016640,44.671830,2208 7.016714,44.671790,2207 7.016910,44.671792,2208 7.016945,44.671792,2208 7.016933,44.671831,2207 7.017043,44.671845,2208 7.017097,44.671825,2209 7.017212,44.671830,2209 7.017362,44.671873,2208 7.017394,44.671883,2207 7.017653,44.671866,2207 7.017753,44.671820,2206 7.017902,44.671791,2205 7.017975,44.671794,2204 7.017955,44.671804,2205 7.018332,44.671839,2205 7.018523,44.671912,2205 7.018632,44.671914,2205 7.018792,44.671956,2204 7.018971,44.671970,2203 7.018976,44.671925,2203 7.019016,44.671957,2203 7.019178,44.672016,2203 7.019306,44.672034,2202 7.019574,44.672112,2202 7.019722,44.672193,2202 7.019832,44.672252,2202 7.019834,44.672223,2202 7.019863,44.672239,2202 7.020014,44.672317,2203 7.020098,44.672357,2204 7.020216,44.672356,2205 7.020365,44.672298,2205 7.020491,44.672315,2205 7.020738,44.672414,2204 7.020946,44.672435,2205 7.021082,44.672397,2206 7.021262,44.672263,2206 7.021426,44.672116,2207 7.021566,44.671988,2207 7.021782,44.671912,2207 7.021900,44.671832,2206 7.022200,44.671789,2207 7.022514,44.671721,2207 7.022792,44.671734,2207 7.022853,44.671746,2207 7.023204,44.671848,2208 7.023361,44.671864,2208 7.023489,44.671839,2209 7.023643,44.671821,2209 7.023827,44.671807,2209 7.024075,44.671779,2210 7.024317,44.671757,2211 7.024440,44.671720,2211 7.024594,44.671648,2212 7.024709,44.671611,2214 7.024822,44.671610,2215 7.025134,44.671593,2215 7.025376,44.671559,2217 7.025531,44.671542,2217 7.025778,44.671510,2217 7.026046,44.671547,2217 7.026053,44.671529,2217 7.026078,44.671561,2217 7.026083,44.671518,2217 7.026091,44.671531,2217 7.026076,44.671521,2217 7.026080,44.671585,2217 7.026083,44.671587,2217 7.026082,44.671593,2217 7.026082,44.671598,2217 7.026073,44.671559,2217 7.026098,44.671563,2217 7.026074,44.671529,2217 7.026062,44.671540,2217 7.026053,44.671537,2217 7.026068,44.671561,2217 7.026071,44.671538,2217 7.026060,44.671528,2217 7.026080,44.671550,2217 7.026066,44.671548,2217 7.026090,44.671523,2217 7.026090,44.671520,2218 7.026088,44.671523,2218 7.026064,44.671551,2218 7.026082,44.671525,2218 7.026076,44.671552,2218 7.026084,44.671555,2218 7.026058,44.671561,2219 7.026059,44.671563,2219 7.026075,44.671540,2219 7.026105,44.671550,2219 7.026075,44.671545,2219 7.026092,44.671539,2219 7.026058,44.671507,2219 7.026051,44.671478,2219 7.026043,44.671515,2219 7.026088,44.671542,2219 7.026062,44.671541,2219 7.026040,44.671537,2219 7.026041,44.671522,2219 7.026047,44.671530,2219 7.026036,44.671546,2219 7.026054,44.671602,2219 7.026047,44.671587,2219 7.026027,44.671578,2219 7.026030,44.671567,2219 7.026073,44.671551,2219 7.026070,44.671584,2219 7.026120,44.671560,2219 7.026092,44.671535,2219 7.026082,44.671558,2219 7.026075,44.671515,2220 7.026085,44.671540,2219 7.026081,44.671571,2219 7.026076,44.671544,2219 7.026089,44.671558,2220 7.026089,44.671558,2221 7.026089,44.671558,2222 7.026096,44.671543,2222 7.026072,44.671532,2222 7.026077,44.671537,2222 7.026088,44.671544,2222 7.026088,44.671544,2223 7.026088,44.671544,2223 7.026088,44.671544,2223 7.026088,44.671544,2223 7.026093,44.671531,2223 7.026093,44.671556,2223 7.026069,44.671570,2223 7.026071,44.671554,2223 7.026070,44.671566,2224 7.026069,44.671550,2223 7.026092,44.671533,2223 7.026064,44.671553,2223 7.026067,44.671543,2223 7.026062,44.671531,2223 7.026065,44.671547,2222 7.026052,44.671511,2223 7.026061,44.671519,2223 7.026054,44.671537,2223 7.026064,44.671539,2223 7.026064,44.671544,2223 7.026064,44.671525,2223 7.026067,44.671543,2223 7.026085,44.671529,2223 7.026111,44.671534,2223 7.026113,44.671523,2223 7.026117,44.671525,2223 7.026105,44.671531,2223 7.026050,44.671546,2223 7.026078,44.671527,2223 7.026052,44.671570,2222 7.026052,44.671553,2222 7.026061,44.671552,2222 7.026090,44.671527,2222 7.026078,44.671529,2222 7.026089,44.671539,2222 7.026083,44.671517,2222 7.026117,44.671511,2222 7.026091,44.671522,2223 7.026058,44.671544,2223 7.026063,44.671548,2223 7.026172,44.671546,2223 7.026308,44.671501,2223 7.026430,44.671543,2224 7.026472,44.671555,2224 7.026618,44.671548,2225 7.026812,44.671550,2225 7.026899,44.671586,2226 7.026996,44.671537,2227 7.027068,44.671561,2227 7.027116,44.671612,2228 7.027170,44.671633,2229 7.027226,44.671676,2229 7.027350,44.671681,2230 7.027433,44.671698,2231 7.027498,44.671717,2233 7.027570,44.671726,2234 7.027638,44.671724,2235 7.027720,44.671732,2235 7.027818,44.671754,2236 7.027905,44.671771,2237 7.027987,44.671786,2238 7.028050,44.671808,2239 7.028146,44.671831,2240 7.028187,44.671840,2241 7.028226,44.671848,2241 7.028250,44.671856,2241 7.028375,44.671884,2243 7.028473,44.671919,2243 7.028640,44.671982,2245 7.028711,44.671987,2247 7.028784,44.672038,2248 7.028859,44.672072,2249 7.028904,44.672078,2250 7.028968,44.672111,2250 7.029045,44.672114,2252 7.029129,44.672106,2252 7.029212,44.672103,2253 7.029267,44.672111,2254 7.029340,44.672117,2255 7.029409,44.672127,2256 7.029618,44.672171,2257 7.029726,44.672200,2258 7.029802,44.672220,2258 7.029953,44.672259,2259 7.030158,44.672356,2260 7.030275,44.672391,2261 7.030340,44.672419,2262 7.030381,44.672443,2263 7.030475,44.672468,2264 7.030532,44.672490,2265 7.030557,44.672519,2266 7.030553,44.672521,2266 7.030559,44.672526,2266 7.030584,44.672528,2266 7.030577,44.672527,2265 7.030568,44.672541,2265 7.030572,44.672521,2265 7.030563,44.672526,2266 7.030567,44.672530,2265 7.030657,44.672581,2266 7.030748,44.672614,2267 7.030844,44.672643,2268 7.030967,44.672622,2269 7.030967,44.672614,2270 7.030952,44.672637,2269 7.030954,44.672648,2270 7.030942,44.672627,2270 7.030905,44.672653,2270 7.030866,44.672666,2269 7.030883,44.672667,2269 7.030871,44.672653,2268 7.030887,44.672662,2267 7.030879,44.672647,2266 7.030890,44.672658,2265 7.030849,44.672656,2264 7.030889,44.672639,2263 7.030891,44.672643,2261 7.030896,44.672642,2258 7.030868,44.672657,2262 7.030861,44.672659,2262 7.030935,44.672654,2263 7.030942,44.672651,2263 7.031000,44.672570,2264 7.031057,44.672596,2265 7.031100,44.672635,2266 7.031117,44.672642,2268 7.031171,44.672661,2268 7.031213,44.672687,2270 7.031238,44.672693,2271 7.031269,44.672709,2270 7.031307,44.672759,2271 7.031324,44.672767,2272 7.031368,44.672791,2273 7.031392,44.672832,2274 7.031456,44.672837,2276 7.031497,44.672839,2276 7.031550,44.672855,2277 7.031611,44.672864,2278 7.031648,44.672900,2279 7.031692,44.672916,2281 7.031781,44.672934,2282 7.031858,44.672954,2283 7.031958,44.672987,2284 7.032018,44.673017,2285 7.032044,44.673035,2286 7.032105,44.673073,2287 7.032154,44.673082,2288 7.032250,44.673093,2289 7.032285,44.673102,2290 7.032333,44.673124,2291 7.032402,44.673157,2293 7.032434,44.673175,2294 7.032445,44.673174,2295 7.032503,44.673169,2296 7.032569,44.673199,2298 7.032647,44.673208,2299 7.032720,44.673217,2300 7.032753,44.673232,2301 7.032754,44.673239,2302 7.032818,44.673278,2303 7.032885,44.673310,2305 7.032943,44.673348,2306 7.033001,44.673384,2307 7.033061,44.673402,2308 7.033136,44.673438,2309 7.033178,44.673450,2310 7.033197,44.673453,2311 7.033249,44.673467,2312 7.033294,44.673499,2313 7.033352,44.673538,2314 7.033407,44.673545,2315 7.033451,44.673567,2317 7.033486,44.673606,2318 7.033504,44.673637,2319 7.033524,44.673660,2320 7.033572,44.673674,2321 7.033581,44.673686,2322 7.033627,44.673703,2323 7.033672,44.673745,2324 7.033697,44.673788,2325 7.033733,44.673823,2326 7.033747,44.673863,2327 7.033828,44.673892,2329 7.033851,44.673901,2330 7.033916,44.673947,2331 7.033982,44.673976,2333 7.034031,44.674035,2334 7.034124,44.674082,2336 7.034195,44.674100,2337 7.034213,44.674119,2338 7.034259,44.674170,2339 7.034313,44.674206,2340 7.034389,44.674241,2341 7.034435,44.674264,2342 7.034490,44.674297,2343 7.034555,44.674310,2344 7.034614,44.674337,2345 7.034659,44.674352,2347 7.034710,44.674379,2348 7.034795,44.674392,2349 7.034861,44.674408,2350 7.034915,44.674419,2351 7.034999,44.674414,2352 7.035087,44.674433,2353 7.035136,44.674417,2354 7.035162,44.674432,2354 7.035299,44.674457,2356 7.035335,44.674491,2356 7.035399,44.674510,2356 7.035484,44.674523,2357 7.035551,44.674520,2358 7.035615,44.674530,2359 7.035668,44.674558,2360 7.035728,44.674588,2362 7.035785,44.674605,2363 7.035826,44.674618,2364 7.035873,44.674640,2365 7.035892,44.674654,2366 7.035979,44.674650,2366 7.036027,44.674673,2368 7.036093,44.674698,2369 7.036153,44.674716,2370 7.036295,44.674745,2369 7.036486,44.674772,2370 7.036575,44.674767,2370 7.036650,44.674761,2372 7.036807,44.674767,2372 7.036936,44.674787,2373 7.037022,44.674760,2374 7.037112,44.674765,2375 7.037203,44.674805,2376 7.037266,44.674821,2377 7.037339,44.674851,2378 7.037437,44.674865,2379 7.037669,44.674946,2379 7.037835,44.674980,2380 7.037949,44.675049,2381 7.038098,44.675106,2382 7.038197,44.675130,2383 7.038318,44.675165,2385 7.038385,44.675188,2386 7.038479,44.675173,2387 7.038515,44.675175,2388 7.038596,44.675188,2389 7.038626,44.675199,2391 7.038691,44.675213,2392 7.038777,44.675205,2394 7.038859,44.675216,2395 7.038886,44.675221,2396 7.038936,44.675251,2397 7.038996,44.675278,2398 7.039062,44.675282,2399 7.039091,44.675282,2400 7.039171,44.675318,2401 7.039254,44.675335,2403 7.039388,44.675351,2405 7.039461,44.675339,2406 7.039503,44.675338,2407 7.039648,44.675329,2408 7.039701,44.675342,2409 7.039750,44.675337,2411 7.039811,44.675323,2413 7.039878,44.675322,2414 7.039952,44.675311,2416 7.039985,44.675329,2416 7.040001,44.675340,2417 7.040054,44.675363,2418 7.040121,44.675370,2419 7.040198,44.675362,2420 7.040258,44.675374,2422 7.040315,44.675375,2423 7.040379,44.675346,2424 7.040469,44.675331,2425 7.040469,44.675336,2426 7.040500,44.675331,2427 7.040564,44.675324,2428 7.040616,44.675327,2429 7.040684,44.675329,2430 7.040708,44.675346,2431 7.040782,44.675374,2432 7.040853,44.675373,2434 7.040825,44.675371,2435 7.040807,44.675374,2435 7.040860,44.675343,2435 7.040897,44.675389,2436 7.040931,44.675421,2438 7.040974,44.675426,2439 7.040983,44.675415,2439 7.040973,44.675412,2439 7.041001,44.675415,2440 7.041094,44.675408,2440 7.041194,44.675397,2441 7.041254,44.675393,2442 7.041314,44.675396,2443 7.041318,44.675427,2444 7.041375,44.675445,2445 7.041444,44.675451,2448 7.041469,44.675448,2449 7.041500,44.675448,2450 7.041528,44.675477,2451 7.041534,44.675494,2451 7.041574,44.675508,2452 7.041621,44.675519,2453 7.041672,44.675570,2454 7.041702,44.675602,2455 7.041832,44.675627,2456 7.041864,44.675647,2457 7.041867,44.675679,2458 7.041919,44.675697,2460 7.041979,44.675700,2461 7.042031,44.675729,2463 7.042043,44.675758,2464 7.042050,44.675767,2465 7.042113,44.675787,2467 7.042145,44.675786,2467 7.042173,44.675787,2468 7.042223,44.675812,2471 7.042245,44.675814,2472 7.042304,44.675834,2473 7.042333,44.675843,2475 7.042372,44.675868,2476 7.042392,44.675876,2476 7.042395,44.675909,2478 7.042377,44.675956,2479 7.042389,44.675980,2480 7.042417,44.675999,2482 7.042437,44.676015,2483 7.042458,44.676028,2486 7.042463,44.676041,2488 7.042517,44.676048,2488 7.042493,44.676041,2489 7.042510,44.676054,2492 7.042585,44.676111,2493 7.042628,44.676126,2492 7.042640,44.676111,2492 7.042643,44.676095,2492 7.042596,44.676075,2491 7.042587,44.676057,2492 7.042598,44.676043,2494 7.042622,44.676054,2496 7.042666,44.676076,2496 7.042646,44.676089,2497 7.042606,44.676046,2497 7.042621,44.676071,2496 7.042597,44.676062,2495 7.042593,44.676059,2495 7.042636,44.676101,2495 7.042613,44.676047,2494 7.042589,44.676066,2496 7.042581,44.676099,2495 7.042601,44.676115,2495 7.042534,44.676167,2495 7.042589,44.676054,2495 7.042653,44.676113,2495 7.042660,44.676128,2495 7.042512,44.676105,2494 7.042556,44.676088,2495 7.042623,44.676086,2495 7.042624,44.676111,2495 7.042654,44.676080,2495 7.042626,44.676102,2494 7.042573,44.676064,2494 7.042504,44.676005,2493 7.042477,44.675997,2492 7.042385,44.675962,2491 7.042380,44.675925,2490 7.042363,44.675900,2489 7.042324,44.675872,2487 7.042277,44.675841,2485 7.042240,44.675819,2484 7.042232,44.675793,2482 7.042183,44.675804,2481 7.042181,44.675765,2480 7.042198,44.675742,2478 7.042223,44.675708,2476 7.042268,44.675685,2475 7.042322,44.675701,2474 7.042344,44.675681,2473 7.042375,44.675664,2472 7.042374,44.675653,2471 7.042400,44.675648,2471 7.042416,44.675643,2471 7.042412,44.675645,2471 7.042509,44.675682,2470 7.042423,44.675647,2471 7.042394,44.675653,2472 7.042601,44.676099,2499 7.042582,44.676096,2499 7.042612,44.676132,2498 7.042600,44.676150,2498 7.042637,44.676082,2497 7.042600,44.676099,2497 7.042714,44.676190,2499 7.042758,44.676210,2500 7.042779,44.676198,2501 7.042833,44.676221,2502 7.042932,44.676287,2504 7.043032,44.676333,2506 7.043123,44.676368,2505 7.043265,44.676405,2504 7.043463,44.676397,2506 7.043540,44.676365,2507 7.043607,44.676389,2508 7.043651,44.676401,2509 7.043783,44.676441,2511 7.043853,44.676492,2512 7.043936,44.676519,2515 7.044056,44.676535,2515 7.044147,44.676524,2517 7.044188,44.676553,2517 7.044243,44.676600,2517 7.044347,44.676643,2518 7.044460,44.676658,2519 7.044675,44.676708,2519 7.044793,44.676734,2520 7.044884,44.676726,2521 7.044968,44.676693,2523 7.045001,44.676688,2524 7.045074,44.676691,2525 7.045151,44.676706,2526 7.045216,44.676715,2527 7.045329,44.676683,2528 7.045412,44.676716,2530 7.045512,44.676776,2531 7.045630,44.676785,2532 7.045738,44.676780,2533 7.045786,44.676789,2533 7.045823,44.676793,2533 7.045952,44.676830,2533 7.046051,44.676834,2534 7.046079,44.676831,2535 7.046166,44.676819,2536 7.046260,44.676806,2537 7.046386,44.676818,2539 7.046452,44.676845,2540 7.046505,44.676867,2541 7.046546,44.676885,2542 7.046633,44.676913,2543 7.046690,44.676929,2544 7.046830,44.676946,2545 7.046919,44.676977,2545 7.047028,44.677021,2546 7.047159,44.677053,2547 7.047234,44.677081,2548 7.047279,44.677096,2548 7.047346,44.677090,2549 7.047467,44.677081,2550 7.047696,44.677055,2550 7.047872,44.677059,2550 7.047990,44.677030,2551 7.047935,44.676974,2551 7.047970,44.677019,2551 7.048004,44.677008,2551 7.047986,44.677002,2551 7.047982,44.676961,2550 7.047998,44.676975,2550 7.047969,44.676969,2549 7.047970,44.676936,2549 7.047991,44.676955,2549 7.048007,44.676968,2550</coordinates></LineString></Placemark></Document></kml>