<?xml version="1.0" encoding="UTF-8"?>
<kml xmlns="http://www.opengis.net/kml/2.2"><Document><name>Alta Linea Continua – Stage 18: Refuge du Chambeyron to Grange dell'Autaret</name><Style id="l"><LineStyle><color>ff2b30c4</color><width>4</width></LineStyle></Style><Placemark><name>Alta Linea Continua – Stage 18: Refuge du Chambeyron to Grange dell'Autaret</name><styleUrl>#l</styleUrl><LineString><tessellate>1</tessellate><altitudeMode>clampToGround</altitudeMode><coordinates>6.836030,44.530284,2618 6.836125,44.530407,2617 6.836197,44.530495,2616 6.836257,44.530623,2616 6.836358,44.530889,2616 6.836541,44.531056,2617 6.836662,44.531107,2618 6.836766,44.531163,2619 6.836805,44.531197,2620 6.836841,44.531224,2621 6.836878,44.531246,2621 6.836930,44.531286,2622 6.836998,44.531412,2623 6.837100,44.531535,2624 6.837186,44.531657,2626 6.837245,44.531812,2627 6.837350,44.531932,2628 6.837369,44.531996,2629 6.837399,44.532144,2628 6.837478,44.532196,2627 6.837591,44.532214,2629 6.837800,44.532218,2631 6.837906,44.532245,2632 6.837983,44.532300,2634 6.838015,44.532354,2635 6.838061,44.532411,2637 6.838085,44.532430,2638 6.838192,44.532491,2640 6.838208,44.532531,2641 6.838255,44.532573,2642 6.838344,44.532586,2643 6.838393,44.532594,2644 6.838402,44.532633,2646 6.838376,44.532683,2648 6.838403,44.532696,2649 6.838433,44.532702,2650 6.838480,44.532721,2651 6.838537,44.532730,2652 6.838619,44.532739,2654 6.838658,44.532711,2655 6.838701,44.532688,2656 6.838734,44.532676,2657 6.838874,44.532670,2657 6.838966,44.532678,2658 6.839054,44.532691,2660 6.839127,44.532737,2661 6.839188,44.532773,2662 6.839280,44.532803,2663 6.839379,44.532802,2664 6.839462,44.532805,2665 6.839467,44.532808,2665 6.839488,44.532822,2666 6.839533,44.532854,2667 6.839566,44.532895,2669 6.839628,44.532924,2670 6.839689,44.532938,2671 6.839746,44.532969,2672 6.839796,44.532972,2673 6.839839,44.532972,2674 6.839914,44.532955,2676 6.839920,44.532959,2677 6.839946,44.533000,2679 6.839957,44.533024,2680 6.840031,44.532997,2681 6.840041,44.533013,2682 6.840046,44.533052,2683 6.840033,44.533084,2685 6.840066,44.533114,2686 6.840150,44.533107,2687 6.840187,44.533100,2689 6.840285,44.533109,2690 6.840389,44.533128,2691 6.840435,44.533143,2692 6.840667,44.533214,2691 6.840846,44.533247,2693 6.840918,44.533265,2694 6.841042,44.533274,2694 6.841215,44.533328,2696 6.841262,44.533366,2697 6.841298,44.533384,2698 6.841307,44.533377,2698 6.841329,44.533358,2699 6.841371,44.533334,2700 6.841401,44.533304,2701 6.841476,44.533267,2703 6.841526,44.533245,2704 6.841532,44.533242,2705 6.841589,44.533210,2707 6.841668,44.533176,2709 6.841719,44.533181,2710 6.841757,44.533184,2711 6.841843,44.533184,2713 6.841877,44.533160,2714 6.841913,44.533135,2715 6.841953,44.533099,2716 6.842021,44.533062,2718 6.842043,44.533046,2719 6.842070,44.533015,2720 6.842084,44.532981,2721 6.842148,44.532926,2722 6.842248,44.532904,2723 6.842365,44.532923,2724 6.842590,44.533006,2724 6.842688,44.532982,2726 6.842728,44.532956,2727 6.842755,44.532911,2728 6.842770,44.532890,2729 6.842821,44.532869,2729 6.843006,44.532892,2731 6.843104,44.532910,2733 6.843113,44.532911,2734 6.843156,44.532939,2735 6.843179,44.532939,2736 6.843209,44.532960,2737 6.843249,44.532979,2738 6.843272,44.532971,2739 6.843314,44.532948,2740 6.843338,44.532959,2742 6.843382,44.532971,2743 6.843434,44.532965,2745 6.843442,44.532970,2746 6.843495,44.533020,2747 6.843558,44.533034,2748 6.843615,44.533049,2749 6.843641,44.533089,2750 6.843671,44.533126,2751 6.843812,44.533189,2751 6.843841,44.533196,2753 6.843850,44.533281,2753 6.843784,44.533306,2753 6.843774,44.533309,2753 6.843746,44.533359,2751 6.843754,44.533355,2750 6.843751,44.533351,2750 6.843743,44.533364,2750 6.843758,44.533365,2750 6.843773,44.533354,2749 6.843758,44.533343,2749 6.843756,44.533353,2749 6.843752,44.533343,2749 6.843761,44.533361,2749 6.843743,44.533368,2749 6.843786,44.533340,2752 6.843800,44.533332,2751 6.843812,44.533326,2751 6.843809,44.533311,2751 6.843823,44.533318,2751 6.843957,44.533231,2752 6.844015,44.533181,2754 6.844074,44.533112,2754 6.844154,44.533040,2754 6.844262,44.532981,2754 6.844456,44.532986,2755 6.844500,44.532997,2756 6.844654,44.533008,2757 6.844670,44.533008,2758 6.844691,44.533001,2757 6.844664,44.532998,2757 6.844680,44.533012,2757 6.844684,44.533025,2757 6.844660,44.532999,2757 6.844710,44.533020,2758 6.844687,44.533014,2758 6.844673,44.533010,2758 6.844659,44.532993,2758 6.844689,44.532999,2758 6.844684,44.532997,2758 6.844678,44.533019,2758 6.844674,44.533013,2758 6.844674,44.533006,2757 6.844767,44.533012,2758 6.844836,44.533019,2759 6.844952,44.533028,2761 6.845002,44.533043,2762 6.845129,44.533057,2763 6.845170,44.533065,2764 6.845218,44.533081,2764 6.845290,44.533095,2765 6.845404,44.533113,2766 6.845434,44.533128,2766 6.845502,44.533160,2767 6.845706,44.533243,2768 6.845842,44.533259,2769 6.845928,44.533236,2770 6.845923,44.533252,2771 6.845931,44.533282,2772 6.845962,44.533277,2773 6.846042,44.533292,2775 6.846104,44.533307,2777 6.846217,44.533316,2778 6.846270,44.533329,2780 6.846322,44.533336,2781 6.846387,44.533335,2782 6.846632,44.533347,2782 6.846654,44.533379,2783 6.846647,44.533417,2785 6.846776,44.533460,2785 6.846973,44.533572,2786 6.847084,44.533635,2785 6.847245,44.533755,2784 6.847358,44.533850,2783 6.847494,44.534041,2784 6.847595,44.534223,2784 6.847641,44.534320,2785 6.847677,44.534401,2787 6.847689,44.534469,2788 6.847714,44.534534,2789 6.847742,44.534559,2791 6.847801,44.534690,2790 6.847824,44.534764,2788 6.847861,44.534870,2788 6.847895,44.534959,2790 6.847980,44.535171,2789 6.848022,44.535320,2788 6.848082,44.535424,2787 6.848114,44.535486,2786 6.848113,44.535603,2785 6.848163,44.535757,2784 6.848246,44.535863,2784 6.848480,44.535964,2786 6.848539,44.536016,2786 6.848586,44.536062,2787 6.848634,44.536103,2788 6.848751,44.536162,2790 6.848863,44.536213,2791 6.848944,44.536239,2793 6.849015,44.536268,2794 6.849066,44.536296,2795 6.849093,44.536319,2796 6.849138,44.536341,2798 6.849182,44.536361,2799 6.849173,44.536376,2800 6.849201,44.536406,2801 6.849276,44.536418,2802 6.849382,44.536448,2804 6.849440,44.536445,2805 6.849501,44.536455,2807 6.849549,44.536504,2808 6.849606,44.536546,2810 6.849674,44.536561,2811 6.849708,44.536577,2812 6.849785,44.536615,2813 6.849839,44.536646,2814 6.849938,44.536702,2815 6.850017,44.536764,2816 6.850066,44.536833,2818 6.850244,44.536921,2816 6.850281,44.536949,2815 6.850299,44.536981,2814 6.850409,44.537040,2812 6.850581,44.537135,2813 6.850715,44.537151,2813 6.850753,44.537174,2812 6.850825,44.537273,2810 6.850858,44.537322,2808 6.850954,44.537347,2807 6.851036,44.537357,2805 6.851087,44.537354,2804 6.851222,44.537383,2803 6.851458,44.537398,2804 6.851578,44.537419,2804 6.851793,44.537441,2805 6.851846,44.537433,2807 6.851915,44.537412,2809 6.851973,44.537400,2810 6.851985,44.537406,2810 6.852027,44.537467,2812 6.852054,44.537538,2813 6.852118,44.537539,2814 6.852190,44.537517,2815 6.852216,44.537510,2816 6.852295,44.537515,2817 6.852401,44.537539,2819 6.852530,44.537567,2820 6.852589,44.537567,2820 6.852669,44.537610,2819 6.852724,44.537616,2817 6.852794,44.537594,2816 6.852890,44.537588,2815 6.852951,44.537561,2813 6.852997,44.537523,2812 6.853048,44.537503,2810 6.853097,44.537476,2808 6.853144,44.537445,2807 6.853318,44.537331,2805 6.853416,44.537313,2805 6.853588,44.537262,2805 6.853689,44.537308,2805 6.853751,44.537288,2807 6.853798,44.537238,2808 6.853855,44.537223,2809 6.853932,44.537204,2811 6.853965,44.537180,2812 6.854091,44.537129,2813 6.854182,44.537080,2814 6.854281,44.537036,2814 6.854298,44.536969,2815 6.854355,44.536905,2816 6.854437,44.536889,2818 6.854530,44.536904,2819 6.854627,44.536955,2820 6.854674,44.536983,2821 6.854746,44.536972,2823 6.854839,44.536971,2824 6.854932,44.536979,2825 6.855032,44.536970,2826 6.855130,44.536963,2827 6.855172,44.536952,2828 6.855197,44.536942,2829 6.855254,44.536933,2830 6.855292,44.536921,2831 6.855361,44.536890,2833 6.855403,44.536858,2834 6.855512,44.536850,2836 6.855620,44.536886,2836 6.855787,44.536838,2837 6.855968,44.536757,2837 6.856122,44.536788,2838 6.856251,44.536855,2838 6.856345,44.536860,2840 6.856545,44.536852,2840 6.856629,44.536825,2841 6.856757,44.536815,2843 6.856902,44.536841,2844 6.857019,44.536871,2843 6.857144,44.536895,2842 6.857266,44.536923,2842 6.857447,44.536934,2843 6.857625,44.536971,2843 6.857840,44.537057,2843 6.857891,44.537070,2843 6.857934,44.537064,2843 6.858159,44.537100,2843 6.858226,44.537148,2842 6.858220,44.537147,2842 6.858310,44.537117,2842 6.858645,44.537176,2842 6.858853,44.537148,2843 6.858983,44.537141,2844 6.859063,44.537146,2844 6.859178,44.537165,2846 6.859293,44.537217,2847 6.859395,44.537261,2848 6.859464,44.537302,2849 6.859613,44.537355,2849 6.859856,44.537380,2849 6.860143,44.537428,2849 6.860272,44.537449,2848 6.860458,44.537505,2848 6.860765,44.537595,2848 6.861062,44.537681,2847 6.861224,44.537755,2847 6.861412,44.537842,2849 6.861428,44.537864,2849 6.861439,44.537874,2849 6.861460,44.537831,2849 6.861459,44.537901,2849 6.861452,44.538002,2848 6.861435,44.538102,2847 6.861343,44.538198,2847 6.861301,44.538263,2847 6.861177,44.538392,2846 6.861164,44.538427,2845 6.861138,44.538469,2843 6.861055,44.538522,2842 6.860976,44.538591,2842 6.860927,44.538683,2843 6.860862,44.538805,2844 6.860804,44.538868,2845 6.860782,44.538939,2846 6.860776,44.538979,2847 6.860739,44.539096,2847 6.860719,44.539172,2849 6.860784,44.539310,2850 6.860738,44.539312,2850 6.860700,44.539353,2852 6.860714,44.539339,2853 6.860685,44.539371,2852 6.860631,44.539450,2854 6.860614,44.539569,2855 6.860606,44.539728,2856 6.860596,44.539801,2857 6.860588,44.539893,2858 6.860590,44.539943,2858 6.860564,44.540072,2859 6.860517,44.540173,2859 6.860526,44.540270,2861 6.860519,44.540381,2861 6.860502,44.540447,2862 6.860520,44.540477,2862 6.860518,44.540485,2861 6.860530,44.540563,2861 6.860516,44.540605,2860 6.860524,44.540574,2859 6.860529,44.540594,2860 6.860533,44.540576,2859 6.860525,44.540568,2859 6.860515,44.540589,2859 6.860584,44.540563,2859 6.860574,44.540548,2859 6.860486,44.540576,2859 6.860433,44.540639,2859 6.860497,44.540628,2859 6.860515,44.540656,2859 6.860477,44.540745,2858 6.860480,44.540805,2858 6.860663,44.540946,2857 6.860777,44.541057,2859 6.860828,44.541124,2860 6.860842,44.541154,2860 6.860885,44.541153,2861 6.860982,44.541119,2861 6.860981,44.541178,2861 6.860971,44.541214,2861 6.860974,44.541308,2861 6.861001,44.541341,2860 6.861069,44.541406,2859 6.861123,44.541453,2858 6.861214,44.541528,2857 6.861287,44.541641,2855 6.861260,44.541832,2854 6.861234,44.541881,2853 6.861280,44.541963,2853 6.861395,44.542070,2854 6.861425,44.542094,2855 6.861607,44.542175,2855 6.861692,44.542239,2856 6.861671,44.542245,2856 6.861700,44.542241,2856 6.861747,44.542236,2856 6.861891,44.542308,2857 6.861989,44.542326,2858 6.862116,44.542386,2859 6.862256,44.542461,2860 6.862404,44.542434,2860 6.862490,44.542456,2861 6.862507,44.542465,2862 6.862540,44.542471,2863 6.862617,44.542488,2864 6.862661,44.542477,2865 6.862736,44.542466,2866 6.862744,44.542451,2866 6.862796,44.542441,2867 6.862838,44.542452,2868 6.862896,44.542476,2869 6.862926,44.542490,2869 6.862993,44.542518,2870 6.863067,44.542515,2870 6.863095,44.542469,2871 6.863070,44.542493,2871 6.863073,44.542486,2871 6.863092,44.542474,2871 6.863050,44.542461,2871 6.863035,44.542458,2871 6.863039,44.542460,2871 6.863048,44.542478,2871 6.863040,44.542472,2871 6.863051,44.542486,2870 6.863038,44.542514,2870 6.863068,44.542473,2870 6.863097,44.542457,2870 6.863083,44.542478,2870 6.863071,44.542515,2870 6.863095,44.542523,2871 6.863156,44.542560,2872 6.863218,44.542595,2874 6.863225,44.542604,2874 6.863244,44.542646,2875 6.863364,44.542699,2877 6.863477,44.542723,2878 6.863493,44.542731,2879 6.863616,44.542759,2880 6.863728,44.542775,2880 6.863810,44.542796,2880 6.863963,44.542791,2880 6.864039,44.542800,2881 6.864246,44.542753,2880 6.864366,44.542683,2880 6.864462,44.542677,2881 6.864527,44.542692,2882 6.864594,44.542704,2883 6.864919,44.542703,2883 6.865029,44.542705,2883 6.865126,44.542688,2884 6.865238,44.542674,2885 6.865357,44.542693,2887 6.865442,44.542706,2888 6.865513,44.542705,2889 6.865550,44.542690,2889 6.865647,44.542617,2890 6.865782,44.542655,2891 6.866021,44.542603,2891 6.866258,44.542606,2893 6.866382,44.542579,2894 6.866601,44.542598,2895 6.866641,44.542588,2895 6.866779,44.542567,2896 6.866843,44.542562,2897 6.866926,44.542549,2898 6.867007,44.542499,2900 6.867064,44.542485,2901 6.867069,44.542492,2901 6.867087,44.542494,2901 6.867132,44.542472,2902 6.867171,44.542432,2903 6.867216,44.542404,2905 6.867275,44.542384,2906 6.867320,44.542393,2907 6.867330,44.542428,2908 6.867399,44.542418,2909 6.867505,44.542415,2910 6.867516,44.542406,2910 6.867566,44.542391,2911 6.867676,44.542379,2912 6.867774,44.542376,2913 6.867819,44.542434,2914 6.867836,44.542466,2916 6.867862,44.542530,2917 6.867830,44.542677,2917 6.867872,44.542691,2917 6.867867,44.542731,2916 6.868054,44.542616,2917 6.868118,44.542532,2918 6.868148,44.542518,2919 6.868194,44.542517,2920 6.868247,44.542515,2921 6.868297,44.542528,2922 6.868359,44.542524,2923 6.868386,44.542504,2923 6.868423,44.542488,2924 6.868440,44.542489,2925 6.868470,44.542479,2925 6.868489,44.542466,2926 6.868536,44.542438,2927 6.868564,44.542409,2928 6.868574,44.542385,2931 6.868578,44.542408,2932 6.868658,44.542431,2933 6.868634,44.542418,2933 6.868617,44.542433,2933 6.868619,44.542455,2934 6.868656,44.542452,2935 6.868685,44.542476,2936 6.868679,44.542492,2937 6.868745,44.542519,2939 6.868747,44.542515,2939 6.868724,44.542485,2940 6.868738,44.542489,2941 6.868778,44.542541,2942 6.868795,44.542552,2943 6.868812,44.542546,2944 6.868808,44.542572,2945 6.868829,44.542622,2946 6.868894,44.542636,2947 6.868901,44.542623,2947 6.868910,44.542630,2948 6.868924,44.542665,2949 6.868964,44.542708,2949 6.869011,44.542722,2950 6.869039,44.542712,2950 6.869043,44.542706,2951 6.869099,44.542707,2952 6.869100,44.542718,2953 6.869141,44.542737,2954 6.869164,44.542762,2954 6.869203,44.542782,2954 6.869241,44.542808,2956 6.869295,44.542841,2957 6.869351,44.542859,2958 6.869381,44.542839,2958 6.869437,44.542851,2958 6.869472,44.542854,2958 6.869495,44.542829,2958 6.869593,44.542910,2958 6.869588,44.542912,2958 6.869627,44.542881,2958 6.869657,44.542923,2959 6.869659,44.542916,2959 6.869697,44.542892,2959 6.869737,44.542911,2960 6.869755,44.542916,2961 6.869777,44.542952,2961 6.869821,44.542991,2961 6.869752,44.543051,2961 6.869777,44.543112,2962 6.869803,44.543138,2963 6.869842,44.543139,2963 6.869871,44.543150,2963 6.869886,44.543197,2962 6.869938,44.543214,2963 6.870036,44.543261,2964 6.870068,44.543261,2966 6.870081,44.543243,2967 6.870071,44.543255,2968 6.870125,44.543277,2968 6.870140,44.543284,2968 6.870199,44.543262,2969 6.870237,44.543250,2970 6.870273,44.543243,2971 6.870277,44.543270,2972 6.870296,44.543302,2973 6.870310,44.543288,2974 6.870339,44.543310,2976 6.870372,44.543281,2976 6.870376,44.543296,2977 6.870390,44.543291,2978 6.870415,44.543298,2980 6.870432,44.543315,2981 6.870449,44.543367,2982 6.870471,44.543378,2983 6.870490,44.543379,2984 6.870539,44.543378,2985 6.870592,44.543417,2986 6.870602,44.543434,2987 6.870653,44.543458,2988 6.870664,44.543467,2989 6.870691,44.543515,2990 6.870760,44.543509,2990 6.870768,44.543489,2991 6.870758,44.543478,2993 6.870799,44.543485,2994 6.870842,44.543490,2996 6.870877,44.543528,2997 6.870912,44.543517,2998 6.870928,44.543526,2999 6.870950,44.543540,3000 6.870975,44.543547,3001 6.870993,44.543534,3002 6.871027,44.543550,3002 6.871051,44.543501,3003 6.871022,44.543519,3004 6.871038,44.543515,3004 6.871038,44.543550,3005 6.871037,44.543537,3005 6.871048,44.543525,3005 6.871047,44.543520,3006 6.871045,44.543538,3006 6.871065,44.543471,3007 6.871098,44.543451,3008 6.871048,44.543469,3009 6.871075,44.543480,3010 6.871138,44.543516,3010 6.871168,44.543533,3011 6.871192,44.543568,3011 6.871202,44.543582,3012 6.871225,44.543597,3012 6.871247,44.543633,3013 6.871289,44.543615,3014 6.871307,44.543599,3015 6.871345,44.543591,3017 6.871343,44.543594,3019 6.871351,44.543611,3020 6.871375,44.543641,3021 6.871382,44.543663,3021 6.871419,44.543667,3023 6.871427,44.543674,3024 6.871453,44.543671,3025 6.871488,44.543663,3027 6.871496,44.543663,3027 6.871512,44.543665,3027 6.871541,44.543665,3028 6.871544,44.543691,3030 6.871572,44.543719,3031 6.871604,44.543733,3032 6.871632,44.543744,3033 6.871667,44.543819,3034 6.871683,44.543861,3035 6.871684,44.543879,3036 6.871675,44.543906,3038 6.871715,44.543923,3039 6.871733,44.543952,3041 6.871761,44.543984,3042 6.871796,44.544049,3044 6.871830,44.544089,3045 6.871869,44.544115,3046 6.871880,44.544137,3046 6.871853,44.544200,3046 6.871851,44.544212,3048 6.871864,44.544225,3049 6.871849,44.544263,3050 6.871868,44.544240,3052 6.871960,44.544259,3053 6.872077,44.544239,3053 6.872067,44.544250,3052 6.872068,44.544255,3051 6.872058,44.544221,3051 6.872040,44.544231,3051 6.872010,44.544263,3051 6.872008,44.544235,3050 6.872029,44.544218,3050 6.872007,44.544217,3050 6.871987,44.544209,3050 6.871976,44.544207,3050 6.871967,44.544223,3050 6.872038,44.544292,3050 6.872132,44.544231,3050 6.872117,44.544243,3050 6.872086,44.544246,3049 6.872094,44.544239,3049 6.872065,44.544248,3050 6.872086,44.544241,3050 6.872114,44.544244,3051 6.872109,44.544247,3050 6.872098,44.544266,3050 6.872035,44.544290,3051 6.872036,44.544319,3052 6.872007,44.544316,3052 6.872057,44.544303,3052 6.872112,44.544305,3052 6.872073,44.544303,3052 6.872085,44.544301,3052 6.872015,44.544378,3052 6.871988,44.544396,3053 6.872012,44.544320,3052 6.872034,44.544337,3052 6.872053,44.544317,3052 6.872056,44.544296,3052 6.872060,44.544244,3051 6.872051,44.544229,3050 6.872039,44.544242,3050 6.872008,44.544215,3051 6.872078,44.544236,3051 6.872033,44.544235,3051 6.872030,44.544258,3051 6.871983,44.544261,3051 6.872019,44.544252,3051 6.872058,44.544224,3051 6.872071,44.544212,3051 6.872094,44.544201,3051 6.872063,44.544233,3051 6.872041,44.544226,3051 6.872001,44.544254,3051 6.871991,44.544264,3051 6.871997,44.544270,3051 6.871969,44.544273,3051 6.871965,44.544272,3051 6.872002,44.544261,3051 6.872037,44.544200,3051 6.871994,44.544217,3052 6.871991,44.544227,3052 6.872018,44.544225,3052 6.872042,44.544207,3052 6.872029,44.544234,3052 6.872003,44.544239,3052 6.871915,44.544276,3052 6.871922,44.544272,3052 6.872046,44.544230,3052 6.872046,44.544232,3052 6.872043,44.544233,3052 6.872090,44.544198,3052 6.871979,44.544235,3052 6.872011,44.544233,3052 6.872038,44.544223,3053 6.871975,44.544245,3052 6.872033,44.544242,3052 6.872072,44.544212,3052 6.872115,44.544206,3052 6.872042,44.544244,3053 6.872051,44.544237,3053 6.872044,44.544237,3053 6.872078,44.544222,3053 6.872034,44.544240,3053 6.872040,44.544251,3053 6.872039,44.544252,3053 6.872050,44.544267,3053 6.872024,44.544246,3053 6.871993,44.544250,3053 6.871981,44.544249,3053 6.872037,44.544266,3054 6.872026,44.544318,3055 6.872026,44.544352,3056 6.872015,44.544365,3057 6.871994,44.544404,3058 6.872043,44.544383,3058 6.872018,44.544386,3059 6.871974,44.544360,3060 6.871971,44.544370,3061 6.871962,44.544428,3063 6.871968,44.544437,3064 6.871992,44.544454,3065 6.872024,44.544454,3066 6.872051,44.544458,3067 6.872051,44.544463,3068 6.872071,44.544497,3068 6.872048,44.544524,3069 6.872022,44.544534,3071 6.872005,44.544543,3072 6.871999,44.544566,3073 6.871971,44.544579,3074 6.871983,44.544590,3075 6.871991,44.544620,3076 6.871982,44.544630,3077 6.871972,44.544648,3078 6.871956,44.544687,3081 6.871954,44.544691,3081 6.871948,44.544701,3082 6.871962,44.544734,3083 6.871965,44.544777,3084 6.871939,44.544828,3085 6.871939,44.544859,3086 6.871926,44.544897,3087 6.871938,44.544921,3087 6.871908,44.544929,3087 6.871841,44.544957,3088 6.871765,44.544960,3088 6.871716,44.544974,3086 6.871704,44.544984,3086 6.871693,44.544987,3085 6.871657,44.544982,3085 6.871631,44.544965,3084 6.871637,44.544993,3083 6.871638,44.544980,3083 6.871608,44.544984,3082 6.871573,44.544988,3081 6.871566,44.545001,3080 6.871570,44.545024,3078 6.871576,44.545040,3080 6.871560,44.545088,3080 6.871550,44.545082,3079 6.871532,44.545084,3078 6.871578,44.545119,3078 6.871593,44.545151,3080 6.871586,44.545174,3081 6.871588,44.545175,3081 6.871584,44.545195,3082 6.871597,44.545261,3083 6.871580,44.545292,3084 6.871543,44.545329,3086 6.871521,44.545379,3087 6.871514,44.545393,3088 6.871471,44.545424,3089 6.871471,44.545424,3089 6.871471,44.545424,3089 6.871479,44.545413,3089 6.871464,44.545429,3090 6.871464,44.545447,3091 6.871460,44.545461,3092 6.871454,44.545471,3093 6.871468,44.545487,3095 6.871496,44.545515,3096 6.871486,44.545518,3096 6.871460,44.545516,3097 6.871462,44.545532,3099 6.871460,44.545547,3100 6.871470,44.545575,3101 6.871426,44.545567,3102 6.871415,44.545571,3104 6.871409,44.545583,3104 6.871432,44.545622,3104 6.871431,44.545634,3105 6.871432,44.545639,3106 6.871435,44.545650,3106 6.871456,44.545670,3107 6.871450,44.545681,3108 6.871453,44.545697,3110 6.871465,44.545710,3111 6.871474,44.545739,3113 6.871471,44.545744,3113 6.871499,44.545760,3114 6.871489,44.545737,3114 6.871486,44.545729,3114 6.871537,44.545748,3114 6.871557,44.545755,3115 6.871547,44.545743,3116 6.871601,44.545733,3118 6.871593,44.545739,3117 6.871596,44.545738,3117 6.871585,44.545770,3118 6.871604,44.545792,3119 6.871624,44.545787,3120 6.871659,44.545788,3120 6.871649,44.545771,3121 6.871631,44.545775,3123 6.871641,44.545782,3124 6.871729,44.545818,3126 6.871743,44.545826,3126 6.871717,44.545818,3128 6.871706,44.545818,3128 6.871714,44.545818,3129 6.871724,44.545813,3129 6.871729,44.545790,3130 6.871791,44.545793,3130 6.871832,44.545748,3131 6.871841,44.545727,3132 6.871845,44.545674,3133 6.871854,44.545674,3133 6.871901,44.545740,3134 6.871906,44.545747,3136 6.871925,44.545790,3136 6.871923,44.545799,3136 6.871931,44.545799,3135 6.871953,44.545751,3136 6.871964,44.545733,3137 6.871995,44.545734,3138 6.872022,44.545759,3139 6.872023,44.545771,3141 6.872018,44.545767,3142 6.872019,44.545761,3143 6.872031,44.545766,3143 6.872068,44.545805,3145 6.872057,44.545818,3145 6.872059,44.545829,3146 6.872061,44.545825,3147 6.872080,44.545843,3147 6.872082,44.545853,3148 6.872077,44.545854,3149 6.872104,44.545862,3149 6.872124,44.545866,3150 6.872133,44.545890,3152 6.872163,44.545875,3152 6.872176,44.545880,3153 6.872198,44.545921,3154 6.872223,44.545955,3156 6.872207,44.545953,3156 6.872220,44.545970,3156 6.872286,44.545993,3155 6.872286,44.545915,3157 6.872262,44.545879,3158 6.872250,44.545847,3158 6.872259,44.545848,3158 6.872334,44.545956,3159 6.872388,44.545979,3160 6.872405,44.545958,3161 6.872426,44.545927,3162 6.872432,44.545962,3162 6.872480,44.546019,3163 6.872492,44.546028,3163 6.872498,44.546029,3163 6.872519,44.546038,3164 6.872573,44.546027,3165 6.872552,44.546009,3166 6.872594,44.546034,3166 6.872612,44.546047,3167 6.872640,44.546067,3167 6.872674,44.546079,3168 6.872707,44.546075,3170 6.872721,44.546069,3170 6.872756,44.546058,3172 6.872702,44.545983,3171 6.872666,44.545986,3170 6.872675,44.546013,3169 6.872662,44.546040,3168 6.872642,44.546011,3167 6.872593,44.545978,3166 6.872572,44.545965,3165 6.872548,44.545960,3163 6.872543,44.545965,3162 6.872509,44.545951,3160 6.872495,44.545953,3158 6.872489,44.545953,3157 6.872529,44.545983,3156 6.872525,44.546000,3156 6.872491,44.546016,3156 6.872456,44.545990,3155 6.872492,44.546007,3154 6.872522,44.546032,3154 6.872518,44.546036,3154 6.872536,44.546053,3155 6.872609,44.546074,3156 6.872618,44.546083,3157 6.872675,44.546084,3159 6.872702,44.546094,3160 6.872725,44.546098,3160 6.872741,44.546109,3161 6.872739,44.546128,3162 6.872755,44.546131,3162 6.872780,44.546112,3163 6.872783,44.546095,3164 6.872773,44.546078,3165 6.872798,44.546047,3167 6.872800,44.546045,3168 6.872818,44.546041,3169 6.872841,44.546035,3170 6.872842,44.546030,3170 6.872857,44.546054,3171 6.872909,44.546089,3172 6.872934,44.546092,3173 6.872938,44.546063,3175 6.872951,44.546067,3175 6.872964,44.546077,3177 6.872999,44.546113,3178 6.873031,44.546109,3179 6.873042,44.546080,3180 6.873043,44.546084,3182 6.873115,44.546113,3182 6.873148,44.546113,3183 6.873149,44.546118,3183 6.873231,44.546196,3185 6.873245,44.546201,3185 6.873277,44.546196,3187 6.873296,44.546205,3188 6.873347,44.546251,3189 6.873337,44.546241,3190 6.873333,44.546186,3190 6.873336,44.546163,3190 6.873335,44.546152,3191 6.873281,44.546128,3192 6.873262,44.546118,3191 6.873278,44.546130,3190 6.873295,44.546133,3190 6.873278,44.546116,3189 6.873241,44.546095,3188 6.873227,44.546067,3187 6.873190,44.546037,3186 6.873161,44.546033,3185 6.873219,44.546047,3185 6.873227,44.546034,3186 6.873229,44.546021,3187 6.873225,44.545989,3188 6.873240,44.546031,3188 6.873254,44.546026,3189 6.873237,44.546009,3189 6.873228,44.546002,3189 6.873242,44.546004,3190 6.873253,44.546004,3191 6.873251,44.546005,3191 6.873221,44.545986,3191 6.873151,44.545950,3191 6.873177,44.545976,3189 6.873138,44.545942,3189 6.873148,44.545952,3190 6.873160,44.545940,3190 6.873146,44.545951,3191 6.873135,44.545935,3190 6.873144,44.545948,3190 6.873140,44.545950,3191 6.873140,44.545949,3191 6.873136,44.545944,3191 6.873159,44.545952,3203 6.873144,44.545948,3203 6.873137,44.545952,3203 6.873136,44.545933,3203 6.873131,44.545953,3204 6.873128,44.545941,3204 6.873136,44.545946,3203 6.873150,44.545948,3204 6.873133,44.545959,3204 6.873145,44.545971,3204 6.873157,44.545956,3204 6.873137,44.545964,3205 6.873108,44.545924,3204 6.873129,44.545943,3204 6.873161,44.545958,3204 6.873150,44.545960,3204 6.873154,44.545963,3205 6.873142,44.545959,3204 6.873150,44.545940,3205 6.873154,44.545949,3205 6.873135,44.545949,3205 6.873136,44.545949,3204 6.873123,44.545942,3205 6.873137,44.545949,3205 6.873146,44.545963,3205 6.873159,44.545971,3205 6.873145,44.545951,3205 6.873137,44.545945,3205 6.873139,44.545959,3206 6.873166,44.545968,3205 6.873168,44.545954,3205 6.873141,44.545951,3205 6.873147,44.545948,3205 6.873141,44.545958,3205 6.873137,44.545958,3205 6.873147,44.545964,3205 6.873165,44.545958,3205 6.873156,44.545970,3206 6.873169,44.545961,3206 6.873160,44.545971,3206 6.873165,44.545955,3206 6.873218,44.545989,3207 6.873224,44.546000,3209 6.873228,44.546032,3209 6.873240,44.546062,3209 6.873223,44.546096,3209 6.873217,44.546087,3208 6.873264,44.546118,3210 6.873310,44.546127,3211 6.873257,44.546122,3211 6.873302,44.546150,3211 6.873299,44.546168,3210 6.873294,44.546175,3210 6.873302,44.546185,3209 6.873327,44.546206,3209 6.873325,44.546188,3209 6.873313,44.546198,3208 6.873312,44.546194,3207 6.873316,44.546213,3206 6.873312,44.546201,3206 6.873300,44.546222,3206 6.873305,44.546241,3205 6.873339,44.546232,3207 6.873343,44.546250,3207 6.873385,44.546257,3207 6.873381,44.546259,3208 6.873393,44.546263,3208 6.873408,44.546256,3208 6.873445,44.546280,3208 6.873447,44.546278,3207 6.873425,44.546270,3207 6.873471,44.546296,3206 6.873476,44.546319,3207 6.873462,44.546296,3207 6.873435,44.546325,3208 6.873452,44.546305,3208 6.873437,44.546307,3208 6.873494,44.546333,3208 6.873512,44.546336,3209 6.873531,44.546344,3210 6.873519,44.546347,3209 6.873525,44.546355,3209 6.873551,44.546375,3208 6.873555,44.546376,3208 6.873569,44.546398,3208 6.873610,44.546389,3210 6.873610,44.546400,3210 6.873660,44.546435,3210 6.873657,44.546454,3210 6.873678,44.546455,3210 6.873681,44.546451,3209 6.873691,44.546478,3209 6.873711,44.546488,3210 6.873719,44.546498,3209 6.873708,44.546484,3209 6.873708,44.546471,3209 6.873694,44.546480,3209 6.873678,44.546479,3209 6.873685,44.546462,3209 6.873695,44.546460,3209 6.873681,44.546455,3209 6.873677,44.546477,3208 6.873662,44.546476,3207 6.873677,44.546473,3207 6.873650,44.546461,3206 6.873650,44.546464,3206 6.873653,44.546465,3206 6.873644,44.546481,3206 6.873675,44.546487,3206 6.873636,44.546482,3205 6.873655,44.546463,3205 6.873689,44.546492,3204 6.873655,44.546468,3204 6.873622,44.546485,3203 6.873648,44.546497,3202 6.873649,44.546499,3202 6.873640,44.546519,3202 6.873666,44.546500,3202 6.873666,44.546515,3202 6.873630,44.546516,3202 6.873630,44.546488,3203 6.873642,44.546481,3203 6.873650,44.546501,3203 6.873620,44.546516,3204 6.873623,44.546506,3204 6.873612,44.546495,3204 6.873616,44.546504,3204 6.873616,44.546506,3203 6.873623,44.546502,3203 6.873629,44.546520,3203 6.873626,44.546513,3204 6.873631,44.546524,3204 6.873651,44.546495,3204 6.873635,44.546491,3204 6.873613,44.546495,3204 6.873595,44.546501,3203 6.873593,44.546495,3203 6.873598,44.546512,3202 6.873609,44.546522,3201 6.873606,44.546512,3200 6.873621,44.546535,3199 6.873621,44.546545,3199 6.873606,44.546545,3198 6.873610,44.546561,3198 6.873631,44.546545,3199 6.873637,44.546554,3198 6.873627,44.546563,3199 6.873636,44.546568,3197 6.873620,44.546573,3197 6.873617,44.546573,3197 6.873630,44.546568,3196 6.873644,44.546574,3196 6.873651,44.546560,3196 6.873645,44.546559,3196 6.873642,44.546556,3195 6.873649,44.546508,3195 6.873671,44.546398,3194 6.873672,44.546438,3193 6.873680,44.546428,3193 6.873647,44.546493,3192 6.873635,44.546510,3192 6.873624,44.546518,3192 6.873636,44.546527,3191 6.873609,44.546544,3190 6.873634,44.546545,3190 6.873647,44.546536,3189 6.873650,44.546535,3189 6.873646,44.546538,3189 6.873638,44.546539,3188 6.873723,44.546544,3187 6.873746,44.546513,3187 6.873740,44.546515,3187 6.873724,44.546496,3187 6.873719,44.546473,3186 6.873716,44.546492,3185 6.873674,44.546504,3185 6.873726,44.546504,3184 6.873720,44.546514,3184 6.873729,44.546550,3184 6.873711,44.546539,3183 6.873653,44.546555,3183 6.873643,44.546549,3183 6.873681,44.546513,3183 6.873659,44.546501,3183 6.873669,44.546504,3183 6.873691,44.546506,3183 6.873709,44.546503,3183 6.873652,44.546509,3182 6.873597,44.546509,3182 6.873565,44.546512,3182 6.873571,44.546516,3181 6.873781,44.546551,3181 6.873880,44.546591,3181 6.873773,44.546566,3181 6.873672,44.546571,3180 6.873760,44.546514,3180 6.873848,44.546499,3179 6.873808,44.546504,3178 6.873803,44.546507,3177 6.873817,44.546480,3177 6.873769,44.546468,3176 6.873786,44.546513,3176 6.873807,44.546505,3177 6.873825,44.546482,3177 6.873792,44.546468,3177 6.873821,44.546491,3176 6.873820,44.546491,3176 6.873833,44.546482,3176 6.873827,44.546496,3175 6.873786,44.546553,3174 6.873785,44.546564,3174 6.873791,44.546565,3174 6.873797,44.546571,3174 6.873832,44.546549,3175 6.873831,44.546551,3174 6.873864,44.546561,3173 6.873850,44.546563,3173 6.873877,44.546549,3173 6.873876,44.546551,3173 6.873854,44.546571,3174 6.873856,44.546557,3174 6.873879,44.546552,3173 6.873853,44.546560,3173 6.873844,44.546573,3173 6.873838,44.546575,3171 6.873904,44.546572,3171 6.873856,44.546585,3171 6.873869,44.546563,3170 6.873868,44.546555,3170 6.873908,44.546549,3170 6.873905,44.546588,3169 6.873906,44.546594,3169 6.873884,44.546582,3169 6.873883,44.546583,3169 6.873836,44.546589,3169 6.873825,44.546571,3168 6.873860,44.546583,3168 6.873859,44.546589,3167 6.873889,44.546569,3166 6.873848,44.546554,3166 6.873838,44.546539,3165 6.873859,44.546565,3164 6.873853,44.546553,3164 6.873842,44.546569,3164 6.873853,44.546599,3164 6.873869,44.546609,3164 6.873887,44.546585,3164 6.873893,44.546587,3164 6.873874,44.546587,3164 6.873871,44.546582,3164 6.873849,44.546578,3164 6.873875,44.546587,3164 6.873884,44.546586,3164 6.873904,44.546591,3163 6.873941,44.546586,3162 6.873954,44.546605,3161 6.873944,44.546604,3160 6.873929,44.546611,3160 6.873890,44.546598,3159 6.873864,44.546594,3158 6.873858,44.546605,3156 6.873883,44.546609,3155 6.873894,44.546592,3154 6.873884,44.546589,3153 6.873905,44.546588,3152 6.873942,44.546582,3151 6.873881,44.546569,3150 6.873883,44.546598,3149 6.873923,44.546599,3148 6.873886,44.546606,3147 6.873943,44.546602,3147 6.873855,44.546596,3147 6.873926,44.546590,3147 6.873965,44.546595,3146 6.873944,44.546588,3145 6.873941,44.546600,3144 6.873955,44.546615,3143 6.873937,44.546576,3143 6.873942,44.546569,3143 6.873940,44.546575,3143 6.873962,44.546576,3142 6.873908,44.546564,3141 6.873944,44.546588,3140 6.873964,44.546620,3140 6.873960,44.546617,3140 6.873914,44.546606,3140 6.873901,44.546615,3141 6.873927,44.546612,3140 6.873959,44.546603,3141 6.873969,44.546630,3141 6.873943,44.546637,3141 6.873927,44.546633,3140 6.873963,44.546634,3140 6.873960,44.546634,3140 6.873952,44.546628,3140 6.873958,44.546617,3140 6.873927,44.546636,3140 6.873949,44.546649,3139 6.873955,44.546617,3139 6.873967,44.546622,3138 6.873938,44.546626,3138 6.873944,44.546611,3138 6.873936,44.546612,3138 6.873899,44.546623,3137 6.873905,44.546625,3137 6.873952,44.546595,3137 6.874014,44.546610,3137 6.873958,44.546611,3137 6.873979,44.546621,3136 6.873975,44.546596,3136 6.873971,44.546615,3136 6.873998,44.546620,3136 6.873986,44.546622,3136 6.873969,44.546610,3135 6.873965,44.546608,3134 6.873983,44.546604,3134 6.873991,44.546593,3134 6.873982,44.546593,3134 6.873999,44.546583,3134 6.873999,44.546590,3134 6.874008,44.546591,3134 6.874024,44.546593,3134 6.874034,44.546590,3133 6.874060,44.546576,3132 6.874063,44.546583,3131 6.874055,44.546562,3131 6.874054,44.546558,3131 6.874074,44.546575,3130 6.874080,44.546554,3130 6.874088,44.546564,3129 6.874082,44.546563,3129 6.874100,44.546568,3129 6.874100,44.546556,3129 6.874104,44.546555,3129 6.874108,44.546579,3129 6.874091,44.546584,3129 6.874101,44.546573,3129 6.874113,44.546575,3128 6.874101,44.546564,3127 6.874145,44.546564,3127 6.874111,44.546544,3126 6.874122,44.546569,3126 6.874114,44.546578,3125 6.874115,44.546588,3125 6.874090,44.546600,3125 6.874017,44.546579,3124 6.873973,44.546598,3123 6.873927,44.546609,3123 6.873997,44.546626,3122 6.874033,44.546652,3122 6.874084,44.546679,3121 6.874105,44.546661,3121 6.874120,44.546639,3120 6.874120,44.546678,3120 6.874117,44.546657,3119 6.874105,44.546644,3119 6.874132,44.546647,3119 6.874128,44.546651,3118 6.874130,44.546660,3118 6.874185,44.546636,3118 6.874223,44.546599,3118 6.874252,44.546593,3117 6.874284,44.546582,3117 6.874295,44.546567,3117 6.874302,44.546561,3117 6.874339,44.546541,3117 6.874364,44.546544,3117 6.874379,44.546540,3117 6.874388,44.546546,3117 6.874336,44.546532,3117 6.874354,44.546528,3117 6.874329,44.546540,3117 6.874275,44.546510,3117 6.874295,44.546507,3118 6.874355,44.546504,3119 6.874378,44.546506,3119 6.874403,44.546521,3118 6.874387,44.546512,3117 6.874387,44.546504,3116 6.874346,44.546517,3117 6.874344,44.546514,3116 6.874372,44.546533,3118 6.874380,44.546535,3117 6.874364,44.546506,3118 6.874351,44.546489,3118 6.874347,44.546513,3117 6.874368,44.546511,3118 6.874399,44.546490,3117 6.874384,44.546500,3118 6.874380,44.546508,3118 6.874352,44.546514,3119 6.874329,44.546511,3118 6.874321,44.546532,3118 6.874311,44.546549,3119 6.874339,44.546533,3119 6.874319,44.546537,3118 6.874314,44.546529,3117 6.874303,44.546521,3117 6.874270,44.546536,3117 6.874316,44.546508,3116 6.874264,44.546579,3116 6.874230,44.546547,3115 6.874221,44.546559,3115 6.874237,44.546538,3115 6.874251,44.546541,3114 6.874246,44.546540,3113 6.874238,44.546542,3113 6.874261,44.546554,3112 6.874230,44.546528,3112 6.874253,44.546553,3112 6.874211,44.546533,3112 6.874198,44.546521,3111 6.874211,44.546543,3111 6.874245,44.546546,3111 6.874240,44.546539,3111 6.874201,44.546540,3111 6.874206,44.546539,3111 6.874200,44.546531,3112 6.874160,44.546521,3110 6.874168,44.546528,3109 6.874223,44.546455,3109 6.874179,44.546476,3109 6.874190,44.546545,3108 6.874168,44.546533,3108 6.874160,44.546523,3109 6.874128,44.546550,3109 6.874127,44.546526,3108 6.874109,44.546527,3108 6.874073,44.546527,3108 6.874065,44.546526,3108 6.874081,44.546517,3108 6.874099,44.546512,3108 6.874114,44.546533,3108 6.874133,44.546533,3107 6.874181,44.546531,3107 6.874149,44.546513,3107 6.874183,44.546495,3107 6.874182,44.546514,3107 6.874166,44.546516,3106 6.874181,44.546512,3105 6.874164,44.546514,3105 6.874161,44.546496,3106 6.874217,44.546486,3106 6.874123,44.546479,3106 6.874083,44.546499,3106 6.874093,44.546509,3107 6.874145,44.546485,3108 6.874180,44.546503,3107 6.874213,44.546527,3108 6.874216,44.546517,3108 6.874237,44.546511,3107 6.874232,44.546501,3108 6.874265,44.546540,3108 6.874234,44.546520,3108 6.874187,44.546534,3108 6.874213,44.546535,3107 6.874282,44.546543,3107 6.874276,44.546538,3107 6.874266,44.546502,3106 6.874260,44.546501,3106 6.874258,44.546496,3105 6.874281,44.546501,3106 6.874252,44.546493,3105 6.874319,44.546483,3105 6.874261,44.546488,3105 6.874332,44.546492,3105 6.874274,44.546475,3106 6.874295,44.546443,3106 6.874289,44.546432,3106 6.874245,44.546474,3106 6.874226,44.546469,3106 6.874264,44.546461,3106 6.874257,44.546460,3106 6.874309,44.546464,3107 6.874252,44.546468,3107 6.874228,44.546457,3107 6.874305,44.546469,3107 6.874250,44.546476,3107 6.874319,44.546470,3107 6.874364,44.546494,3107 6.874362,44.546493,3107 6.874326,44.546462,3107 6.874321,44.546447,3107 6.874359,44.546479,3108 6.874395,44.546465,3109 6.874392,44.546442,3110 6.874415,44.546452,3110 6.874440,44.546429,3111 6.874426,44.546434,3111 6.874412,44.546456,3111 6.874412,44.546436,3111 6.874438,44.546447,3111 6.874455,44.546422,3112 6.874447,44.546423,3112 6.874485,44.546424,3111 6.874465,44.546420,3111 6.874415,44.546413,3112 6.874416,44.546423,3111 6.874357,44.546402,3111 6.874392,44.546423,3111 6.874432,44.546454,3112 6.874456,44.546464,3112 6.874464,44.546431,3112 6.874421,44.546451,3111 6.874420,44.546453,3112 6.874402,44.546457,3112 6.874448,44.546435,3111 6.874434,44.546420,3111 6.874417,44.546392,3111 6.874437,44.546409,3111 6.874453,44.546424,3110 6.874456,44.546447,3110 6.874448,44.546421,3111 6.874420,44.546421,3110 6.874446,44.546410,3110 6.874427,44.546430,3109 6.874456,44.546427,3109 6.874448,44.546428,3109 6.874450,44.546427,3109 6.874419,44.546433,3109 6.874435,44.546408,3109 6.874421,44.546414,3109 6.874449,44.546413,3109 6.874447,44.546415,3109 6.874426,44.546421,3109 6.874481,44.546423,3108 6.874466,44.546409,3109 6.874480,44.546437,3108 6.874475,44.546428,3108 6.874476,44.546427,3108 6.874488,44.546425,3107 6.874426,44.546409,3107 6.874476,44.546428,3107 6.874477,44.546430,3106 6.874433,44.546417,3108 6.874432,44.546417,3106 6.874431,44.546420,3106 6.874413,44.546428,3106 6.874396,44.546419,3105 6.874374,44.546401,3104 6.874370,44.546396,3104 6.874367,44.546400,3104 6.874354,44.546402,3103 6.874402,44.546390,3103 6.874402,44.546415,3102 6.874411,44.546398,3101 6.874380,44.546409,3101 6.874382,44.546420,3101 6.874387,44.546422,3100 6.874416,44.546388,3100 6.874393,44.546411,3100 6.874406,44.546388,3100 6.874383,44.546383,3099 6.874385,44.546395,3099 6.874366,44.546437,3100 6.874343,44.546413,3100 6.874362,44.546393,3100 6.874333,44.546421,3100 6.874390,44.546429,3099 6.874420,44.546411,3098 6.874280,44.546387,3099 6.874317,44.546404,3098 6.874299,44.546374,3098 6.874349,44.546359,3097 6.874372,44.546391,3097 6.874364,44.546378,3098 6.874379,44.546384,3099 6.874364,44.546358,3099 6.874334,44.546370,3099 6.874357,44.546348,3097 6.874331,44.546363,3097 6.874348,44.546372,3098 6.874370,44.546371,3099 6.874388,44.546371,3098 6.874427,44.546356,3098 6.874386,44.546380,3098 6.874416,44.546359,3099 6.874384,44.546392,3099 6.874392,44.546370,3100 6.874400,44.546363,3100 6.874453,44.546360,3100 6.874458,44.546365,3101 6.874459,44.546351,3102 6.874475,44.546351,3102 6.874463,44.546349,3103 6.874455,44.546349,3103 6.874441,44.546347,3102 6.874411,44.546333,3102 6.874435,44.546346,3103 6.874464,44.546346,3103 6.874483,44.546286,3103 6.874472,44.546285,3103 6.874464,44.546304,3103 6.874490,44.546345,3103 6.874440,44.546351,3103 6.874459,44.546388,3103 6.874466,44.546363,3104 6.874473,44.546333,3104 6.874458,44.546327,3103 6.874432,44.546337,3104 6.874332,44.546335,3105 6.874421,44.546357,3105 6.874431,44.546369,3105 6.874479,44.546399,3105 6.874467,44.546403,3105 6.874453,44.546367,3104 6.874436,44.546350,3104 6.874436,44.546348,3105 6.874449,44.546351,3104 6.874378,44.546334,3104 6.874443,44.546374,3103 6.874439,44.546350,3103 6.874420,44.546331,3103 6.874457,44.546363,3103 6.874366,44.546348,3102 6.874292,44.546330,3102 6.874273,44.546358,3102 6.874328,44.546369,3103 6.874430,44.546405,3103 6.874441,44.546393,3104 6.874462,44.546418,3104 6.874477,44.546430,3103 6.874518,44.546439,3103 6.874488,44.546440,3102 6.874387,44.546403,3102 6.874367,44.546377,3102 6.874370,44.546368,3102 6.874320,44.546352,3103 6.874356,44.546376,3103 6.874369,44.546369,3104 6.874372,44.546382,3105 6.874380,44.546379,3105 6.874346,44.546373,3106 6.874385,44.546367,3106 6.874358,44.546386,3106 6.874370,44.546382,3106 6.874368,44.546370,3107 6.874367,44.546369,3108 6.874372,44.546405,3107 6.874404,44.546389,3107 6.874393,44.546388,3107 6.874381,44.546390,3107 6.874392,44.546425,3107 6.874396,44.546430,3107 6.874411,44.546452,3107 6.874370,44.546405,3106 6.874362,44.546405,3106 6.874343,44.546400,3107 6.874320,44.546374,3107 6.874353,44.546381,3107 6.874402,44.546396,3107 6.874380,44.546401,3108 6.874363,44.546402,3108 6.874342,44.546418,3108 6.874289,44.546399,3108 6.874260,44.546379,3108 6.874302,44.546412,3108 6.874334,44.546408,3108 6.874308,44.546416,3107 6.874242,44.546400,3107 6.874227,44.546400,3106 6.874261,44.546398,3106 6.874277,44.546412,3106 6.874318,44.546422,3106 6.874277,44.546407,3106 6.874263,44.546387,3106 6.874250,44.546397,3106 6.874246,44.546425,3107 6.874270,44.546438,3107 6.874339,44.546419,3108 6.874307,44.546454,3108 6.874250,44.546451,3109 6.874236,44.546457,3110 6.874229,44.546461,3111 6.874222,44.546481,3112 6.874250,44.546482,3113 6.874230,44.546472,3113 6.874223,44.546468,3114 6.874235,44.546510,3115 6.874199,44.546511,3115 6.874174,44.546502,3116 6.874171,44.546494,3117 6.874155,44.546535,3117 6.874113,44.546574,3118 6.874106,44.546590,3118 6.874039,44.546616,3119 6.874112,44.546560,3119 6.874167,44.546526,3121 6.874211,44.546542,3122 6.874241,44.546538,3123 6.874217,44.546544,3123 6.874246,44.546556,3124 6.874233,44.546543,3124 6.874232,44.546555,3125 6.874278,44.546586,3125 6.874261,44.546569,3126 6.874246,44.546560,3125 6.874251,44.546564,3126 6.874269,44.546549,3126 6.874224,44.546542,3127 6.874184,44.546548,3127 6.874262,44.546538,3128 6.874252,44.546537,3127 6.874274,44.546549,3127 6.874276,44.546549,3128 6.874260,44.546596,3128 6.874315,44.546605,3128 6.874275,44.546606,3127 6.874299,44.546568,3127 6.874325,44.546561,3126 6.874338,44.546553,3127 6.874335,44.546543,3126 6.874388,44.546540,3127 6.874370,44.546558,3127 6.874356,44.546549,3127 6.874358,44.546536,3127 6.874371,44.546536,3127 6.874368,44.546534,3127 6.874362,44.546547,3127 6.874357,44.546572,3127 6.874363,44.546560,3126 6.874356,44.546559,3126 6.874362,44.546525,3126 6.874361,44.546526,3126 6.874387,44.546537,3124 6.874379,44.546518,3124 6.874389,44.546517,3124 6.874400,44.546509,3124 6.874424,44.546494,3124 6.874423,44.546475,3123 6.874434,44.546508,3124 6.874415,44.546501,3124 6.874416,44.546513,3125 6.874423,44.546505,3125 6.874406,44.546509,3124 6.874414,44.546521,3123 6.874449,44.546520,3122 6.874413,44.546515,3122 6.874422,44.546506,3121 6.874381,44.546509,3120 6.874401,44.546520,3120 6.874391,44.546481,3120 6.874373,44.546514,3121 6.874371,44.546532,3120 6.874379,44.546525,3119 6.874370,44.546557,3118 6.874358,44.546534,3118 6.874401,44.546512,3118 6.874377,44.546522,3118 6.874347,44.546502,3118 6.874374,44.546518,3119 6.874362,44.546538,3119 6.874349,44.546552,3120 6.874354,44.546560,3119 6.874338,44.546533,3119 6.874319,44.546565,3119 6.874337,44.546547,3119 6.874362,44.546537,3118 6.874356,44.546534,3119 6.874318,44.546535,3119 6.874300,44.546540,3119 6.874320,44.546552,3119 6.874339,44.546514,3119 6.874323,44.546528,3119 6.874338,44.546570,3119 6.874319,44.546554,3119 6.874286,44.546556,3118 6.874303,44.546537,3118 6.874335,44.546544,3118 6.874325,44.546581,3118 6.874323,44.546564,3118 6.874326,44.546543,3118 6.874334,44.546570,3118 6.874337,44.546568,3117 6.874322,44.546569,3117 6.874316,44.546523,3115 6.874306,44.546548,3115 6.874389,44.546546,3115 6.874362,44.546568,3115 6.874376,44.546462,3114 6.874385,44.546471,3114 6.874378,44.546469,3113 6.874409,44.546411,3113 6.874402,44.546353,3113 6.874400,44.546340,3113 6.874371,44.546375,3113 6.874369,44.546452,3113 6.874346,44.546461,3112 6.874319,44.546622,3112 6.874233,44.546741,3112 6.874325,44.546578,3111 6.874352,44.546533,3112 6.874360,44.546513,3111 6.874425,44.546455,3111 6.874437,44.546406,3110 6.874423,44.546421,3110 6.874377,44.546560,3110 6.874374,44.546585,3110 6.874408,44.546558,3109 6.874339,44.546632,3108 6.874365,44.546669,3108 6.874396,44.546588,3108 6.874399,44.546578,3108 6.874412,44.546571,3108 6.874410,44.546587,3108 6.874385,44.546642,3108 6.874298,44.546722,3108 6.874330,44.546708,3108 6.874324,44.546683,3108 6.874354,44.546612,3108 6.874380,44.546606,3107 6.874372,44.546584,3107 6.874395,44.546577,3107 6.874378,44.546543,3107 6.874395,44.546553,3106 6.874432,44.546529,3105 6.874419,44.546526,3105 6.874440,44.546520,3105 6.874430,44.546495,3105 6.874397,44.546528,3104 6.874388,44.546635,3103 6.874467,44.546598,3103 6.874428,44.546607,3103 6.874434,44.546587,3104 6.874433,44.546606,3104 6.874415,44.546644,3105 6.874421,44.546643,3104 6.874427,44.546634,3104 6.874447,44.546589,3105 6.874452,44.546571,3105 6.874432,44.546580,3105 6.874412,44.546611,3106 6.874440,44.546619,3105 6.874430,44.546603,3105 6.874432,44.546606,3105 6.874423,44.546623,3104 6.874429,44.546633,3103 6.874376,44.546614,3103 6.874358,44.546609,3103 6.874357,44.546602,3103 6.874426,44.546622,3103 6.874430,44.546668,3103 6.874426,44.546640,3104 6.874405,44.546612,3104 6.874399,44.546640,3104 6.874402,44.546653,3104 6.874414,44.546614,3104 6.874400,44.546616,3103 6.874403,44.546645,3103 6.874408,44.546637,3102 6.874411,44.546616,3102 6.874437,44.546597,3102 6.874469,44.546556,3102 6.874477,44.546510,3102 6.874433,44.546596,3103 6.874407,44.546601,3103 6.874390,44.546651,3103 6.874387,44.546632,3102 6.874390,44.546637,3101 6.874369,44.546688,3101 6.874368,44.546659,3102 6.874366,44.546641,3102 6.874377,44.546637,3102 6.874386,44.546626,3102 6.874445,44.546537,3102 6.874460,44.546543,3102 6.874429,44.546572,3102 6.874445,44.546579,3102 6.874420,44.546623,3102 6.874386,44.546636,3102 6.874452,44.546627,3102 6.874496,44.546603,3102 6.874409,44.546662,3102 6.874424,44.546588,3102 6.874473,44.546593,3100 6.874451,44.546620,3100 6.874465,44.546649,3100 6.874463,44.546691,3100 6.874468,44.546697,3099 6.874472,44.546655,3099 6.874480,44.546661,3098 6.874485,44.546673,3098 6.874471,44.546619,3097 6.874451,44.546604,3097 6.874471,44.546661,3096 6.874459,44.546703,3097 6.874434,44.546648,3097 6.874452,44.546654,3098 6.874468,44.546660,3098 6.874457,44.546662,3098 6.874459,44.546665,3098 6.874452,44.546664,3098 6.874471,44.546685,3098 6.874469,44.546684,3098 6.874448,44.546681,3098 6.874469,44.546675,3098 6.874473,44.546661,3098 6.874489,44.546660,3098 6.874497,44.546648,3098 6.874495,44.546646,3098 6.874504,44.546637,3098 6.874547,44.546647,3098 6.874515,44.546635,3098 6.874512,44.546623,3098 6.874525,44.546649,3098 6.874548,44.546641,3099 6.874558,44.546637,3099 6.874575,44.546583,3098 6.874605,44.546594,3098 6.874602,44.546649,3099 6.874594,44.546628,3099 6.874628,44.546628,3100 6.874619,44.546619,3100 6.874595,44.546571,3099 6.874574,44.546613,3099 6.874593,44.546584,3100 6.874595,44.546587,3100 6.874562,44.546610,3100 6.874595,44.546605,3100 6.874661,44.546602,3100 6.874621,44.546596,3100 6.874600,44.546607,3100 6.874596,44.546618,3100 6.874639,44.546612,3100 6.874630,44.546603,3100 6.874612,44.546605,3100 6.874592,44.546614,3101 6.874503,44.546648,3101 6.874535,44.546636,3101 6.874570,44.546620,3101 6.874597,44.546612,3101 6.874616,44.546598,3101 6.874656,44.546580,3100 6.874676,44.546606,3100 6.874650,44.546572,3099 6.874618,44.546594,3099 6.874648,44.546577,3099 6.874670,44.546566,3099 6.874694,44.546535,3098 6.874660,44.546559,3098 6.874633,44.546568,3098 6.874627,44.546574,3097 6.874662,44.546580,3097 6.874664,44.546575,3097 6.874678,44.546584,3096 6.874664,44.546540,3095 6.874735,44.546559,3094 6.874758,44.546510,3094 6.874710,44.546516,3094 6.874728,44.546541,3094 6.874727,44.546546,3094 6.874758,44.546549,3093 6.874753,44.546541,3093 6.874664,44.546585,3092 6.874689,44.546562,3092 6.874743,44.546526,3093 6.874711,44.546519,3093 6.874666,44.546612,3093 6.874611,44.546576,3092 6.874672,44.546601,3092 6.874692,44.546614,3092 6.874708,44.546610,3092 6.874659,44.546616,3092 6.874684,44.546609,3092 6.874671,44.546610,3091 6.874711,44.546585,3091 6.874717,44.546578,3091 6.874747,44.546573,3090 6.874697,44.546593,3090 6.874689,44.546588,3089 6.874709,44.546601,3089 6.874693,44.546594,3088 6.874712,44.546617,3088 6.874780,44.546575,3088 6.874737,44.546587,3088 6.874690,44.546621,3087 6.874690,44.546661,3087 6.874677,44.546676,3087 6.874713,44.546625,3086 6.874749,44.546599,3085 6.874775,44.546607,3085 6.874687,44.546631,3085 6.874679,44.546632,3085 6.874727,44.546586,3085 6.874706,44.546593,3085 6.874728,44.546598,3084 6.874737,44.546595,3084 6.874730,44.546609,3083 6.874709,44.546620,3083 6.874709,44.546634,3082 6.874754,44.546645,3082 6.874803,44.546620,3082 6.874781,44.546635,3081 6.874790,44.546594,3081 6.874788,44.546571,3081 6.874818,44.546564,3080 6.874772,44.546573,3080 6.874740,44.546624,3079 6.874776,44.546609,3079 6.874775,44.546601,3079 6.874807,44.546590,3078 6.874780,44.546621,3078 6.874872,44.546572,3078 6.874879,44.546556,3078 6.874868,44.546581,3077 6.874872,44.546603,3077 6.874859,44.546623,3076 6.874887,44.546641,3076 6.874909,44.546632,3076 6.874935,44.546618,3076 6.874947,44.546585,3076 6.874933,44.546642,3076 6.874930,44.546594,3076 6.874903,44.546630,3075 6.874920,44.546621,3075 6.874940,44.546606,3075 6.874941,44.546637,3075 6.874994,44.546602,3074 6.875019,44.546620,3074 6.875030,44.546617,3073 6.875053,44.546591,3072 6.875057,44.546593,3071 6.875078,44.546598,3070 6.875088,44.546603,3070 6.875097,44.546593,3070 6.875090,44.546588,3069 6.875087,44.546603,3068 6.875161,44.546607,3068 6.875178,44.546603,3066 6.875223,44.546604,3064 6.875255,44.546600,3063 6.875262,44.546589,3063 6.875276,44.546619,3061 6.875289,44.546604,3060 6.875335,44.546585,3060 6.875325,44.546600,3060 6.875337,44.546626,3059 6.875305,44.546652,3058 6.875301,44.546662,3057 6.875286,44.546687,3057 6.875278,44.546702,3056 6.875285,44.546748,3055 6.875282,44.546753,3054 6.875309,44.546794,3053 6.875281,44.546787,3052 6.875262,44.546794,3052 6.875278,44.546794,3051 6.875288,44.546790,3050 6.875238,44.546829,3050 6.875226,44.546827,3049 6.875240,44.546842,3049 6.875236,44.546868,3049 6.875279,44.546848,3048 6.875280,44.546856,3047 6.875293,44.546877,3046 6.875337,44.546882,3045 6.875382,44.546880,3044 6.875382,44.546833,3043 6.875403,44.546838,3042 6.875434,44.546843,3040 6.875469,44.546819,3039 6.875520,44.546824,3038 6.875538,44.546825,3038 6.875542,44.546824,3038 6.875463,44.546867,3038 6.875435,44.546865,3038 6.875482,44.546890,3039 6.875454,44.546882,3039 6.875441,44.546853,3040 6.875463,44.546837,3039 6.875462,44.546838,3038 6.875468,44.546820,3037 6.875483,44.546813,3037 6.875486,44.546785,3036 6.875489,44.546795,3035 6.875488,44.546830,3035 6.875460,44.546803,3035 6.875541,44.546778,3035 6.875540,44.546761,3036 6.875599,44.546717,3035 6.875568,44.546729,3035 6.875523,44.546740,3035 6.875539,44.546744,3035 6.875565,44.546741,3034 6.875557,44.546708,3034 6.875491,44.546768,3033 6.875454,44.546796,3034 6.875462,44.546785,3034 6.875484,44.546710,3034 6.875591,44.546668,3035 6.875640,44.546645,3035 6.875630,44.546648,3035 6.875623,44.546661,3036 6.875663,44.546660,3035 6.875625,44.546665,3035 6.875526,44.546708,3035 6.875539,44.546767,3034 6.875530,44.546756,3034 6.875506,44.546717,3033 6.875496,44.546774,3033 6.875497,44.546774,3033 6.875507,44.546738,3033 6.875541,44.546780,3032 6.875548,44.546771,3033 6.875569,44.546776,3031 6.875577,44.546801,3031 6.875566,44.546823,3030 6.875587,44.546844,3030 6.875557,44.546868,3030 6.875581,44.546872,3029 6.875626,44.546877,3029 6.875687,44.546874,3027 6.875671,44.546878,3027 6.875665,44.546890,3027 6.875654,44.546886,3027 6.875654,44.546886,3027 6.875678,44.546882,3026 6.875727,44.546842,3026 6.875705,44.546872,3024 6.875739,44.546871,3023 6.875696,44.546903,3023 6.875765,44.546864,3022 6.875758,44.546870,3022 6.875829,44.546870,3022 6.875893,44.546867,3021 6.876008,44.546813,3021 6.876067,44.546767,3022 6.876081,44.546775,3023 6.876106,44.546767,3023 6.876179,44.546765,3024 6.876227,44.546772,3025 6.876263,44.546786,3025 6.876387,44.546843,3025 6.876443,44.546895,3023 6.876512,44.546973,3021 6.876640,44.547024,3021 6.876526,44.547011,3021 6.876457,44.546996,3020 6.876477,44.547046,3020 6.876397,44.547058,3020 6.876568,44.547102,3019 6.876620,44.547137,3019 6.876678,44.547198,3018 6.876686,44.547232,3016 6.876675,44.547258,3015 6.876675,44.547261,3015 6.876688,44.547274,3014 6.876703,44.547285,3012 6.876731,44.547297,3011 6.876694,44.547321,3010 6.876706,44.547337,3009 6.876674,44.547338,3007 6.876687,44.547349,3006 6.876709,44.547382,3005 6.876716,44.547414,3003 6.876719,44.547442,3002 6.876738,44.547498,3000 6.876769,44.547521,2999 6.876788,44.547552,2998 6.876756,44.547625,2997 6.876750,44.547645,2996 6.876756,44.547716,2995 6.876739,44.547766,2994 6.876706,44.547815,2993 6.876683,44.547895,2991 6.876663,44.547980,2990 6.876648,44.548001,2989 6.876649,44.548029,2988 6.876665,44.548018,2989 6.876684,44.548019,2988 6.876686,44.548022,2988 6.876712,44.548088,2987 6.876720,44.548147,2985 6.876741,44.548195,2984 6.876789,44.548276,2983 6.876847,44.548324,2982 6.876944,44.548349,2981 6.876976,44.548369,2981 6.876976,44.548393,2982 6.876979,44.548389,2983 6.876966,44.548374,2983 6.876966,44.548375,2983 6.876946,44.548392,2984 6.876984,44.548407,2984 6.876980,44.548380,2985 6.876978,44.548386,2985 6.876954,44.548382,2985 6.876956,44.548386,2985 6.876954,44.548380,2985 6.876957,44.548382,2985 6.876973,44.548394,2985 6.876954,44.548381,2986 6.876956,44.548382,2986 6.876947,44.548376,2987 6.876955,44.548343,2986 6.876973,44.548327,2986 6.876941,44.548377,2987 6.876973,44.548385,2987 6.876874,44.548446,2984 6.876840,44.548469,2982 6.876834,44.548478,2981 6.876817,44.548501,2979 6.876779,44.548516,2977 6.876724,44.548549,2975 6.876685,44.548538,2974 6.876675,44.548576,2973 6.876663,44.548590,2971 6.876622,44.548579,2970 6.876648,44.548612,2969 6.876618,44.548639,2969 6.876601,44.548657,2967 6.876579,44.548680,2966 6.876541,44.548706,2964 6.876516,44.548734,2963 6.876527,44.548727,2962 6.876512,44.548753,2962 6.876468,44.548780,2960 6.876442,44.548798,2959 6.876413,44.548818,2957 6.876400,44.548843,2955 6.876378,44.548857,2953 6.876345,44.548875,2952 6.876311,44.548889,2951 6.876250,44.548870,2949 6.876220,44.548874,2948 6.876214,44.548903,2946 6.876218,44.548918,2945 6.876148,44.548928,2944 6.876091,44.548960,2942 6.876061,44.548996,2940 6.876040,44.549014,2939 6.876008,44.549022,2937 6.875986,44.549027,2936 6.875942,44.549056,2934 6.875937,44.549158,2932 6.875916,44.549178,2931 6.875862,44.549219,2930 6.875845,44.549282,2929 6.875845,44.549311,2928 6.875842,44.549387,2926 6.875822,44.549439,2924 6.875792,44.549482,2923 6.875769,44.549502,2922 6.875740,44.549537,2920 6.875713,44.549588,2919 6.875695,44.549617,2918 6.875696,44.549664,2917 6.875674,44.549715,2915 6.875662,44.549738,2914 6.875649,44.549758,2913 6.875618,44.549796,2912 6.875584,44.549863,2911 6.875559,44.549964,2910 6.875559,44.550020,2908 6.875536,44.550054,2907 6.875519,44.550110,2905 6.875506,44.550117,2903 6.875487,44.550136,2902 6.875457,44.550190,2900 6.875450,44.550206,2899 6.875429,44.550234,2898 6.875434,44.550245,2898 6.875380,44.550277,2896 6.875312,44.550306,2895 6.875209,44.550284,2894 6.875105,44.550284,2893 6.875012,44.550277,2892 6.875010,44.550328,2891 6.875065,44.550401,2889 6.875157,44.550397,2889 6.875095,44.550444,2888 6.875110,44.550467,2887 6.875118,44.550480,2885 6.875133,44.550490,2883 6.875142,44.550511,2881 6.875165,44.550520,2880 6.875163,44.550515,2881 6.875118,44.550553,2879 6.875139,44.550558,2878 6.875140,44.550579,2876 6.875142,44.550596,2874 6.875127,44.550626,2873 6.875157,44.550617,2872 6.875088,44.550634,2871 6.875115,44.550651,2870 6.875117,44.550652,2868 6.875112,44.550647,2867 6.875111,44.550693,2866 6.875131,44.550711,2865 6.875151,44.550716,2864 6.875160,44.550721,2863 6.875159,44.550716,2862 6.875200,44.550735,2860 6.875191,44.550752,2860 6.875173,44.550792,2858 6.875186,44.550812,2856 6.875227,44.550818,2855 6.875203,44.550833,2855 6.875183,44.550839,2854 6.875181,44.550860,2852 6.875159,44.550861,2852 6.875164,44.550868,2851 6.875179,44.550914,2849 6.875213,44.550921,2848 6.875204,44.550937,2847 6.875223,44.550962,2846 6.875242,44.550968,2845 6.875234,44.550965,2844 6.875267,44.550984,2843 6.875274,44.551001,2842 6.875270,44.551032,2841 6.875270,44.551057,2839 6.875287,44.551075,2838 6.875310,44.551106,2837 6.875338,44.551119,2836 6.875400,44.551155,2834 6.875539,44.551222,2832 6.875570,44.551236,2830 6.875640,44.551253,2830 6.875673,44.551291,2828 6.875681,44.551324,2827 6.875680,44.551335,2826 6.875695,44.551338,2825 6.875722,44.551347,2823 6.875749,44.551358,2822 6.875728,44.551358,2822 6.875723,44.551415,2821 6.875770,44.551374,2821 6.875761,44.551394,2820 6.875736,44.551390,2819 6.875746,44.551399,2818 6.875758,44.551443,2817 6.875774,44.551432,2816 6.875762,44.551449,2815 6.875793,44.551465,2814 6.875850,44.551474,2813 6.875848,44.551484,2812 6.875835,44.551508,2810 6.875850,44.551528,2809 6.875879,44.551545,2808 6.875886,44.551544,2807 6.875926,44.551570,2806 6.875954,44.551585,2805 6.876013,44.551626,2803 6.876040,44.551662,2803 6.876082,44.551685,2801 6.876146,44.551708,2800 6.876189,44.551746,2799 6.876226,44.551760,2798 6.876234,44.551772,2798 6.876247,44.551775,2796 6.876305,44.551804,2795 6.876351,44.551860,2793 6.876389,44.551904,2791 6.876441,44.551967,2789 6.876468,44.552030,2788 6.876506,44.552129,2786 6.876553,44.552174,2784 6.876613,44.552266,2784 6.876690,44.552348,2784 6.876757,44.552387,2787 6.876838,44.552453,2786 6.876857,44.552473,2784 6.876935,44.552547,2783 6.877000,44.552591,2781 6.877064,44.552627,2780 6.877202,44.552725,2780 6.877276,44.552772,2781 6.877509,44.552824,2781 6.877612,44.552871,2780 6.877693,44.552964,2779 6.877801,44.553033,2778 6.877948,44.553100,2776 6.878110,44.553132,2775 6.878346,44.553188,2775 6.878466,44.553175,2775 6.878690,44.553184,2774 6.878878,44.553326,2775 6.879009,44.553342,2773 6.879101,44.553367,2772 6.879215,44.553415,2771 6.879312,44.553443,2770 6.879561,44.553530,2769 6.879690,44.553567,2768 6.879682,44.553588,2768 6.879715,44.553580,2768 6.879693,44.553578,2768 6.879680,44.553577,2768 6.879676,44.553523,2769 6.879692,44.553567,2769 6.879927,44.553572,2767 6.880016,44.553575,2766 6.880191,44.553564,2763 6.880341,44.553489,2764 6.880490,44.553429,2762 6.880613,44.553383,2762 6.880726,44.553359,2764 6.880748,44.553339,2764 6.880823,44.553275,2764 6.880890,44.553222,2762 6.880959,44.553191,2760 6.880983,44.553204,2761 6.881001,44.553189,2762 6.881063,44.553192,2763 6.881134,44.553135,2762 6.881176,44.553135,2760 6.881166,44.553139,2759 6.881161,44.553153,2758 6.881186,44.553175,2756 6.881222,44.553155,2754 6.881278,44.553114,2753 6.881304,44.553073,2752 6.881373,44.553032,2750 6.881445,44.552986,2749 6.881463,44.552962,2749 6.881524,44.552915,2747 6.881573,44.552891,2746 6.881659,44.552837,2744 6.881698,44.552820,2743 6.881819,44.552815,2741 6.881850,44.552812,2740 6.881841,44.552770,2739 6.881893,44.552723,2737 6.881952,44.552714,2735 6.882017,44.552693,2733 6.882063,44.552680,2732 6.882147,44.552648,2729 6.882243,44.552620,2728 6.882354,44.552586,2728 6.882351,44.552590,2728 6.882352,44.552592,2728 6.882366,44.552574,2728 6.882357,44.552550,2729 6.882373,44.552576,2728 6.882439,44.552568,2728 6.882549,44.552485,2727 6.882622,44.552449,2725 6.882654,44.552417,2724 6.882713,44.552371,2723 6.882815,44.552320,2721 6.882917,44.552281,2720 6.883056,44.552236,2719 6.883199,44.552265,2717 6.883306,44.552329,2716 6.883339,44.552353,2715 6.883365,44.552319,2713 6.883431,44.552295,2711 6.883507,44.552282,2710 6.883536,44.552250,2708 6.883566,44.552149,2705 6.883618,44.552107,2704 6.883671,44.552062,2703 6.883753,44.552017,2701 6.883772,44.551994,2700 6.883875,44.551939,2698 6.883919,44.551950,2697 6.883958,44.551953,2696 6.884064,44.551905,2695 6.884212,44.551838,2694 6.884357,44.551740,2693 6.884459,44.551695,2692 6.884540,44.551656,2691 6.884671,44.551633,2690 6.884801,44.551678,2688 6.884890,44.551683,2687 6.884983,44.551681,2685 6.885022,44.551668,2684 6.885109,44.551636,2683 6.885146,44.551659,2682 6.885149,44.551687,2682 6.885213,44.551658,2680 6.885261,44.551641,2679 6.885305,44.551609,2676 6.885324,44.551546,2675 6.885331,44.551494,2673 6.885366,44.551441,2672 6.885409,44.551420,2670 6.885477,44.551395,2669 6.885487,44.551335,2667 6.885496,44.551321,2667 6.885521,44.551292,2666 6.885599,44.551279,2665 6.885612,44.551364,2663 6.885598,44.551405,2661 6.885599,44.551414,2659 6.885652,44.551454,2658 6.885700,44.551504,2657 6.885752,44.551568,2655 6.885769,44.551644,2653 6.885777,44.551666,2651 6.885791,44.551655,2651 6.885864,44.551655,2649 6.885917,44.551696,2648 6.885942,44.551733,2647 6.886007,44.551794,2645 6.886063,44.551858,2644 6.886090,44.551916,2642 6.886137,44.551957,2641 6.886204,44.552021,2640 6.886329,44.552147,2639 6.886389,44.552237,2638 6.886459,44.552248,2638 6.886525,44.552248,2639 6.886518,44.552244,2638 6.886533,44.552252,2639 6.886634,44.552384,2639 6.886716,44.552620,2640 6.886718,44.552746,2641 6.886721,44.552851,2642 6.886728,44.552907,2642 6.886774,44.552996,2642 6.886875,44.553111,2642 6.887065,44.553320,2643 6.887145,44.553425,2643 6.887366,44.553492,2642 6.887451,44.553545,2641 6.887660,44.553682,2642 6.887925,44.553729,2643 6.888041,44.553793,2643 6.888154,44.553916,2644 6.888183,44.553954,2645 6.888243,44.553995,2646 6.888308,44.554018,2646 6.888572,44.554140,2647 6.888634,44.554164,2648 6.888710,44.554174,2648 6.888823,44.554166,2649 6.888922,44.554180,2650 6.889027,44.554195,2651 6.889134,44.554213,2652 6.889248,44.554224,2653 6.889352,44.554247,2654 6.889475,44.554260,2656 6.889624,44.554298,2657 6.889689,44.554293,2658 6.889774,44.554280,2658 6.889805,44.554273,2659 6.889833,44.554268,2659 6.889981,44.554275,2660 6.890079,44.554272,2661 6.890222,44.554244,2662 6.890406,44.554135,2662 6.890498,44.554089,2663 6.890638,44.554029,2663 6.890734,44.553962,2664 6.890834,44.553874,2665 6.890964,44.553793,2666 6.890977,44.553787,2666 6.890963,44.553757,2665 6.890959,44.553749,2666 6.890987,44.553892,2665 6.890994,44.554060,2665 6.891055,44.554134,2667 6.891096,44.554176,2668 6.891159,44.554219,2669 6.891197,44.554259,2669 6.891207,44.554288,2669 6.891219,44.554338,2670 6.891221,44.554351,2670 6.891244,44.554363,2671 6.891253,44.554395,2671 6.891248,44.554402,2671 6.891267,44.554431,2672 6.891329,44.554505,2671 6.891378,44.554661,2672 6.891343,44.554741,2674 6.891365,44.554805,2676 6.891424,44.554853,2677 6.891445,44.554881,2678 6.891461,44.554918,2679 6.891489,44.554974,2680 6.891512,44.555004,2681 6.891510,44.555040,2682 6.891495,44.555081,2683 6.891521,44.555166,2684 6.891581,44.555234,2685 6.891639,44.555306,2684 6.891623,44.555392,2683 6.891725,44.555546,2684 6.891771,44.555649,2685 6.891829,44.555779,2685 6.891879,44.555836,2685 6.891889,44.555862,2684 6.891939,44.555922,2685 6.892021,44.555944,2685 6.892055,44.556035,2685 6.892131,44.556237,2687 6.892258,44.556333,2686 6.892275,44.556398,2686 6.892319,44.556462,2684 6.892411,44.556558,2684 6.892495,44.556661,2686 6.892551,44.556723,2687 6.892607,44.556780,2688 6.892637,44.556789,2689 6.892671,44.556817,2690 6.892709,44.556863,2690 6.892696,44.556834,2691 6.892694,44.556865,2691 6.892677,44.556864,2691 6.892688,44.556854,2691 6.892670,44.556841,2691 6.892662,44.556841,2691 6.892655,44.556801,2691 6.892665,44.556817,2691 6.892646,44.556825,2691 6.892651,44.556852,2691 6.892642,44.556925,2691 6.892625,44.556927,2691 6.892671,44.556855,2692 6.892674,44.556830,2692 6.892681,44.556828,2692 6.892679,44.556854,2691 6.892698,44.556857,2692 6.892707,44.556828,2692 6.892692,44.556845,2692 6.892669,44.556847,2692 6.892681,44.556848,2692 6.892784,44.556852,2693 6.892804,44.556861,2694 6.892887,44.556910,2696 6.892913,44.556922,2697 6.892979,44.556933,2698 6.893058,44.556936,2699 6.893194,44.556928,2699 6.893347,44.556933,2700 6.893451,44.556981,2702 6.893528,44.557005,2703 6.893596,44.557021,2704 6.893662,44.557029,2705 6.893679,44.557030,2705 6.893739,44.557050,2707 6.893780,44.557042,2708 6.893823,44.557024,2709 6.893909,44.557008,2710 6.894008,44.557010,2711 6.894126,44.557013,2712 6.894206,44.557039,2713 6.894220,44.557097,2714 6.894269,44.557176,2715 6.894287,44.557194,2715 6.894313,44.557232,2715 6.894367,44.557269,2716 6.894465,44.557324,2717 6.894532,44.557342,2718 6.894560,44.557339,2719 6.894609,44.557337,2720 6.894669,44.557335,2721 6.894705,44.557307,2722 6.894749,44.557316,2723 6.894818,44.557328,2724 6.894836,44.557317,2725 6.894899,44.557345,2725 6.895102,44.557337,2726 6.895252,44.557365,2726 6.895254,44.557383,2727 6.895267,44.557391,2728 6.895240,44.557482,2727 6.895301,44.557461,2729 6.895366,44.557482,2730 6.895379,44.557521,2731 6.895471,44.557524,2732 6.895575,44.557554,2732 6.895603,44.557562,2732 6.895675,44.557563,2733 6.895698,44.557562,2734 6.895773,44.557577,2735 6.895799,44.557604,2735 6.895866,44.557561,2734 6.896006,44.557610,2735 6.896072,44.557628,2736 6.896137,44.557617,2737 6.896269,44.557656,2739 6.896323,44.557653,2740 6.896367,44.557683,2740 6.896398,44.557689,2741 6.896525,44.557731,2743 6.896587,44.557742,2744 6.896634,44.557762,2745 6.896750,44.557757,2746 6.896790,44.557765,2746 6.896901,44.557777,2747 6.896979,44.557785,2748 6.897030,44.557787,2748 6.897053,44.557784,2749 6.897113,44.557810,2749 6.897184,44.557809,2749 6.897254,44.557801,2750 6.897330,44.557767,2752 6.897386,44.557792,2752 6.897520,44.557809,2751 6.897581,44.557826,2751 6.897695,44.557853,2752 6.897741,44.557844,2753 6.897793,44.557863,2753 6.897906,44.557875,2753 6.897920,44.557889,2754 6.897984,44.557914,2756 6.898081,44.557877,2756 6.898221,44.557814,2757 6.898277,44.557793,2758 6.898320,44.557764,2760 6.898385,44.557733,2761 6.898423,44.557714,2762 6.898455,44.557706,2762 6.898496,44.557689,2763 6.898527,44.557674,2764 6.898617,44.557634,2765 6.898673,44.557636,2766 6.898712,44.557649,2767 6.898837,44.557667,2768 6.898892,44.557687,2769 6.899033,44.557720,2768 6.899091,44.557736,2768 6.899138,44.557736,2768 6.899253,44.557758,2769 6.899284,44.557754,2769 6.899343,44.557766,2770 6.899420,44.557792,2771 6.899417,44.557783,2771 6.899443,44.557795,2771 6.899448,44.557806,2771 6.899513,44.557877,2771 6.899605,44.557931,2773 6.899736,44.557964,2772 6.899749,44.557933,2772 6.899740,44.557929,2772 6.899918,44.557974,2771 6.899987,44.557980,2770 6.900055,44.557986,2769 6.900076,44.558032,2768 6.900133,44.558079,2766 6.900214,44.558103,2765 6.900270,44.558135,2763 6.900311,44.558152,2761 6.900380,44.558159,2760 6.900410,44.558162,2759 6.900461,44.558176,2758 6.900491,44.558196,2757 6.900522,44.558200,2756 6.900539,44.558180,2755 6.900569,44.558213,2753 6.900625,44.558249,2752 6.900761,44.558311,2752 6.900861,44.558296,2753 6.900924,44.558298,2753 6.901058,44.558348,2752 6.901192,44.558403,2751 6.901350,44.558423,2752 6.901310,44.558377,2752 6.901281,44.558367,2752 6.901230,44.558379,2753 6.901284,44.558354,2753 6.901327,44.558420,2752 6.901353,44.558417,2751 6.901492,44.558417,2749 6.901540,44.558472,2748 6.901550,44.558493,2747 6.901566,44.558556,2744 6.901562,44.558625,2743 6.901555,44.558662,2742 6.901525,44.558736,2741 6.901495,44.558754,2740 6.901481,44.558769,2740 6.901481,44.558817,2739 6.901519,44.558901,2738 6.901559,44.558958,2737 6.901628,44.558952,2736 6.901724,44.558978,2736 6.901742,44.558985,2735 6.901775,44.559010,2735 6.901825,44.559039,2734 6.901912,44.559082,2734 6.901966,44.559117,2735 6.902075,44.559153,2735 6.902128,44.559234,2735 6.902182,44.559238,2735 6.902203,44.559298,2734 6.902244,44.559318,2733 6.902273,44.559350,2735 6.902335,44.559411,2737 6.902355,44.559454,2737 6.902418,44.559543,2738 6.902534,44.559616,2737 6.902609,44.559707,2737 6.902679,44.559799,2736 6.902711,44.559830,2735 6.902770,44.559861,2735 6.902809,44.559908,2734 6.902820,44.559927,2733 6.902817,44.559953,2733 6.902846,44.559970,2731 6.902865,44.559962,2730 6.902831,44.559999,2729 6.902786,44.560025,2726 6.902822,44.560071,2725 6.902863,44.560107,2723 6.902942,44.560149,2722 6.903048,44.560229,2723 6.903090,44.560242,2724 6.903133,44.560236,2725 6.903167,44.560224,2726 6.903204,44.560223,2726 6.903277,44.560230,2728 6.903412,44.560204,2729 6.903434,44.560187,2730 6.903486,44.560165,2731 6.903562,44.560166,2732 6.903622,44.560175,2733 6.903719,44.560236,2734 6.903839,44.560299,2735 6.903947,44.560306,2736 6.904023,44.560302,2737 6.904119,44.560268,2738 6.904237,44.560261,2738 6.904373,44.560219,2738 6.904630,44.560184,2739 6.904784,44.560166,2739 6.905025,44.560143,2739 6.905208,44.560132,2740 6.905403,44.560122,2740 6.905577,44.560104,2741 6.905752,44.560089,2742 6.905844,44.560086,2743 6.905954,44.560083,2744 6.905987,44.560070,2744 6.906104,44.560037,2746 6.906202,44.560017,2746 6.906311,44.559980,2747 6.906397,44.559938,2748 6.906464,44.559924,2749 6.906560,44.559892,2751 6.906647,44.559896,2752 6.906633,44.559903,2752 6.906729,44.559876,2753 6.906820,44.559877,2754 6.906880,44.559870,2755 6.906972,44.559873,2756 6.907076,44.559897,2757 6.907136,44.559881,2758 6.907307,44.559812,2760 6.907358,44.559778,2760 6.907328,44.559786,2761 6.907355,44.559757,2761 6.907352,44.559751,2760 6.907345,44.559749,2760 6.907342,44.559748,2760 6.907474,44.559787,2761 6.907562,44.559784,2761 6.907653,44.559781,2762 6.907700,44.559768,2763 6.907870,44.559796,2764 6.907958,44.559763,2766 6.908015,44.559739,2768 6.908035,44.559723,2769 6.908078,44.559706,2770 6.908099,44.559685,2771 6.908137,44.559645,2772 6.908153,44.559607,2773 6.908159,44.559581,2774 6.908180,44.559560,2775 6.908207,44.559496,2777 6.908258,44.559460,2777 6.908251,44.559419,2779 6.908293,44.559385,2780 6.908339,44.559357,2782 6.908424,44.559344,2783 6.908469,44.559321,2784 6.908517,44.559288,2785 6.908553,44.559243,2787 6.908573,44.559232,2788 6.908630,44.559215,2789 6.908643,44.559172,2790 6.908675,44.559154,2792 6.908692,44.559123,2793 6.908688,44.559086,2795 6.908668,44.559063,2796 6.908702,44.559039,2797 6.908703,44.559037,2797 6.908729,44.559023,2798 6.908758,44.559000,2798 6.908779,44.558971,2799 6.908818,44.558935,2800 6.908848,44.558905,2802 6.908879,44.558873,2803 6.908918,44.558823,2804 6.908918,44.558830,2805 6.908955,44.558805,2805 6.909004,44.558759,2806 6.909058,44.558733,2807 6.909118,44.558702,2809 6.909145,44.558660,2810 6.909202,44.558618,2811 6.909261,44.558580,2813 6.909293,44.558538,2814 6.909297,44.558520,2814 6.909294,44.558483,2815 6.909311,44.558433,2817 6.909347,44.558381,2818 6.909385,44.558362,2820 6.909422,44.558338,2821 6.909452,44.558296,2822 6.909471,44.558261,2823 6.909505,44.558221,2824 6.909589,44.558163,2826 6.909692,44.558101,2827 6.909771,44.558053,2827 6.909898,44.557941,2828 6.909932,44.557883,2828 6.909963,44.557824,2828 6.910040,44.557671,2827 6.910099,44.557594,2828 6.910131,44.557553,2828 6.910148,44.557512,2827 6.910148,44.557513,2827 6.910175,44.557495,2827 6.910159,44.557512,2826 6.910122,44.557504,2827 6.910162,44.557505,2828 6.910146,44.557468,2828 6.910134,44.557525,2828 6.910132,44.557525,2828 6.910169,44.557478,2829 6.910142,44.557478,2829 6.910175,44.557502,2828 6.910160,44.557493,2828 6.910191,44.557375,2827 6.910209,44.557308,2826 6.910221,44.557323,2826 6.910202,44.557264,2826 6.910252,44.557207,2824 6.910276,44.557200,2822 6.910314,44.557188,2821 6.910379,44.557171,2819 6.910414,44.557178,2817 6.910498,44.557145,2817 6.910592,44.557085,2817 6.910682,44.557006,2816 6.910785,44.556889,2814 6.910819,44.556810,2813 6.910898,44.556756,2812 6.910999,44.556701,2811 6.911140,44.556646,2808 6.911238,44.556581,2806 6.911291,44.556533,2805 6.911363,44.556490,2803 6.911479,44.556430,2803 6.911598,44.556258,2802 6.911699,44.556157,2802 6.911810,44.556120,2802 6.911911,44.556090,2803 6.912082,44.556038,2802 6.912233,44.555965,2800 6.912499,44.555848,2800 6.912672,44.555799,2802 6.912756,44.555788,2802 6.912760,44.555789,2802 6.912750,44.555769,2801 6.912707,44.555776,2803 6.912799,44.555833,2802 6.912853,44.555819,2800 6.912852,44.555835,2799 6.912824,44.555846,2799 6.912840,44.555838,2799 6.912851,44.555833,2799 6.912855,44.555829,2799 6.912877,44.555815,2800 6.912805,44.555840,2800 6.912797,44.555819,2800 6.912847,44.555787,2800 6.912787,44.555803,2800 6.912736,44.555860,2802 6.912746,44.555903,2802 6.912760,44.555957,2804 6.912785,44.555981,2805 6.912795,44.555987,2805 6.912845,44.555966,2804 6.912884,44.555980,2804 6.912913,44.556017,2805 6.912905,44.556005,2806 6.912920,44.555987,2806 6.913003,44.555939,2805 6.913039,44.555933,2806 6.913068,44.555926,2807 6.913115,44.555927,2807 6.913164,44.555909,2808 6.913253,44.555892,2809 6.913332,44.555883,2809 6.913384,44.555862,2809 6.913411,44.555846,2809 6.913464,44.555836,2809 6.913502,44.555828,2810 6.913563,44.555805,2811 6.913614,44.555806,2812 6.913665,44.555836,2813 6.913700,44.555812,2814 6.913762,44.555775,2814 6.913758,44.555774,2814 6.913845,44.555747,2816 6.913960,44.555656,2814 6.914065,44.555588,2814 6.914232,44.555534,2814 6.914328,44.555527,2813 6.914439,44.555494,2813 6.914488,44.555443,2812 6.914544,44.555379,2810 6.914558,44.555312,2809 6.914647,44.555308,2808 6.914770,44.555295,2806 6.914830,44.555230,2805 6.914897,44.555220,2804 6.915003,44.555183,2803 6.915122,44.555073,2802 6.915217,44.555032,2801 6.915322,44.554951,2801 6.915468,44.554856,2801 6.915639,44.554734,2801 6.915753,44.554661,2803 6.915838,44.554637,2804 6.915904,44.554587,2805 6.915979,44.554447,2804 6.916200,44.554272,2805 6.916444,44.554218,2805 6.916561,44.554196,2805 6.916589,44.554179,2804 6.916624,44.554172,2803 6.916630,44.554156,2802 6.916619,44.554173,2801 6.916643,44.554173,2801 6.916642,44.554161,2801 6.916723,44.554152,2800 6.916825,44.554141,2798 6.916990,44.554109,2800 6.917123,44.554079,2801 6.917191,44.554081,2802 6.917239,44.554095,2803 6.917320,44.554095,2804 6.917371,44.554087,2805 6.917441,44.554071,2806 6.917480,44.554073,2807 6.917518,44.554074,2807 6.917586,44.554077,2808 6.917613,44.554099,2809 6.917672,44.554176,2811 6.917709,44.554186,2812 6.917762,44.554185,2813 6.917789,44.554170,2814 6.917873,44.554150,2816 6.917971,44.554161,2817 6.918022,44.554174,2818 6.918030,44.554194,2819 6.918083,44.554208,2821 6.918114,44.554216,2822 6.918176,44.554276,2823 6.918199,44.554305,2824 6.918256,44.554324,2825 6.918336,44.554348,2827 6.918382,44.554365,2826 6.918419,44.554425,2826 6.918535,44.554517,2826 6.918552,44.554533,2828 6.918624,44.554574,2829 6.918648,44.554591,2830 6.918670,44.554591,2832 6.918716,44.554601,2832 6.918720,44.554610,2832 6.918714,44.554636,2833 6.918732,44.554671,2835 6.918807,44.554664,2836 6.918888,44.554660,2837 6.918953,44.554676,2838 6.919017,44.554709,2840 6.919027,44.554703,2840 6.918993,44.554694,2839 6.918989,44.554677,2839 6.918996,44.554688,2839 6.918998,44.554678,2839 6.919000,44.554671,2839 6.919000,44.554682,2839 6.918993,44.554693,2839 6.919001,44.554680,2839 6.918996,44.554782,2840 6.919002,44.554757,2839 6.919022,44.554726,2839 6.919024,44.554730,2838 6.919009,44.554735,2839 6.919034,44.554718,2839 6.919010,44.554731,2838 6.919040,44.554721,2838 6.919060,44.554747,2838 6.919051,44.554719,2838 6.919026,44.554798,2837 6.919015,44.554827,2837 6.919006,44.554798,2837 6.919051,44.554837,2837 6.919083,44.554817,2837 6.919083,44.554805,2836 6.919105,44.554847,2836 6.919108,44.554856,2836 6.919074,44.554827,2836 6.919074,44.554868,2837 6.919072,44.554893,2837 6.919050,44.554854,2836 6.919053,44.554885,2837 6.919048,44.554870,2836 6.919113,44.554857,2836 6.919210,44.554875,2835 6.919237,44.554908,2834 6.919289,44.554934,2832 6.919353,44.554923,2831 6.919535,44.554892,2831 6.919630,44.554837,2833 6.919709,44.554867,2835 6.919783,44.554898,2836 6.919816,44.554920,2838 6.919854,44.554936,2839 6.919880,44.554944,2840 6.919914,44.554949,2841 6.919963,44.554948,2844 6.919993,44.554961,2845 6.919978,44.554965,2846 6.920026,44.554972,2848 6.920059,44.554991,2849 6.920128,44.555040,2851 6.920144,44.555049,2852 6.920178,44.555056,2854 6.920212,44.555036,2855 6.920241,44.555014,2857 6.920304,44.554981,2858 6.920312,44.555000,2860 6.920338,44.555028,2861 6.920430,44.555011,2860 6.920529,44.555002,2860 6.920535,44.554994,2861 6.920571,44.554968,2859 6.920655,44.554968,2859 6.920795,44.554995,2858 6.920881,44.554993,2857 6.920937,44.554987,2857 6.921007,44.554903,2857 6.921105,44.554767,2856 6.921125,44.554732,2856 6.921135,44.554712,2855 6.921133,44.554686,2855 6.921267,44.554728,2855 6.921333,44.554693,2856 6.921397,44.554646,2856 6.921464,44.554576,2856 6.921490,44.554562,2858 6.921534,44.554547,2858 6.921568,44.554540,2859 6.921597,44.554519,2860 6.921658,44.554495,2862 6.921701,44.554481,2863 6.921746,44.554473,2865 6.921785,44.554460,2866 6.921809,44.554478,2867 6.921812,44.554475,2868 6.921817,44.554458,2869 6.921826,44.554456,2871 6.921863,44.554469,2872 6.921918,44.554444,2874 6.921944,44.554415,2875 6.922006,44.554389,2876 6.922066,44.554373,2877 6.922099,44.554368,2878 6.922221,44.554378,2878 6.922244,44.554394,2879 6.922284,44.554417,2881 6.922328,44.554437,2882 6.922361,44.554463,2881 6.922355,44.554481,2881 6.922376,44.554492,2880 6.922464,44.554500,2879 6.922528,44.554493,2877 6.922636,44.554503,2874 6.922678,44.554512,2873 6.922729,44.554525,2872 6.922817,44.554558,2871 6.922905,44.554549,2869 6.923006,44.554530,2868 6.923095,44.554505,2866 6.923142,44.554479,2864 6.923174,44.554423,2862 6.923201,44.554391,2861 6.923240,44.554362,2859 6.923281,44.554316,2857 6.923301,44.554295,2856 6.923402,44.554246,2854 6.923483,44.554194,2852 6.923534,44.554155,2851 6.923608,44.554071,2849 6.923635,44.554047,2848 6.923664,44.554025,2847 6.923755,44.553939,2847 6.923760,44.553873,2846 6.923799,44.553785,2845 6.923816,44.553698,2842 6.923828,44.553654,2841 6.923871,44.553578,2840 6.923926,44.553448,2838 6.923951,44.553420,2836 6.924006,44.553341,2835 6.924193,44.553108,2836 6.924237,44.553025,2839 6.924266,44.552955,2839 6.924299,44.552888,2838 6.924336,44.552821,2839 6.924386,44.552709,2839 6.924459,44.552520,2839 6.924508,44.552481,2840 6.924543,44.552454,2841 6.924578,44.552406,2842 6.924611,44.552340,2844 6.924626,44.552303,2846 6.924623,44.552268,2847 6.924676,44.552205,2848 6.924759,44.552050,2848 6.924852,44.551860,2848 6.924886,44.551754,2849 6.924942,44.551685,2850 6.925061,44.551575,2851 6.925051,44.551523,2850 6.925153,44.551423,2851 6.925214,44.551370,2852 6.925350,44.551307,2852 6.925412,44.551258,2853 6.925431,44.551188,2854 6.925455,44.551124,2855 6.925609,44.551012,2854 6.925639,44.550946,2852 6.925721,44.550863,2850 6.925836,44.550758,2847 6.925879,44.550690,2845 6.925932,44.550626,2843 6.925998,44.550592,2842 6.926129,44.550507,2839 6.926262,44.550508,2837 6.926337,44.550533,2836 6.926424,44.550541,2834 6.926493,44.550566,2832 6.926549,44.550576,2831 6.926568,44.550583,2829 6.926609,44.550609,2827 6.926614,44.550634,2826 6.926563,44.550676,2825 6.926520,44.550755,2822 6.926502,44.550792,2821 6.926515,44.550872,2819 6.926643,44.550874,2817 6.926764,44.550941,2815 6.926780,44.550968,2814 6.926751,44.550988,2812 6.926705,44.551008,2811 6.926676,44.551060,2809 6.926694,44.551068,2808 6.926738,44.551076,2806 6.926763,44.551091,2805 6.926811,44.551111,2803 6.926815,44.551128,2802 6.926831,44.551152,2800 6.926824,44.551184,2799 6.926857,44.551230,2797 6.926883,44.551252,2796 6.926889,44.551289,2794 6.926888,44.551320,2792 6.926848,44.551353,2789 6.926874,44.551369,2788 6.926895,44.551385,2787 6.927020,44.551423,2785 6.927093,44.551402,2782 6.927143,44.551349,2780 6.927227,44.551254,2780 6.927329,44.551220,2777 6.927431,44.551176,2774 6.927564,44.551146,2773 6.927645,44.551147,2771 6.927702,44.551161,2768 6.927765,44.551175,2767 6.927773,44.551201,2765 6.927779,44.551221,2763 6.927820,44.551232,2762 6.927825,44.551283,2759 6.927843,44.551319,2757 6.927849,44.551331,2756 6.927905,44.551348,2754 6.927967,44.551338,2752 6.928003,44.551323,2751 6.928025,44.551317,2750 6.928050,44.551325,2748 6.928078,44.551348,2746 6.928096,44.551363,2743 6.928056,44.551411,2741 6.928061,44.551443,2740 6.928131,44.551482,2737 6.928107,44.551495,2736 6.928089,44.551532,2734 6.928062,44.551555,2732 6.928025,44.551609,2730 6.928086,44.551635,2727 6.928075,44.551659,2726 6.928060,44.551690,2724 6.928025,44.551750,2722 6.928075,44.551757,2720 6.928132,44.551768,2718 6.928275,44.551767,2716 6.928277,44.551786,2715 6.928244,44.551839,2714 6.928218,44.551864,2713 6.928210,44.551885,2711 6.928231,44.551898,2710 6.928228,44.551927,2709 6.928214,44.551951,2707 6.928246,44.551969,2706 6.928257,44.551995,2704 6.928247,44.552007,2703 6.928295,44.552066,2700 6.928286,44.552086,2699 6.928315,44.552113,2697 6.928324,44.552167,2696 6.928322,44.552207,2693 6.928329,44.552242,2691 6.928331,44.552253,2690 6.928368,44.552248,2688 6.928414,44.552263,2687 6.928409,44.552300,2686 6.928436,44.552341,2684 6.928444,44.552372,2683 6.928432,44.552419,2681 6.928413,44.552441,2680 6.928410,44.552459,2679 6.928424,44.552501,2677 6.928449,44.552529,2675 6.928425,44.552552,2674 6.928393,44.552566,2673 6.928438,44.552582,2672 6.928492,44.552609,2671 6.928498,44.552647,2669 6.928460,44.552699,2668 6.928465,44.552724,2666 6.928536,44.552749,2665 6.928500,44.552827,2663 6.928457,44.552898,2662 6.928491,44.552897,2661 6.928567,44.552898,2660 6.928639,44.552960,2658 6.928669,44.552992,2656 6.928763,44.553058,2654 6.928811,44.553132,2653 6.928785,44.553221,2652 6.928748,44.553306,2651 6.928676,44.553414,2648 6.928582,44.553488,2646 6.928513,44.553552,2644 6.928455,44.553573,2643 6.928417,44.553597,2642 6.928417,44.553650,2639 6.928472,44.553705,2638 6.928522,44.553758,2636 6.928546,44.553794,2635 6.928587,44.553889,2633 6.928610,44.553983,2632 6.928596,44.554038,2631 6.928585,44.554078,2629 6.928541,44.554149,2628 6.928561,44.554232,2627 6.928564,44.554232,2627 6.928611,44.554265,2626 6.928617,44.554253,2626 6.928620,44.554263,2626 6.928677,44.554306,2625 6.928757,44.554342,2624 6.928871,44.554382,2622 6.929004,44.554402,2621 6.929107,44.554433,2620 6.929179,44.554466,2619 6.929244,44.554542,2618 6.929247,44.554591,2617 6.929342,44.554564,2618 6.929335,44.554586,2619 6.929291,44.554565,2619 6.929272,44.554574,2619 6.929272,44.554580,2619 6.929296,44.554588,2620 6.929328,44.554598,2620 6.929230,44.554581,2620 6.929246,44.554609,2619 6.929297,44.554613,2619 6.929317,44.554618,2620 6.929310,44.554589,2621 6.929272,44.554596,2620 6.929305,44.554607,2620 6.929304,44.554624,2620 6.929276,44.554586,2621 6.929299,44.554576,2621 6.929304,44.554572,2622 6.929279,44.554619,2622 6.929237,44.554565,2622 6.929278,44.554563,2621 6.929289,44.554580,2621 6.929274,44.554587,2621 6.929284,44.554556,2620 6.929280,44.554547,2620 6.929283,44.554569,2620 6.929270,44.554580,2621 6.929266,44.554582,2621 6.929270,44.554542,2622 6.929309,44.554514,2622 6.929303,44.554596,2622 6.929290,44.554559,2622 6.929268,44.554556,2622 6.929236,44.554585,2621 6.929258,44.554597,2622 6.929270,44.554572,2622 6.929240,44.554557,2622 6.929241,44.554545,2622 6.929250,44.554570,2623 6.929297,44.554584,2623 6.929261,44.554575,2623 6.929222,44.554558,2622 6.929234,44.554559,2623 6.929263,44.554557,2623 6.929258,44.554568,2623 6.929257,44.554568,2623 6.929287,44.554586,2622 6.929269,44.554537,2622 6.929269,44.554562,2623 6.929274,44.554576,2622 6.929274,44.554565,2622 6.929334,44.554594,2623 6.929343,44.554591,2623</coordinates></LineString></Placemark></Document></kml>