<?xml version="1.0" encoding="UTF-8"?>
<kml xmlns="http://www.opengis.net/kml/2.2"><Document><name>Alta Linea Continua – Stage 4: Bivacco Speranza to Rifugio Pagarì</name><Style id="l"><LineStyle><color>ff2b30c4</color><width>4</width></LineStyle></Style><Placemark><name>Alta Linea Continua – Stage 4: Bivacco Speranza to Rifugio Pagarì</name><styleUrl>#l</styleUrl><LineString><tessellate>1</tessellate><altitudeMode>clampToGround</altitudeMode><coordinates>7.466456,44.131081,2267 7.466464,44.130962,2269 7.466469,44.130945,2270 7.466487,44.130886,2271 7.466511,44.130850,2272 7.466519,44.130816,2273 7.466469,44.130776,2274 7.466428,44.130755,2275 7.466405,44.130738,2275 7.466393,44.130736,2276 7.466399,44.130721,2277 7.466356,44.130723,2278 7.466326,44.130716,2279 7.466303,44.130653,2280 7.466260,44.130608,2281 7.466251,44.130581,2282 7.466268,44.130587,2283 7.466302,44.130630,2284 7.466351,44.130639,2285 7.466443,44.130607,2286 7.466393,44.130572,2287 7.466287,44.130542,2288 7.466207,44.130492,2289 7.466272,44.130470,2290 7.466326,44.130485,2291 7.466416,44.130464,2293 7.466481,44.130481,2294 7.466517,44.130462,2295 7.466491,44.130449,2296 7.466449,44.130416,2297 7.466428,44.130416,2298 7.466397,44.130388,2299 7.466380,44.130363,2300 7.466441,44.130348,2301 7.466456,44.130323,2302 7.466440,44.130283,2304 7.466451,44.130265,2305 7.466491,44.130275,2306 7.466511,44.130277,2307 7.466551,44.130278,2307 7.466554,44.130278,2308 7.466580,44.130267,2309 7.466616,44.130276,2310 7.466651,44.130281,2311 7.466640,44.130252,2312 7.466658,44.130235,2313 7.466671,44.130217,2313 7.466706,44.130224,2314 7.466704,44.130166,2317 7.466721,44.130206,2318 7.466755,44.130166,2319 7.466788,44.130150,2320 7.466811,44.130138,2321 7.466857,44.130127,2323 7.466847,44.130115,2324 7.466835,44.130110,2325 7.466788,44.130089,2326 7.466742,44.130048,2326 7.466776,44.130032,2327 7.466871,44.130038,2328 7.466973,44.130038,2329 7.466971,44.129978,2330 7.466918,44.129932,2330 7.466676,44.129903,2330 7.466637,44.129879,2331 7.466677,44.129859,2332 7.466706,44.129808,2333 7.466629,44.129808,2334 7.466581,44.129781,2335 7.466649,44.129723,2336 7.466708,44.129635,2337 7.466636,44.129637,2337 7.466534,44.129661,2338 7.466366,44.129671,2339 7.466240,44.129703,2340 7.466132,44.129705,2341 7.466102,44.129688,2342 7.466142,44.129668,2343 7.466220,44.129612,2344 7.466255,44.129542,2345 7.466300,44.129484,2346 7.466353,44.129416,2347 7.466293,44.129429,2348 7.466229,44.129449,2350 7.466149,44.129467,2351 7.466244,44.129346,2352 7.466323,44.129305,2353 7.466289,44.129291,2354 7.466208,44.129319,2355 7.466131,44.129351,2356 7.466067,44.129378,2358 7.465998,44.129410,2358 7.465993,44.129374,2359 7.466037,44.129345,2360 7.466051,44.129293,2361 7.466040,44.129294,2362 7.466027,44.129272,2362 7.466018,44.129277,2362 7.466025,44.129277,2362 7.466026,44.129267,2362 7.466046,44.129244,2361 7.466073,44.129252,2361 7.466046,44.129245,2361 7.466043,44.129234,2361 7.466066,44.129195,2360 7.466024,44.129237,2359 7.466032,44.129254,2359 7.466043,44.129263,2360 7.466050,44.129253,2361 7.466073,44.129226,2361 7.466047,44.129239,2361 7.466011,44.129259,2361 7.466010,44.129259,2361 7.466018,44.129258,2362 7.466043,44.129252,2362 7.466026,44.129275,2362 7.466021,44.129268,2361 7.466007,44.129273,2362 7.466031,44.129276,2362 7.465991,44.129285,2362 7.466004,44.129258,2362 7.466011,44.129284,2362 7.466024,44.129287,2362 7.465999,44.129288,2362 7.465922,44.129312,2363 7.465862,44.129292,2365 7.465871,44.129270,2366 7.465919,44.129234,2367 7.465959,44.129184,2368 7.465894,44.129174,2369 7.465853,44.129199,2370 7.465818,44.129190,2371 7.465821,44.129183,2372 7.465828,44.129171,2372 7.465826,44.129136,2373 7.465800,44.129101,2374 7.465772,44.129065,2375 7.465757,44.129044,2376 7.465720,44.129069,2377 7.465666,44.129100,2378 7.465614,44.129123,2379 7.465520,44.129148,2380 7.465470,44.129176,2381 7.465413,44.129203,2382 7.465388,44.129212,2383 7.465373,44.129219,2383 7.465363,44.129181,2384 7.465361,44.129117,2385 7.465376,44.129063,2387 7.465386,44.129034,2388 7.465411,44.128978,2389 7.465391,44.128971,2390 7.465342,44.128990,2391 7.465283,44.129014,2392 7.465271,44.128993,2393 7.465269,44.128950,2394 7.465260,44.128895,2395 7.465248,44.128876,2396 7.465211,44.128905,2397 7.465179,44.128920,2398 7.465133,44.128921,2400 7.465120,44.128882,2401 7.465064,44.128876,2402 7.465049,44.128926,2403 7.465005,44.128973,2405 7.465003,44.128937,2406 7.465016,44.128883,2406 7.464989,44.128886,2407 7.464932,44.128920,2408 7.464867,44.128950,2409 7.464833,44.128966,2410 7.464791,44.128948,2411 7.464858,44.128889,2412 7.464918,44.128780,2414 7.464867,44.128776,2414 7.464806,44.128789,2416 7.464745,44.128811,2417 7.464741,44.128793,2418 7.464795,44.128724,2419 7.464816,44.128695,2420 7.464827,44.128674,2421 7.464769,44.128691,2422 7.464725,44.128725,2423 7.464620,44.128751,2424 7.464567,44.128705,2425 7.464636,44.128664,2426 7.464650,44.128605,2427 7.464677,44.128567,2429 7.464727,44.128549,2430 7.464693,44.128553,2431 7.464624,44.128524,2432 7.464666,44.128510,2433 7.464719,44.128483,2434 7.464740,44.128464,2435 7.464759,44.128451,2436 7.464807,44.128416,2437 7.464813,44.128392,2438 7.464753,44.128413,2439 7.464676,44.128426,2440 7.464600,44.128396,2442 7.464583,44.128347,2444 7.464555,44.128357,2445 7.464531,44.128337,2445 7.464551,44.128368,2445 7.464535,44.128366,2445 7.464523,44.128323,2446 7.464534,44.128348,2446 7.464537,44.128352,2446 7.464537,44.128352,2446 7.464530,44.128350,2446 7.464454,44.128339,2448 7.464385,44.128295,2449 7.464376,44.128291,2449 7.464349,44.128279,2450 7.464318,44.128267,2452 7.464238,44.128255,2454 7.464167,44.128238,2455 7.464137,44.128229,2455 7.464131,44.128225,2456 7.464088,44.128216,2458 7.464038,44.128227,2459 7.463941,44.128221,2461 7.463916,44.128284,2462 7.463896,44.128308,2463 7.463843,44.128336,2465 7.463792,44.128370,2466 7.463754,44.128395,2467 7.463691,44.128402,2469 7.463640,44.128441,2470 7.463616,44.128474,2471 7.463561,44.128478,2472 7.463516,44.128485,2471 7.463456,44.128485,2470 7.463368,44.128511,2469 7.463190,44.128531,2468 7.463100,44.128540,2469 7.463053,44.128563,2470 7.462957,44.128549,2472 7.462890,44.128537,2473 7.462872,44.128532,2474 7.462856,44.128510,2476 7.462910,44.128493,2477 7.462970,44.128444,2478 7.462965,44.128441,2479 7.462914,44.128428,2480 7.462907,44.128488,2480 7.462885,44.128492,2481 7.462904,44.128482,2481 7.462745,44.128507,2483 7.462652,44.128529,2484 7.462603,44.128542,2485 7.462558,44.128556,2486 7.462506,44.128577,2487 7.462472,44.128598,2489 7.462397,44.128621,2490 7.462356,44.128633,2491 7.462285,44.128657,2492 7.462224,44.128679,2493 7.462157,44.128708,2494 7.462100,44.128737,2495 7.462062,44.128761,2496 7.462030,44.128791,2497 7.461992,44.128825,2497 7.461947,44.128855,2498 7.461894,44.128913,2500 7.461827,44.128959,2500 7.461755,44.128969,2501 7.461559,44.129033,2501 7.461543,44.129041,2502 7.461483,44.129078,2503 7.461406,44.129132,2504 7.461220,44.129197,2504 7.461057,44.129294,2504 7.461011,44.129287,2505 7.460933,44.129286,2506 7.460875,44.129277,2507 7.460722,44.129256,2509 7.460541,44.129323,2509 7.460475,44.129331,2510 7.460391,44.129324,2511 7.460229,44.129323,2512 7.460118,44.129342,2513 7.460018,44.129369,2513 7.459868,44.129402,2514 7.459655,44.129449,2515 7.459560,44.129474,2516 7.459481,44.129487,2517 7.459311,44.129564,2517 7.459270,44.129626,2517 7.459235,44.129661,2515 7.459139,44.129716,2515 7.459093,44.129745,2514 7.459043,44.129790,2513 7.458867,44.129830,2513 7.458726,44.129956,2514 7.458591,44.130086,2514 7.458528,44.130132,2515 7.458378,44.130269,2515 7.458282,44.130341,2517 7.458258,44.130367,2518 7.458224,44.130364,2519 7.458186,44.130384,2520 7.458157,44.130401,2521 7.458134,44.130400,2522 7.458117,44.130365,2523 7.458109,44.130337,2523 7.458008,44.130358,2525 7.457952,44.130381,2526 7.457904,44.130409,2527 7.457827,44.130494,2528 7.457765,44.130544,2529 7.457615,44.130591,2529 7.457585,44.130624,2530 7.457537,44.130657,2531 7.457516,44.130680,2531 7.457520,44.130695,2531 7.457453,44.130719,2530 7.457309,44.130808,2530 7.457250,44.130912,2530 7.457206,44.130934,2530 7.457135,44.130956,2532 7.457080,44.131003,2532 7.456860,44.131062,2532 7.456786,44.131105,2533 7.456752,44.131112,2533 7.456667,44.131143,2534 7.456534,44.131212,2532 7.456493,44.131234,2532 7.456377,44.131257,2534 7.456324,44.131256,2535 7.456255,44.131276,2537 7.456231,44.131259,2538 7.456178,44.131251,2539 7.456119,44.131271,2539 7.455997,44.131329,2540 7.455985,44.131339,2541 7.455935,44.131372,2542 7.455771,44.131429,2541 7.455683,44.131480,2540 7.455572,44.131526,2539 7.455465,44.131593,2540 7.455406,44.131641,2540 7.455313,44.131591,2541 7.455194,44.131553,2542 7.455125,44.131554,2542 7.455149,44.131555,2542 7.455167,44.131556,2542 7.455156,44.131548,2542 7.455160,44.131541,2542 7.455144,44.131542,2542 7.455127,44.131557,2542 7.455126,44.131558,2542 7.455106,44.131563,2542 7.455113,44.131547,2542 7.455154,44.131551,2542 7.455152,44.131578,2543 7.455151,44.131574,2543 7.455127,44.131557,2543 7.455173,44.131569,2544 7.455147,44.131555,2544 7.455168,44.131570,2544 7.455132,44.131539,2544 7.455137,44.131552,2545 7.455137,44.131557,2545 7.455136,44.131573,2545 7.455020,44.131590,2545 7.454918,44.131614,2548 7.454888,44.131641,2549 7.454858,44.131652,2550 7.454827,44.131653,2551 7.454821,44.131593,2551 7.454840,44.131548,2552 7.454873,44.131512,2553 7.454801,44.131500,2554 7.454711,44.131555,2555 7.454682,44.131571,2556 7.454488,44.131648,2557 7.454476,44.131623,2558 7.454505,44.131604,2559 7.454520,44.131575,2560 7.454460,44.131554,2561 7.454330,44.131636,2561 7.454210,44.131663,2562 7.454117,44.131695,2563 7.454049,44.131724,2565 7.453981,44.131729,2566 7.453917,44.131753,2567 7.453872,44.131781,2568 7.453822,44.131785,2570 7.453756,44.131764,2571 7.453614,44.131698,2571 7.453603,44.131706,2572 7.453525,44.131704,2573 7.453497,44.131704,2573 7.453531,44.131691,2573 7.453536,44.131694,2573 7.453533,44.131711,2573 7.453534,44.131713,2573 7.453533,44.131679,2573 7.453536,44.131700,2573 7.453540,44.131661,2574 7.453539,44.131656,2574 7.453510,44.131670,2573 7.453569,44.131655,2574 7.453582,44.131643,2575 7.453605,44.131632,2574 7.453615,44.131656,2573 7.453633,44.131659,2573 7.453625,44.131656,2573 7.453613,44.131657,2572 7.453583,44.131660,2572 7.453626,44.131663,2573 7.453601,44.131626,2573 7.453595,44.131646,2573 7.453590,44.131632,2573 7.453607,44.131647,2572 7.453617,44.131658,2572 7.453529,44.131663,2572 7.453514,44.131678,2572 7.453528,44.131692,2572 7.453546,44.131694,2572 7.453540,44.131659,2572 7.453523,44.131662,2572 7.453513,44.131642,2573 7.453510,44.131679,2573 7.453501,44.131674,2572 7.453513,44.131672,2572 7.453537,44.131660,2572 7.453543,44.131685,2572 7.453516,44.131672,2572 7.453433,44.131638,2572 7.453393,44.131628,2573 7.453364,44.131623,2573 7.453300,44.131582,2572 7.453241,44.131508,2573 7.453198,44.131475,2574 7.453121,44.131431,2574 7.453040,44.131348,2575 7.453016,44.131350,2575 7.452985,44.131316,2576 7.452976,44.131303,2576 7.452867,44.131270,2575 7.452829,44.131230,2576 7.452820,44.131217,2576 7.452824,44.131202,2578 7.452774,44.131184,2579 7.452742,44.131168,2580 7.452725,44.131152,2581 7.452712,44.131139,2582 7.452696,44.131132,2583 7.452664,44.131124,2584 7.452633,44.131101,2586 7.452631,44.131098,2586 7.452555,44.131055,2588 7.452550,44.131019,2589 7.452538,44.130956,2590 7.452530,44.130940,2590 7.452513,44.130905,2591 7.452500,44.130881,2592 7.452488,44.130881,2593 7.452457,44.130858,2594 7.452418,44.130832,2595 7.452420,44.130822,2596 7.452401,44.130792,2597 7.452399,44.130784,2598 7.452369,44.130768,2599 7.452310,44.130753,2600 7.452299,44.130706,2602 7.452298,44.130689,2602 7.452276,44.130657,2603 7.452265,44.130641,2604 7.452235,44.130611,2605 7.452205,44.130586,2606 7.452205,44.130538,2607 7.452183,44.130498,2608 7.452146,44.130504,2609 7.452139,44.130482,2611 7.452148,44.130444,2611 7.452114,44.130436,2613 7.452112,44.130392,2614 7.452138,44.130365,2614 7.452150,44.130329,2613 7.452179,44.130263,2613 7.452211,44.130240,2614 7.452213,44.130203,2615 7.452204,44.130176,2615 7.452181,44.130164,2615 7.452198,44.130130,2615 7.452201,44.130132,2615 7.452260,44.130065,2616 7.452323,44.130059,2617 7.452341,44.130049,2617 7.452342,44.130037,2618 7.452374,44.130021,2619 7.452402,44.130001,2620 7.452433,44.129978,2622 7.452418,44.129944,2622 7.452481,44.129950,2623 7.452527,44.129971,2624 7.452542,44.129965,2625 7.452544,44.129932,2626 7.452574,44.129917,2627 7.452645,44.129877,2629 7.452650,44.129864,2630 7.452654,44.129872,2630 7.452675,44.129859,2631 7.452726,44.129849,2632 7.452779,44.129839,2633 7.452838,44.129822,2634 7.452889,44.129817,2635 7.452903,44.129806,2635 7.452877,44.129808,2634 7.452907,44.129785,2634 7.452874,44.129809,2634 7.452867,44.129763,2634 7.452853,44.129745,2634 7.452936,44.129793,2634 7.452936,44.129787,2634 7.452936,44.129787,2633 7.452928,44.129761,2633 7.452848,44.129690,2634 7.452892,44.129600,2634 7.452910,44.129559,2635 7.452911,44.129533,2635 7.452877,44.129486,2637 7.452881,44.129467,2637 7.452890,44.129428,2638 7.452879,44.129397,2639 7.452825,44.129364,2639 7.452774,44.129353,2638 7.452763,44.129318,2638 7.452795,44.129328,2638 7.452771,44.129356,2638 7.452771,44.129356,2638 7.452747,44.129333,2637 7.452736,44.129332,2637 7.452755,44.129341,2638 7.452795,44.129359,2638 7.452768,44.129314,2638 7.452761,44.129330,2638 7.452780,44.129359,2637 7.452836,44.129398,2637 7.452632,44.129361,2639 7.452568,44.129365,2639 7.452556,44.129341,2640 7.452502,44.129326,2641 7.452480,44.129333,2642 7.452465,44.129322,2643 7.452413,44.129347,2644 7.452418,44.129346,2644 7.452397,44.129318,2645 7.452355,44.129276,2646 7.452322,44.129264,2647 7.452282,44.129266,2648 7.452230,44.129243,2647 7.452225,44.129227,2647 7.452218,44.129191,2646 7.452181,44.129186,2647 7.452171,44.129189,2648 7.452094,44.129172,2649 7.452085,44.129162,2650 7.452064,44.129113,2651 7.452039,44.129114,2651 7.452038,44.129114,2652 7.452029,44.129088,2653 7.451973,44.129096,2654 7.451930,44.129084,2655 7.451946,44.129069,2656 7.451926,44.129059,2657 7.451940,44.129025,2658 7.451944,44.128981,2659 7.451957,44.128930,2659 7.451947,44.128914,2660 7.451934,44.128917,2661 7.451929,44.128910,2661 7.451922,44.128890,2661 7.451960,44.128844,2663 7.451949,44.128823,2663 7.451962,44.128804,2664 7.451955,44.128786,2665 7.451916,44.128759,2666 7.451926,44.128722,2666 7.451919,44.128694,2667 7.451906,44.128681,2668 7.451896,44.128675,2669 7.451868,44.128665,2670 7.451861,44.128673,2671 7.451833,44.128667,2672 7.451840,44.128653,2673 7.451830,44.128605,2673 7.451818,44.128596,2674 7.451824,44.128597,2674 7.451792,44.128596,2674 7.451802,44.128596,2675 7.451804,44.128600,2675 7.451794,44.128581,2675 7.451821,44.128608,2675 7.451792,44.128621,2676 7.451836,44.128637,2676 7.451806,44.128632,2676 7.451808,44.128632,2676 7.451836,44.128612,2676 7.451802,44.128567,2676 7.451780,44.128585,2676 7.451786,44.128616,2676 7.451811,44.128636,2677 7.451841,44.128590,2678 7.451828,44.128575,2679 7.451828,44.128555,2681 7.451859,44.128543,2682 7.451851,44.128532,2683 7.451879,44.128499,2684 7.451887,44.128482,2685 7.451833,44.128458,2686 7.451834,44.128469,2686 7.451809,44.128469,2687 7.451770,44.128455,2688 7.451810,44.128455,2689 7.451792,44.128442,2690 7.451775,44.128422,2692 7.451809,44.128396,2693 7.451844,44.128385,2693 7.451820,44.128380,2694 7.451809,44.128359,2695 7.451850,44.128359,2696 7.451795,44.128335,2697 7.451771,44.128335,2698 7.451779,44.128333,2699 7.451773,44.128311,2700 7.451744,44.128306,2701 7.451726,44.128315,2702 7.451736,44.128287,2703 7.451742,44.128272,2703 7.451759,44.128265,2705 7.451790,44.128243,2706 7.451782,44.128229,2707 7.451783,44.128234,2708 7.451788,44.128222,2709 7.451808,44.128235,2710 7.451806,44.128195,2711 7.451799,44.128163,2712 7.451809,44.128153,2713 7.451821,44.128147,2714 7.451823,44.128133,2714 7.451824,44.128154,2713 7.451872,44.128125,2714 7.451860,44.128120,2715 7.451807,44.128087,2716 7.451790,44.128064,2717 7.451777,44.128048,2717 7.451798,44.128067,2717 7.451829,44.128027,2717 7.451804,44.128059,2717 7.451777,44.128045,2718 7.451812,44.128000,2718 7.451829,44.127989,2719 7.451830,44.127980,2721 7.451780,44.128007,2722 7.451798,44.128002,2723 7.451759,44.127972,2724 7.451734,44.127979,2724 7.451766,44.127975,2725 7.451753,44.127970,2725 7.451774,44.127983,2725 7.451766,44.127929,2726 7.451743,44.127924,2726 7.451733,44.127923,2726 7.451696,44.127896,2726 7.451740,44.127924,2726 7.451748,44.127936,2727 7.451774,44.127985,2727 7.451790,44.127991,2727 7.451725,44.127940,2727 7.451677,44.127905,2726 7.451694,44.127955,2726 7.451775,44.128020,2726 7.451811,44.128004,2725 7.451779,44.127948,2725 7.451718,44.127877,2725 7.451743,44.127905,2725 7.451786,44.127930,2726 7.451773,44.127863,2726 7.451728,44.127921,2727 7.451717,44.127913,2728 7.451675,44.127883,2729 7.451729,44.127907,2729 7.451759,44.127936,2728 7.451759,44.127950,2728 7.451750,44.127927,2728 7.451754,44.127878,2728 7.451749,44.127868,2728 7.451726,44.127864,2728 7.451756,44.127911,2729 7.451755,44.127890,2729 7.451746,44.127893,2731 7.451733,44.127891,2731 7.451736,44.127842,2732 7.451714,44.127855,2733 7.451714,44.127867,2733 7.451685,44.127851,2734 7.451710,44.127850,2733 7.451713,44.127870,2734 7.451696,44.127859,2734 7.451707,44.127894,2734 7.451683,44.127888,2734 7.451668,44.127884,2734 7.451659,44.127887,2734 7.451653,44.127892,2734 7.451654,44.127872,2733 7.451668,44.127861,2733 7.451672,44.127875,2732 7.451671,44.127884,2732 7.451705,44.127872,2732 7.451709,44.127824,2733 7.451716,44.127868,2732 7.451689,44.127899,2732 7.451632,44.127903,2733 7.451594,44.127868,2733 7.451561,44.127823,2733 7.451572,44.127858,2732 7.451561,44.127854,2731 7.451572,44.127834,2731 7.451564,44.127836,2730 7.451572,44.127834,2730 7.451562,44.127850,2730 7.451564,44.127856,2729 7.451548,44.127857,2729 7.451559,44.127882,2729 7.451572,44.127861,2729 7.451584,44.127867,2728 7.451555,44.127859,2728 7.451558,44.127865,2728 7.451590,44.127878,2728 7.451591,44.127890,2728 7.451595,44.127885,2728 7.451579,44.127857,2728 7.451580,44.127899,2727 7.451607,44.127894,2727 7.451572,44.127861,2727 7.451577,44.127864,2727 7.451561,44.127861,2726 7.451570,44.127887,2727 7.451574,44.127879,2726 7.451588,44.127877,2726 7.451574,44.127895,2726 7.451612,44.127887,2726 7.451597,44.127884,2726 7.451571,44.127877,2726 7.451578,44.127871,2726 7.451564,44.127874,2726 7.451585,44.127882,2725 7.451596,44.127865,2726 7.451589,44.127890,2725 7.451581,44.127867,2725 7.451557,44.127887,2725 7.451604,44.127882,2724 7.451600,44.127864,2724 7.451583,44.127872,2724 7.451610,44.127892,2724 7.451606,44.127870,2724 7.451620,44.127889,2724 7.451559,44.127880,2724 7.451633,44.127886,2723 7.451611,44.127899,2723 7.451604,44.127893,2723 7.451608,44.127882,2723 7.451622,44.127881,2723 7.451619,44.127879,2723 7.451606,44.127891,2723 7.451585,44.127892,2723 7.451587,44.127874,2723 7.451578,44.127906,2723 7.451574,44.127873,2723 7.451615,44.127899,2723 7.451612,44.127897,2724 7.451591,44.127901,2723 7.451584,44.127874,2723 7.451585,44.127898,2723 7.451585,44.127866,2723 7.451631,44.127896,2722 7.451603,44.127884,2722 7.451604,44.127884,2722 7.451592,44.127879,2723 7.451582,44.127870,2723 7.451609,44.127928,2723 7.451586,44.127919,2723 7.451592,44.127879,2723 7.451587,44.127890,2723 7.451564,44.127885,2723 7.451550,44.127883,2723 7.451585,44.127874,2723 7.451564,44.127921,2723 7.451575,44.127937,2722 7.451545,44.127963,2721 7.451546,44.127942,2722 7.451549,44.127960,2721 7.451540,44.127974,2721 7.451535,44.127970,2721 7.451563,44.127958,2721 7.451526,44.127970,2721 7.451517,44.127975,2721 7.451507,44.127981,2720 7.451502,44.127983,2720 7.451510,44.127977,2719 7.451498,44.127990,2719 7.451508,44.127991,2719 7.451511,44.128006,2720 7.451513,44.127989,2720 7.451500,44.128005,2720 7.451482,44.128001,2720 7.451453,44.127975,2720 7.451463,44.127964,2720 7.451449,44.127947,2720 7.451469,44.128001,2720 7.451476,44.128018,2719 7.451422,44.127984,2719 7.451423,44.128015,2718 7.451426,44.128049,2717 7.451415,44.128046,2717 7.451420,44.128051,2717 7.451445,44.128055,2717 7.451418,44.128053,2717 7.451415,44.128041,2716 7.451412,44.128028,2716 7.451425,44.128037,2716 7.451451,44.128023,2715 7.451451,44.128041,2716 7.451457,44.128029,2716 7.451437,44.128036,2716 7.451433,44.128037,2717 7.451475,44.128034,2717 7.451474,44.128044,2717 7.451443,44.128044,2717 7.451437,44.128038,2717 7.451447,44.128024,2717 7.451472,44.128036,2716 7.451488,44.128057,2716 7.451487,44.128063,2715 7.451490,44.128063,2715 7.451489,44.128037,2714 7.451520,44.128071,2713 7.451475,44.128037,2713 7.451466,44.128045,2713 7.451483,44.128051,2713 7.451482,44.128051,2714 7.451497,44.128085,2714 7.451469,44.128046,2714 7.451481,44.128055,2713 7.451452,44.128073,2713 7.451452,44.128083,2713 7.451443,44.128094,2712 7.451430,44.128081,2712 7.451448,44.128077,2712 7.451445,44.128068,2711 7.451459,44.128099,2711 7.451462,44.128103,2712 7.451459,44.128114,2712 7.451453,44.128124,2713 7.451440,44.128076,2713 7.451471,44.128022,2713 7.451463,44.128029,2713 7.451401,44.128065,2713 7.451456,44.128078,2713 7.451425,44.128085,2713 7.451464,44.128090,2712 7.451458,44.128107,2712 7.451464,44.128103,2713 7.451469,44.128103,2713 7.451473,44.128059,2713 7.451488,44.128060,2713 7.451465,44.128050,2713 7.451492,44.128030,2714 7.451495,44.128071,2714 7.451480,44.128052,2714 7.451489,44.128042,2714 7.451496,44.128042,2715 7.451482,44.128080,2715 7.451466,44.128094,2715 7.451479,44.128089,2715 7.451493,44.128095,2714 7.451475,44.128107,2713 7.451477,44.128080,2713 7.451517,44.128092,2712 7.451506,44.128117,2712 7.451477,44.128078,2712 7.451476,44.128154,2711 7.451493,44.128153,2712 7.451468,44.128098,2712 7.451477,44.128107,2712 7.451480,44.128096,2713 7.451477,44.128098,2712 7.451498,44.128137,2712 7.451510,44.128138,2713 7.451511,44.128115,2713 7.451516,44.128140,2713 7.451484,44.128107,2713 7.451489,44.128136,2713 7.451484,44.128126,2713 7.451489,44.128116,2713 7.451496,44.128084,2714 7.451513,44.128077,2714 7.451488,44.128094,2714 7.451454,44.128132,2715 7.451504,44.128140,2715 7.451445,44.128133,2714 7.451429,44.128166,2713 7.451310,44.128240,2713 7.451302,44.128279,2712 7.451297,44.128268,2711 7.451299,44.128276,2711 7.451310,44.128287,2711 7.451324,44.128255,2711 7.451290,44.128294,2712 7.451337,44.128297,2711 7.451311,44.128324,2709 7.451263,44.128384,2707 7.451236,44.128415,2705 7.451228,44.128437,2705 7.451200,44.128486,2704 7.451211,44.128509,2704 7.451150,44.128559,2703 7.451090,44.128648,2706 7.451067,44.128672,2706 7.451057,44.128751,2705 7.451024,44.128803,2705 7.451023,44.128835,2704 7.451021,44.128832,2705 7.450997,44.128823,2705 7.451052,44.128832,2705 7.451030,44.128842,2705 7.451017,44.128828,2705 7.450983,44.128817,2707 7.450987,44.128812,2709 7.450988,44.128815,2709 7.450992,44.128832,2710 7.450986,44.128865,2710 7.450984,44.128857,2709 7.450949,44.128857,2710 7.450932,44.128876,2711 7.450940,44.128916,2712 7.450928,44.128909,2712 7.450913,44.128879,2713 7.450913,44.128870,2713 7.450884,44.128886,2714 7.450863,44.128923,2714 7.450908,44.128914,2714 7.450907,44.128916,2714 7.450894,44.128923,2714 7.450902,44.128888,2714 7.450892,44.128900,2714 7.450902,44.128924,2714 7.450886,44.128913,2714 7.450892,44.128911,2714 7.450860,44.128897,2714 7.450862,44.128898,2714 7.450888,44.128891,2714 7.450896,44.128893,2714 7.450872,44.128896,2715 7.450838,44.128923,2716 7.450863,44.128922,2715 7.450869,44.128950,2716 7.450851,44.128977,2716 7.450874,44.128920,2716 7.450876,44.128922,2717 7.450850,44.128935,2718 7.450850,44.128919,2719 7.450845,44.128905,2719 7.450853,44.128903,2720 7.450846,44.128955,2721 7.450853,44.128910,2721 7.450835,44.128900,2723 7.450824,44.128893,2723 7.450816,44.128894,2723 7.450841,44.128889,2723 7.450849,44.128908,2723 7.450832,44.128891,2723 7.450849,44.128861,2724 7.450859,44.128844,2724 7.450855,44.128852,2724 7.450845,44.128850,2724 7.450789,44.128827,2725 7.450843,44.128824,2725 7.450840,44.128820,2726 7.450808,44.128831,2728 7.450795,44.128812,2728 7.450790,44.128782,2729 7.450792,44.128779,2729 7.450815,44.128823,2730 7.450811,44.128820,2731 7.450773,44.128818,2732 7.450756,44.128822,2733 7.450715,44.128827,2733 7.450670,44.128874,2734 7.450662,44.128864,2733 7.450674,44.128843,2733 7.450634,44.128852,2734 7.450609,44.128852,2735 7.450566,44.128856,2736 7.450561,44.128866,2737 7.450533,44.128871,2737 7.450526,44.128864,2738 7.450509,44.128871,2739 7.450450,44.128897,2740 7.450387,44.128907,2742 7.450388,44.128896,2742 7.450383,44.128905,2742 7.450363,44.128923,2742 7.450349,44.128966,2742 7.450328,44.129006,2743 7.450289,44.129012,2744 7.450284,44.129010,2745 7.450271,44.128993,2746 7.450255,44.129019,2746 7.450255,44.129042,2747 7.450230,44.129062,2749 7.450212,44.129034,2750 7.450159,44.129041,2751 7.450141,44.129056,2751 7.450148,44.129050,2752 7.450137,44.129036,2753 7.450165,44.129029,2754 7.450143,44.129047,2755 7.450136,44.129048,2756 7.450157,44.129031,2756 7.450146,44.129042,2758 7.450127,44.129087,2758 7.450059,44.129039,2758 7.450070,44.129019,2759 7.450049,44.129028,2759 7.450058,44.129060,2760 7.450020,44.129048,2761 7.450062,44.129118,2762 7.450048,44.129089,2763 7.450066,44.129112,2764 7.450032,44.129068,2765 7.450031,44.129080,2764 7.450029,44.129085,2764 7.450002,44.129076,2765 7.449989,44.129097,2766 7.449969,44.129106,2766 7.449934,44.129145,2767 7.449876,44.129194,2766 7.449849,44.129212,2766 7.449818,44.129215,2768 7.449737,44.129200,2769 7.449734,44.129224,2770 7.449761,44.129238,2771 7.449700,44.129228,2772 7.449705,44.129236,2772 7.449654,44.129285,2772 7.449559,44.129310,2774 7.449548,44.129328,2775 7.449557,44.129321,2775 7.449488,44.129331,2776 7.449484,44.129342,2777 7.449478,44.129364,2778 7.449474,44.129380,2779 7.449403,44.129385,2780 7.449346,44.129380,2780 7.449303,44.129391,2781 7.449269,44.129384,2782 7.449244,44.129364,2783 7.449239,44.129345,2784 7.449269,44.129344,2785 7.449250,44.129353,2786 7.449256,44.129343,2789 7.449269,44.129321,2790 7.449262,44.129368,2790 7.449239,44.129359,2788 7.449241,44.129339,2789 7.449252,44.129375,2789 7.449248,44.129367,2789 7.449236,44.129333,2789 7.449264,44.129344,2789 7.449254,44.129352,2789 7.449254,44.129348,2789 7.449238,44.129360,2789 7.449195,44.129349,2790 7.449166,44.129365,2791 7.449158,44.129362,2791 7.449157,44.129362,2791 7.449153,44.129365,2790 7.449127,44.129390,2792 7.449124,44.129396,2793 7.449116,44.129418,2793 7.449113,44.129400,2793 7.449101,44.129395,2794 7.449074,44.129397,2793 7.449071,44.129394,2794 7.449089,44.129393,2794 7.449115,44.129389,2794 7.449112,44.129381,2794 7.449116,44.129378,2796 7.449099,44.129375,2797 7.449096,44.129349,2798 7.449095,44.129327,2799 7.449121,44.129309,2800 7.449124,44.129315,2801 7.449107,44.129338,2801 7.449121,44.129317,2802 7.449124,44.129290,2803 7.449097,44.129267,2804 7.449078,44.129267,2805 7.449051,44.129277,2806 7.448989,44.129291,2808 7.449011,44.129290,2808 7.449003,44.129279,2808 7.448991,44.129252,2808 7.449007,44.129252,2808 7.449025,44.129258,2808 7.449039,44.129239,2810 7.449076,44.129218,2812 7.449082,44.129201,2813 7.449054,44.129195,2814 7.449058,44.129167,2814 7.449069,44.129178,2815 7.449071,44.129141,2817 7.449058,44.129152,2817 7.449049,44.129150,2817 7.449035,44.129146,2818 7.448999,44.129139,2818 7.448983,44.129131,2818 7.449003,44.129137,2819 7.448975,44.129142,2820 7.448977,44.129140,2820 7.448964,44.129124,2820 7.448962,44.129185,2820 7.448924,44.129186,2821 7.448939,44.129196,2821 7.448937,44.129191,2822 7.448926,44.129195,2823 7.448896,44.129199,2823 7.448870,44.129225,2823 7.448855,44.129242,2824 7.448833,44.129225,2825 7.448798,44.129228,2826 7.448788,44.129220,2827 7.448785,44.129194,2828 7.448776,44.129224,2829 7.448752,44.129235,2829 7.448730,44.129195,2830 7.448721,44.129151,2831 7.448702,44.129136,2833 7.448673,44.129119,2835 7.448625,44.129115,2835 7.448616,44.129130,2835 7.448614,44.129141,2836 7.448547,44.129188,2836 7.448553,44.129185,2836 7.448553,44.129185,2836 7.448573,44.129191,2835 7.448571,44.129198,2835 7.448585,44.129210,2834 7.448567,44.129204,2833 7.448566,44.129204,2833 7.448547,44.129196,2833 7.448560,44.129215,2832 7.448572,44.129216,2832 7.448547,44.129213,2831 7.448564,44.129207,2831 7.448571,44.129195,2830 7.448581,44.129196,2831 7.448571,44.129209,2831 7.448571,44.129212,2831 7.448544,44.129212,2831 7.448571,44.129203,2830 7.448566,44.129205,2830 7.448576,44.129193,2830 7.448571,44.129208,2830 7.448549,44.129205,2830 7.448575,44.129190,2830 7.448599,44.129201,2830 7.448575,44.129198,2829 7.448559,44.129216,2829 7.448567,44.129207,2829 7.448572,44.129206,2829 7.448547,44.129213,2829 7.448566,44.129209,2830 7.448577,44.129217,2830 7.448577,44.129192,2829 7.448543,44.129206,2829 7.448540,44.129203,2828 7.448586,44.129202,2829 7.448575,44.129227,2828 7.448579,44.129216,2828 7.448584,44.129208,2828 7.448548,44.129185,2827 7.448564,44.129191,2827 7.448576,44.129177,2826 7.448566,44.129192,2826 7.448561,44.129206,2826 7.448557,44.129204,2825 7.448566,44.129207,2825 7.448562,44.129184,2825 7.448572,44.129208,2825 7.448563,44.129191,2825 7.448551,44.129204,2824 7.448559,44.129221,2824 7.448568,44.129204,2824 7.448565,44.129189,2824 7.448583,44.129213,2824 7.448572,44.129226,2824 7.448573,44.129215,2824 7.448577,44.129193,2825 7.448573,44.129191,2824 7.448562,44.129200,2824 7.448582,44.129194,2824 7.448589,44.129189,2824 7.448594,44.129207,2823 7.448587,44.129208,2823 7.448562,44.129187,2823 7.448567,44.129197,2823 7.448566,44.129198,2824 7.448559,44.129192,2824 7.448558,44.129201,2824 7.448585,44.129203,2824 7.448572,44.129205,2824 7.448572,44.129196,2823 7.448560,44.129196,2823 7.448574,44.129201,2823 7.448583,44.129216,2822 7.448598,44.129226,2822 7.448597,44.129224,2822 7.448562,44.129195,2822 7.448589,44.129206,2821 7.448564,44.129189,2821 7.448579,44.129193,2821 7.448575,44.129190,2821 7.448570,44.129205,2821 7.448574,44.129214,2821 7.448578,44.129220,2820 7.448581,44.129206,2821 7.448579,44.129214,2821 7.448547,44.129194,2821 7.448566,44.129194,2821 7.448556,44.129198,2821 7.448570,44.129198,2821 7.448554,44.129190,2820 7.448576,44.129207,2820 7.448578,44.129213,2820 7.448563,44.129217,2819 7.448572,44.129199,2820 7.448576,44.129191,2820 7.448552,44.129200,2820 7.448549,44.129204,2820 7.448536,44.129192,2819 7.448512,44.129168,2818 7.448480,44.129181,2817 7.448456,44.129184,2817 7.448427,44.129194,2816 7.448400,44.129202,2815 7.448358,44.129189,2814 7.448312,44.129188,2814 7.448283,44.129182,2813 7.448257,44.129179,2812 7.448264,44.129179,2812 7.448257,44.129161,2811 7.448240,44.129151,2810 7.448237,44.129147,2809 7.448256,44.129135,2808 7.448278,44.129125,2807 7.448195,44.129126,2807 7.448158,44.129128,2806 7.448078,44.129103,2806 7.448077,44.129114,2805 7.448044,44.129127,2804 7.448005,44.129138,2803 7.447992,44.129122,2803 7.447983,44.129130,2803 7.447960,44.129150,2803 7.447903,44.129140,2801 7.447860,44.129143,2799 7.447845,44.129131,2798 7.447801,44.129134,2797 7.447780,44.129108,2796 7.447753,44.129099,2794 7.447757,44.129097,2793 7.447739,44.129079,2793 7.447739,44.129081,2792 7.447714,44.129080,2791 7.447693,44.129050,2790 7.447664,44.129040,2789 7.447657,44.129042,2789 7.447680,44.129033,2789 7.447648,44.129050,2789 7.447601,44.129026,2788 7.447514,44.129024,2787 7.447536,44.129005,2786 7.447498,44.128986,2785 7.447404,44.128987,2784 7.447355,44.128991,2783 7.447300,44.129011,2783 7.447199,44.129008,2782 7.447153,44.129009,2781 7.447031,44.129018,2780 7.446862,44.129016,2779 7.446785,44.129024,2778 7.446762,44.129023,2777 7.446731,44.129023,2777 7.446705,44.129010,2775 7.446717,44.129001,2775 7.446717,44.129003,2774 7.446655,44.128981,2772 7.446627,44.128983,2771 7.446606,44.128978,2770 7.446581,44.128965,2769 7.446572,44.128959,2769 7.446564,44.128962,2768 7.446510,44.128959,2766 7.446506,44.128964,2766 7.446428,44.128970,2768 7.446407,44.128990,2769 7.446387,44.129000,2769 7.446366,44.129012,2770 7.446333,44.129033,2770 7.446330,44.129030,2770 7.446283,44.129024,2771 7.446227,44.129040,2772 7.446157,44.129042,2773 7.446051,44.129034,2774 7.445994,44.129053,2775 7.445945,44.129025,2775 7.445897,44.128997,2774 7.445806,44.128998,2774 7.445762,44.128989,2773 7.445696,44.128975,2773 7.445648,44.128937,2772 7.445635,44.128936,2771 7.445588,44.128912,2770 7.445561,44.128880,2770 7.445521,44.128871,2768 7.445494,44.128861,2768 7.445443,44.128793,2767 7.445449,44.128788,2765 7.445435,44.128765,2765 7.445426,44.128769,2765 7.445359,44.128740,2766 7.445313,44.128707,2766 7.445320,44.128776,2766 7.445296,44.128747,2766 7.445295,44.128740,2765 7.445257,44.128716,2764 7.445258,44.128706,2763 7.445260,44.128693,2762 7.445260,44.128689,2761 7.445239,44.128691,2760 7.445190,44.128674,2759 7.445158,44.128649,2759 7.445109,44.128624,2759 7.445145,44.128620,2759 7.445159,44.128631,2758 7.445179,44.128608,2757 7.445206,44.128602,2756 7.445160,44.128570,2754 7.445168,44.128561,2753 7.445121,44.128551,2752 7.445187,44.128553,2751 7.445203,44.128549,2750 7.445223,44.128513,2749 7.445232,44.128518,2748 7.445195,44.128500,2747 7.445187,44.128496,2747 7.445171,44.128492,2747 7.445124,44.128492,2746 7.445114,44.128486,2745 7.445068,44.128489,2746 7.445000,44.128445,2746 7.444988,44.128439,2747 7.444971,44.128469,2747 7.444935,44.128484,2748 7.444917,44.128482,2749 7.444874,44.128486,2750 7.444876,44.128489,2751 7.444833,44.128467,2750 7.444800,44.128445,2750 7.444814,44.128445,2749 7.444834,44.128425,2748 7.444819,44.128412,2747 7.444784,44.128410,2746 7.444804,44.128394,2745 7.444797,44.128371,2744 7.444836,44.128380,2743 7.444771,44.128368,2742 7.444835,44.128379,2741 7.444811,44.128357,2739 7.444778,44.128324,2738 7.444759,44.128304,2738 7.444699,44.128295,2738 7.444626,44.128263,2738 7.444514,44.128236,2738 7.444476,44.128225,2737 7.444380,44.128183,2738 7.444394,44.128189,2738 7.444338,44.128203,2739 7.444346,44.128201,2739 7.444364,44.128215,2738 7.444407,44.128225,2737 7.444462,44.128210,2735 7.444475,44.128190,2734 7.444518,44.128166,2733 7.444514,44.128187,2732 7.444551,44.128175,2731 7.444567,44.128187,2730 7.444557,44.128167,2729 7.444562,44.128160,2729 7.444551,44.128143,2727 7.444543,44.128144,2726 7.444525,44.128132,2726 7.444514,44.128136,2725 7.444501,44.128150,2724 7.444462,44.128135,2724 7.444442,44.128096,2724 7.444447,44.128111,2723 7.444445,44.128154,2723 7.444411,44.128176,2722 7.444413,44.128203,2721 7.444377,44.128127,2721 7.444374,44.128130,2720 7.444364,44.128132,2720 7.444344,44.128148,2719 7.444329,44.128163,2718 7.444296,44.128152,2717 7.444259,44.128116,2716 7.444267,44.128137,2716 7.444216,44.128124,2715 7.444240,44.128129,2714 7.444252,44.128135,2714 7.444255,44.128137,2714 7.444238,44.128131,2715 7.444244,44.128156,2715 7.444179,44.128104,2715 7.444205,44.128097,2714 7.444210,44.128078,2713 7.444179,44.128048,2712 7.444167,44.128060,2711 7.444132,44.128055,2710 7.444105,44.128034,2709 7.444077,44.128000,2708 7.443991,44.127974,2708 7.443969,44.127977,2707 7.443965,44.127968,2705 7.443933,44.127929,2704 7.443937,44.127894,2703 7.443915,44.127870,2703 7.443910,44.127889,2703 7.443885,44.127875,2702 7.443758,44.127855,2702 7.443730,44.127885,2702 7.443644,44.127868,2701 7.443610,44.127837,2700 7.443641,44.127804,2699 7.443645,44.127820,2698 7.443633,44.127829,2697 7.443613,44.127829,2696 7.443611,44.127839,2696 7.443555,44.127816,2695 7.443546,44.127815,2694 7.443524,44.127809,2694 7.443402,44.127770,2693 7.443371,44.127748,2692 7.443340,44.127731,2693 7.443338,44.127725,2693 7.443280,44.127746,2692 7.443271,44.127753,2691 7.443208,44.127773,2691 7.443068,44.127787,2691 7.442992,44.127698,2691 7.442990,44.127690,2691 7.443025,44.127748,2692 7.442982,44.127791,2693 7.442977,44.127800,2693 7.442985,44.127773,2694 7.443025,44.127771,2694 7.442888,44.127823,2694 7.442808,44.127856,2695 7.442740,44.127873,2696 7.442673,44.127858,2697 7.442621,44.127865,2698 7.442570,44.127862,2699 7.442482,44.127842,2700 7.442454,44.127835,2701 7.442460,44.127859,2702 7.442421,44.127853,2702 7.442372,44.127807,2702 7.442398,44.127847,2702 7.442420,44.127850,2701 7.442394,44.127888,2702 7.442384,44.127895,2704 7.442383,44.127903,2706 7.442385,44.127923,2707 7.442389,44.127938,2708 7.442395,44.127919,2709 7.442423,44.127919,2709 7.442413,44.127930,2710 7.442367,44.127915,2711 7.442325,44.127896,2711 7.442335,44.127929,2711 7.442308,44.127949,2713 7.442285,44.127972,2714 7.442247,44.127968,2715 7.442235,44.127972,2716 7.442209,44.127944,2716 7.442188,44.127937,2715 7.442171,44.127916,2715 7.442156,44.127929,2717 7.442133,44.127952,2718 7.442111,44.127934,2719 7.442088,44.127922,2720 7.442110,44.127955,2722 7.442077,44.127948,2722 7.442097,44.127945,2722 7.442088,44.127957,2723 7.442097,44.127964,2724 7.442097,44.127967,2724 7.442059,44.127987,2725 7.442053,44.127996,2726 7.442031,44.127999,2727 7.441981,44.128001,2728 7.441977,44.128008,2729 7.441981,44.128012,2729 7.441976,44.128019,2729 7.441899,44.127986,2730 7.441884,44.127995,2731 7.441852,44.127986,2731 7.441830,44.127976,2731 7.441817,44.127965,2731 7.441810,44.127988,2732 7.441818,44.127990,2732 7.441832,44.127999,2732 7.441826,44.127999,2733 7.441799,44.127990,2733 7.441760,44.127957,2732 7.441720,44.127955,2734 7.441705,44.127954,2734 7.441709,44.127968,2736 7.441707,44.127972,2736 7.441710,44.127982,2737 7.441694,44.127968,2737 7.441652,44.127969,2738 7.441648,44.127955,2739 7.441608,44.127949,2739 7.441631,44.127989,2740 7.441654,44.128010,2741 7.441640,44.128017,2742 7.441651,44.128032,2742 7.441628,44.128034,2743 7.441594,44.128028,2744 7.441609,44.128066,2745 7.441632,44.128086,2746 7.441657,44.128104,2746 7.441650,44.128125,2747 7.441693,44.128148,2748 7.441737,44.128131,2749 7.441721,44.128143,2750 7.441707,44.128138,2751 7.441697,44.128128,2750 7.441673,44.128157,2751 7.441655,44.128171,2752 7.441628,44.128179,2753 7.441603,44.128189,2754 7.441610,44.128188,2755 7.441624,44.128194,2756 7.441630,44.128217,2756 7.441626,44.128206,2755 7.441603,44.128206,2756 7.441605,44.128208,2757 7.441590,44.128213,2757 7.441553,44.128207,2757 7.441530,44.128232,2758 7.441501,44.128220,2759 7.441470,44.128212,2760 7.441455,44.128213,2761 7.441439,44.128234,2763 7.441466,44.128268,2763 7.441466,44.128267,2764 7.441468,44.128265,2764 7.441441,44.128244,2763 7.441438,44.128252,2763 7.441426,44.128271,2763 7.441438,44.128270,2763 7.441430,44.128270,2763 7.441344,44.128249,2764 7.441323,44.128257,2765 7.441313,44.128262,2766 7.441293,44.128261,2767 7.441282,44.128238,2768 7.441265,44.128235,2769 7.441237,44.128242,2770 7.441232,44.128243,2770 7.441280,44.128231,2769 7.441277,44.128236,2768 7.441272,44.128250,2768 7.441274,44.128255,2768 7.441277,44.128269,2768 7.441282,44.128284,2769 7.441277,44.128264,2769 7.441263,44.128281,2769 7.441261,44.128292,2770 7.441256,44.128299,2770 7.441251,44.128310,2771 7.441226,44.128299,2772 7.441239,44.128295,2772 7.441238,44.128302,2772 7.441218,44.128293,2773 7.441191,44.128312,2773 7.441180,44.128279,2774 7.441167,44.128291,2775 7.441153,44.128294,2775 7.441137,44.128289,2775 7.441125,44.128288,2776 7.441090,44.128258,2776 7.441058,44.128265,2778 7.441021,44.128269,2779 7.440994,44.128287,2781 7.440923,44.128293,2782 7.440906,44.128290,2783 7.440866,44.128309,2784 7.440825,44.128316,2784 7.440840,44.128297,2784 7.440831,44.128296,2783 7.440828,44.128289,2783 7.440816,44.128262,2784 7.440781,44.128268,2785 7.440772,44.128239,2786 7.440757,44.128230,2785 7.440758,44.128259,2785 7.440745,44.128252,2785 7.440742,44.128254,2785 7.440734,44.128250,2786 7.440692,44.128273,2787 7.440677,44.128260,2788 7.440661,44.128289,2789 7.440648,44.128308,2789 7.440582,44.128300,2789 7.440554,44.128305,2789 7.440522,44.128321,2789 7.440497,44.128323,2791 7.440494,44.128328,2791 7.440460,44.128318,2790 7.440415,44.128326,2789 7.440416,44.128319,2789 7.440430,44.128327,2789 7.440415,44.128326,2789 7.440429,44.128330,2790 7.440427,44.128333,2789 7.440448,44.128325,2788 7.440422,44.128329,2788 7.440415,44.128326,2788 7.440426,44.128341,2787 7.440418,44.128329,2787 7.440429,44.128317,2787 7.440426,44.128326,2787 7.440397,44.128323,2788 7.440419,44.128332,2787 7.440391,44.128315,2787 7.440416,44.128309,2787 7.440409,44.128311,2787 7.440411,44.128334,2787 7.440400,44.128321,2787 7.440402,44.128328,2787 7.440426,44.128326,2787 7.440408,44.128314,2786 7.440413,44.128326,2787 7.440407,44.128340,2786 7.440413,44.128328,2786 7.440404,44.128328,2786 7.440415,44.128309,2786 7.440406,44.128340,2785 7.440401,44.128334,2785 7.440399,44.128346,2785 7.440390,44.128336,2785 7.440409,44.128322,2785 7.440417,44.128319,2785 7.440403,44.128324,2785 7.440392,44.128314,2785 7.440388,44.128318,2785 7.440402,44.128319,2784 7.440391,44.128323,2784 7.440424,44.128314,2784 7.440414,44.128319,2784 7.440421,44.128317,2783 7.440400,44.128320,2783 7.440403,44.128325,2783 7.440410,44.128313,2783 7.440408,44.128328,2783 7.440415,44.128330,2784 7.440422,44.128328,2784 7.440432,44.128325,2784 7.440435,44.128328,2784 7.440377,44.128324,2783 7.440356,44.128324,2783 7.440333,44.128323,2782 7.440277,44.128340,2780 7.440248,44.128331,2779 7.440229,44.128343,2779 7.440220,44.128334,2778 7.440174,44.128335,2777 7.440151,44.128340,2777 7.440128,44.128358,2779 7.440078,44.128364,2780 7.440008,44.128368,2782 7.439965,44.128394,2783 7.439941,44.128415,2782 7.439908,44.128420,2782 7.439859,44.128436,2780 7.439801,44.128456,2779 7.439723,44.128465,2778 7.439608,44.128528,2779 7.439556,44.128556,2780 7.439474,44.128580,2780 7.439431,44.128601,2781 7.439381,44.128596,2782 7.439339,44.128613,2783 7.439279,44.128649,2784 7.439213,44.128694,2785 7.439200,44.128701,2785 7.439155,44.128728,2786 7.439148,44.128720,2787 7.439075,44.128710,2788 7.439076,44.128729,2788 7.439067,44.128738,2788 7.439044,44.128728,2789 7.438937,44.128741,2789 7.438823,44.128758,2789 7.438790,44.128747,2790 7.438741,44.128747,2792 7.438715,44.128752,2793 7.438704,44.128750,2794 7.438708,44.128764,2794 7.438688,44.128777,2795 7.438672,44.128784,2797 7.438670,44.128779,2798 7.438683,44.128789,2799 7.438667,44.128804,2800 7.438646,44.128841,2801 7.438601,44.128860,2802 7.438578,44.128887,2804 7.438556,44.128893,2805 7.438527,44.128905,2806 7.438488,44.128910,2807 7.438454,44.128916,2808 7.438416,44.128928,2809 7.438350,44.128929,2811 7.438361,44.128947,2812 7.438305,44.128930,2813 7.438295,44.128934,2814 7.438284,44.128936,2815 7.438237,44.128918,2816 7.438192,44.128932,2817 7.438146,44.128940,2817 7.438132,44.128956,2817 7.438059,44.128978,2817 7.437995,44.128990,2816 7.437978,44.129003,2816 7.437950,44.129012,2816 7.437947,44.129044,2815 7.437874,44.129019,2815 7.437837,44.129031,2816 7.437844,44.129047,2817 7.437816,44.129049,2815 7.437806,44.129057,2815 7.437821,44.129072,2815 7.437812,44.129075,2814 7.437766,44.129064,2813 7.437765,44.129068,2813 7.437767,44.129078,2813 7.437749,44.129102,2813 7.437761,44.129086,2814 7.437738,44.129093,2814 7.437740,44.129123,2815 7.437716,44.129111,2816 7.437698,44.129120,2816 7.437702,44.129105,2816 7.437666,44.129090,2817 7.437672,44.129102,2818 7.437628,44.129074,2818 7.437660,44.129079,2819 7.437672,44.129091,2819 7.437651,44.129081,2819 7.437615,44.129090,2819 7.437621,44.129085,2818 7.437609,44.129088,2817 7.437541,44.129095,2816 7.437517,44.129105,2817 7.437497,44.129098,2816 7.437486,44.129096,2816 7.437444,44.129076,2817 7.437424,44.129053,2815 7.437374,44.129065,2815 7.437347,44.129049,2814 7.437324,44.129084,2814 7.437287,44.129074,2815 7.437266,44.129066,2816 7.437219,44.129080,2816 7.437207,44.129079,2815 7.437178,44.129079,2815 7.437153,44.129085,2814 7.437128,44.129058,2813 7.437111,44.129049,2813 7.437109,44.129053,2813 7.437107,44.129059,2814 7.437101,44.129048,2815 7.437108,44.129029,2815 7.437088,44.129020,2815 7.437013,44.129026,2815 7.436955,44.129025,2815 7.436973,44.129055,2815 7.436942,44.129053,2814 7.436912,44.129055,2815 7.436907,44.129056,2816 7.436882,44.129066,2816 7.436895,44.129063,2816 7.436865,44.129078,2817 7.436848,44.129069,2818 7.436881,44.129076,2818 7.436870,44.129078,2817 7.436902,44.129058,2816 7.436905,44.129065,2815 7.436861,44.129053,2815 7.436874,44.129067,2815 7.436867,44.129057,2816 7.436883,44.129049,2816 7.436900,44.129057,2815 7.436917,44.129064,2814 7.436927,44.129073,2814 7.436952,44.129045,2813 7.436932,44.129023,2813 7.436912,44.129023,2812 7.436873,44.129012,2811 7.436835,44.129014,2811 7.436846,44.129029,2811 7.436822,44.129027,2811 7.436805,44.129019,2811 7.436820,44.129030,2811 7.436868,44.129044,2811 7.436849,44.129059,2811 7.436804,44.129034,2811 7.436753,44.129060,2809 7.436696,44.129076,2808 7.436681,44.129082,2809 7.436636,44.129091,2809 7.436606,44.129082,2810 7.436586,44.129092,2810 7.436543,44.129104,2810 7.436491,44.129118,2811 7.436452,44.129121,2812 7.436459,44.129123,2813 7.436451,44.129139,2814 7.436378,44.129131,2814 7.436277,44.129131,2815 7.436259,44.129149,2816 7.436256,44.129174,2818 7.436224,44.129187,2819 7.436199,44.129175,2820 7.436176,44.129156,2821 7.436123,44.129150,2821 7.436112,44.129162,2822 7.436086,44.129181,2823 7.436075,44.129206,2824 7.436007,44.129211,2824 7.435969,44.129205,2825 7.435930,44.129222,2827 7.435871,44.129232,2827 7.435784,44.129291,2824 7.435739,44.129291,2823 7.435696,44.129307,2823 7.435670,44.129310,2824 7.435622,44.129320,2825 7.435568,44.129345,2827 7.435570,44.129352,2827 7.435561,44.129371,2827 7.435532,44.129387,2826 7.435515,44.129395,2825 7.435488,44.129409,2824 7.435448,44.129397,2824 7.435434,44.129412,2823 7.435428,44.129416,2823 7.435411,44.129416,2823 7.435421,44.129411,2822 7.435395,44.129411,2821 7.435396,44.129415,2820 7.435381,44.129413,2819 7.435371,44.129416,2818 7.435349,44.129423,2818 7.435292,44.129421,2817 7.435240,44.129425,2817 7.435209,44.129442,2817 7.435202,44.129418,2817 7.435247,44.129420,2816 7.435272,44.129422,2815 7.435293,44.129416,2814 7.435264,44.129389,2813 7.435253,44.129370,2812 7.435239,44.129363,2810 7.435223,44.129354,2809 7.435240,44.129384,2809 7.435208,44.129390,2811 7.435226,44.129390,2812 7.435224,44.129392,2812 7.435204,44.129377,2812 7.435201,44.129393,2813 7.435157,44.129393,2814 7.435156,44.129398,2815 7.435156,44.129403,2815 7.435139,44.129400,2815 7.435133,44.129392,2815 7.435120,44.129377,2816 7.435106,44.129358,2817 7.435102,44.129336,2817 7.435100,44.129321,2817 7.435093,44.129361,2816 7.435117,44.129380,2816 7.435150,44.129381,2816 7.435120,44.129369,2817 7.435103,44.129378,2818 7.435077,44.129464,2818 7.435035,44.129485,2818 7.434942,44.129551,2818 7.434859,44.129575,2817 7.434817,44.129596,2817 7.434683,44.129599,2818 7.434644,44.129605,2817 7.434563,44.129642,2817 7.434455,44.129684,2818 7.434386,44.129678,2818 7.434282,44.129700,2820 7.434273,44.129693,2821 7.434218,44.129694,2821 7.434209,44.129694,2821 7.434199,44.129703,2822 7.434133,44.129694,2823 7.434128,44.129687,2823 7.434089,44.129706,2824 7.434051,44.129750,2824 7.434037,44.129759,2824 7.434059,44.129750,2824 7.434034,44.129750,2824 7.434015,44.129759,2824 7.434052,44.129746,2824 7.434033,44.129744,2823 7.434044,44.129754,2824 7.434047,44.129758,2823 7.434048,44.129775,2823 7.434041,44.129772,2824 7.434034,44.129756,2824 7.434036,44.129754,2824 7.434059,44.129752,2824 7.434039,44.129768,2824 7.434062,44.129760,2824 7.434109,44.129741,2824 7.434076,44.129766,2824 7.434043,44.129767,2825 7.434054,44.129757,2825 7.434051,44.129752,2825 7.434050,44.129753,2825 7.434040,44.129751,2825 7.434046,44.129761,2825 7.434027,44.129770,2825 7.434037,44.129767,2825 7.434041,44.129766,2826 7.434042,44.129771,2826 7.434046,44.129772,2826 7.434063,44.129787,2827 7.434042,44.129781,2827 7.434023,44.129776,2827 7.434022,44.129765,2827 7.434035,44.129770,2827 7.434027,44.129757,2827 7.434055,44.129769,2827 7.434052,44.129774,2827 7.434033,44.129759,2827 7.434050,44.129759,2828 7.434053,44.129767,2828 7.434072,44.129775,2828 7.434014,44.129767,2828 7.434036,44.129758,2828 7.434046,44.129744,2828 7.434058,44.129743,2828 7.434037,44.129743,2828 7.434034,44.129750,2828 7.434033,44.129754,2828 7.434026,44.129746,2829 7.434047,44.129762,2829 7.434032,44.129756,2829 7.434012,44.129765,2829 7.434016,44.129770,2830 7.434029,44.129767,2830 7.434023,44.129769,2830 7.434023,44.129769,2830 7.434023,44.129769,2831 7.434023,44.129769,2830 7.434023,44.129769,2831 7.434028,44.129765,2831 7.434023,44.129769,2831 7.434030,44.129761,2830 7.434032,44.129760,2831 7.434056,44.129766,2831 7.434037,44.129762,2831 7.434031,44.129769,2831 7.434033,44.129766,2831 7.434043,44.129758,2831 7.434031,44.129758,2830 7.434040,44.129766,2830 7.434028,44.129765,2830 7.434009,44.129757,2830 7.434030,44.129755,2830 7.434041,44.129774,2831 7.434031,44.129770,2831 7.434037,44.129761,2831 7.434025,44.129761,2831 7.434031,44.129774,2831 7.434042,44.129764,2830 7.434044,44.129760,2830 7.434020,44.129756,2830 7.434031,44.129772,2830 7.434027,44.129759,2830 7.434023,44.129775,2830 7.434034,44.129768,2831 7.434018,44.129760,2830 7.434035,44.129762,2830 7.434040,44.129756,2830 7.434034,44.129744,2829 7.434039,44.129761,2829 7.433993,44.129792,2829 7.433943,44.129803,2828 7.433890,44.129806,2828 7.433870,44.129820,2828 7.433836,44.129828,2827 7.433837,44.129856,2826 7.433816,44.129874,2825 7.433799,44.129891,2824 7.433767,44.129918,2823 7.433700,44.129969,2824 7.433664,44.129991,2824 7.433625,44.129993,2823 7.433602,44.129992,2822 7.433552,44.130005,2821 7.433541,44.130014,2820 7.433504,44.130031,2819 7.433504,44.130057,2819 7.433500,44.130060,2818 7.433485,44.130069,2818 7.433407,44.130079,2819 7.433369,44.130130,2819 7.433349,44.130147,2819 7.433344,44.130159,2819 7.433341,44.130158,2819 7.433311,44.130159,2819 7.433302,44.130146,2818 7.433293,44.130156,2817 7.433277,44.130167,2816 7.433260,44.130174,2815 7.433261,44.130187,2814 7.433238,44.130195,2814 7.433233,44.130188,2812 7.433241,44.130197,2812 7.433253,44.130207,2811 7.433216,44.130189,2812 7.433189,44.130197,2810 7.433135,44.130234,2809 7.433103,44.130236,2807 7.433076,44.130245,2806 7.433055,44.130226,2805 7.433022,44.130229,2804 7.432952,44.130239,2803 7.432974,44.130217,2802 7.432938,44.130215,2801 7.432896,44.130224,2800 7.432887,44.130238,2800 7.432878,44.130238,2799 7.432855,44.130250,2799 7.432814,44.130253,2798 7.432798,44.130254,2797 7.432782,44.130252,2796 7.432780,44.130254,2796 7.432780,44.130254,2795 7.432780,44.130254,2794 7.432780,44.130254,2793 7.432716,44.130264,2793 7.432700,44.130271,2792 7.432663,44.130269,2791 7.432661,44.130270,2790 7.432637,44.130277,2789 7.432627,44.130274,2789 7.432594,44.130285,2788 7.432562,44.130288,2787 7.432516,44.130293,2785 7.432494,44.130308,2784 7.432441,44.130317,2784 7.432390,44.130329,2783 7.432363,44.130346,2782 7.432300,44.130357,2780 7.432272,44.130341,2779 7.432269,44.130346,2778 7.432232,44.130366,2777 7.432201,44.130380,2776 7.432158,44.130408,2775 7.432136,44.130412,2775 7.432089,44.130416,2775 7.432021,44.130411,2773 7.431956,44.130428,2772 7.431886,44.130426,2771 7.431859,44.130409,2770 7.431850,44.130398,2769 7.431821,44.130399,2768 7.431789,44.130380,2766 7.431756,44.130369,2765 7.431744,44.130351,2764 7.431680,44.130333,2762 7.431656,44.130314,2761 7.431668,44.130288,2760 7.431631,44.130277,2759 7.431589,44.130295,2758 7.431511,44.130287,2757 7.431453,44.130245,2758 7.431376,44.130204,2756 7.431291,44.130142,2755 7.431277,44.130135,2754 7.431246,44.130091,2753 7.431197,44.130058,2751 7.431207,44.130049,2750 7.431176,44.130033,2749 7.431131,44.130025,2748 7.431129,44.129991,2747 7.431092,44.129992,2746 7.431091,44.129950,2745 7.431036,44.129903,2744 7.431011,44.129828,2744 7.431026,44.129788,2743 7.430981,44.129754,2742 7.430913,44.129731,2741 7.430905,44.129716,2741 7.430915,44.129686,2740 7.430852,44.129682,2739 7.430785,44.129656,2738 7.430792,44.129618,2737 7.430791,44.129610,2736 7.430770,44.129602,2735 7.430744,44.129592,2735 7.430732,44.129575,2734 7.430693,44.129529,2733 7.430699,44.129506,2732 7.430710,44.129486,2731 7.430700,44.129467,2730 7.430685,44.129399,2729 7.430678,44.129387,2729 7.430655,44.129357,2728 7.430658,44.129341,2728 7.430690,44.129317,2727 7.430702,44.129289,2725 7.430709,44.129270,2724 7.430670,44.129244,2724 7.430669,44.129208,2723 7.430663,44.129142,2722 7.430699,44.129081,2721 7.430733,44.129008,2720 7.430701,44.128963,2719 7.430698,44.128938,2718 7.430697,44.128877,2717 7.430698,44.128804,2716 7.430699,44.128789,2715 7.430705,44.128766,2714 7.430704,44.128735,2714 7.430715,44.128723,2713 7.430684,44.128691,2712 7.430671,44.128673,2711 7.430647,44.128634,2710 7.430644,44.128586,2709 7.430653,44.128555,2708 7.430663,44.128526,2707 7.430670,44.128529,2707 7.430685,44.128500,2706 7.430684,44.128471,2704 7.430671,44.128414,2702 7.430675,44.128354,2701 7.430682,44.128299,2700 7.430633,44.128166,2699 7.430652,44.128107,2698 7.430635,44.128060,2697 7.430626,44.128069,2697 7.430681,44.128078,2697 7.430700,44.128079,2698 7.430687,44.128070,2698 7.430681,44.128029,2698 7.430760,44.127999,2696 7.430754,44.127994,2695 7.430800,44.128001,2693 7.430765,44.127988,2692 7.430763,44.127958,2691 7.430787,44.127960,2691 7.430796,44.127950,2689 7.430822,44.127923,2688 7.430840,44.127925,2687 7.430775,44.127916,2686 7.430764,44.127874,2685 7.430768,44.127860,2684 7.430760,44.127839,2683 7.430795,44.127822,2682 7.430775,44.127804,2680 7.430790,44.127790,2680 7.430808,44.127773,2680 7.430726,44.127728,2679 7.430744,44.127710,2678 7.430750,44.127694,2678 7.430723,44.127652,2677 7.430669,44.127577,2676 7.430666,44.127526,2675 7.430664,44.127500,2674 7.430660,44.127473,2673 7.430615,44.127415,2672 7.430576,44.127390,2671 7.430518,44.127330,2670 7.430481,44.127252,2669 7.430441,44.127163,2668 7.430408,44.127107,2667 7.430425,44.126971,2664 7.430450,44.126936,2664 7.430423,44.126959,2664 7.430420,44.126939,2665 7.430434,44.126940,2665 7.430521,44.126913,2665 7.430565,44.126941,2664 7.430600,44.126926,2662 7.430594,44.126900,2661 7.430595,44.126867,2660 7.430611,44.126856,2659 7.430630,44.126819,2657 7.430637,44.126788,2655 7.430627,44.126774,2654 7.430648,44.126709,2652 7.430707,44.126646,2650 7.430766,44.126641,2649 7.430785,44.126638,2648 7.430810,44.126609,2647 7.430819,44.126593,2645 7.430809,44.126557,2644 7.430814,44.126527,2643 7.430799,44.126507,2641 7.430786,44.126520,2640 7.430785,44.126523,2639 7.430785,44.126505,2638 7.430777,44.126482,2638 7.430784,44.126453,2636 7.430776,44.126436,2635 7.430737,44.126422,2634 7.430721,44.126414,2635 7.430714,44.126383,2633 7.430662,44.126382,2632 7.430689,44.126345,2631 7.430728,44.126337,2629 7.430707,44.126343,2628 7.430684,44.126335,2627 7.430750,44.126316,2627 7.430774,44.126316,2626 7.430758,44.126315,2625 7.430756,44.126284,2623 7.430740,44.126296,2622 7.430781,44.126247,2620 7.430776,44.126251,2619 7.430844,44.126259,2618 7.430857,44.126260,2616 7.430792,44.126232,2616 7.430829,44.126226,2614 7.430803,44.126217,2613 7.430813,44.126203,2613 7.430822,44.126192,2612 7.430841,44.126162,2611 7.430817,44.126152,2609 7.430802,44.126120,2608 7.430830,44.126104,2606 7.430823,44.126087,2605 7.430844,44.126023,2604 7.430873,44.125998,2603 7.430955,44.125959,2602 7.430929,44.125966,2601 7.430959,44.125925,2600 7.431002,44.125892,2599 7.430964,44.125895,2599 7.430976,44.125887,2598 7.431031,44.125859,2597 7.431055,44.125837,2596 7.431071,44.125783,2594 7.431110,44.125759,2592 7.431161,44.125718,2592 7.431177,44.125708,2590 7.431199,44.125696,2589 7.431254,44.125683,2588 7.431273,44.125676,2587 7.431326,44.125626,2586 7.431346,44.125592,2584 7.431355,44.125587,2582 7.431412,44.125546,2581 7.431418,44.125530,2579 7.431433,44.125492,2578 7.431438,44.125446,2577 7.431547,44.125392,2575 7.431551,44.125376,2574 7.431504,44.125369,2573 7.431565,44.125307,2572 7.431595,44.125325,2571 7.431598,44.125347,2569 7.431634,44.125337,2568 7.431610,44.125330,2567 7.431582,44.125302,2566 7.431562,44.125279,2565 7.431534,44.125237,2564 7.431434,44.125150,2564 7.431420,44.125093,2564 7.431382,44.125048,2563 7.431288,44.125014,2563 7.431205,44.124985,2562 7.431209,44.124989,2561 7.431148,44.125000,2561 7.431142,44.125005,2561 7.431103,44.124971,2561 7.431071,44.124962,2561 7.431152,44.124930,2559 7.431164,44.124907,2557 7.431170,44.124890,2556 7.431155,44.124883,2555 7.431145,44.124874,2555 7.431103,44.124871,2553 7.431021,44.124873,2552 7.430931,44.124788,2551 7.430917,44.124761,2551 7.430889,44.124655,2550 7.430881,44.124638,2550 7.430880,44.124662,2549 7.430840,44.124654,2548 7.430881,44.124636,2547 7.430837,44.124620,2546 7.430766,44.124612,2545 7.430743,44.124588,2545 7.430677,44.124556,2544 7.430726,44.124537,2543 7.430722,44.124499,2542 7.430755,44.124470,2540 7.430764,44.124466,2539 7.430717,44.124464,2538 7.430684,44.124420,2537 7.430731,44.124409,2536 7.430709,44.124420,2535 7.430696,44.124399,2534 7.430700,44.124371,2533 7.430703,44.124380,2531 7.430796,44.124318,2530 7.430798,44.124304,2529 7.430766,44.124274,2528 7.430749,44.124261,2525 7.430770,44.124147,2524 7.430773,44.124171,2524 7.430786,44.124145,2524 7.430751,44.124187,2524 7.430795,44.124185,2524 7.430739,44.124193,2525 7.430785,44.124175,2525 7.430724,44.124173,2524 7.430672,44.124196,2524 7.430672,44.124197,2524 7.430780,44.124163,2524 7.430815,44.124171,2524 7.430721,44.124189,2525 7.430742,44.124166,2526 7.430857,44.124134,2525 7.430825,44.124163,2525 7.430736,44.124187,2525 7.430784,44.124196,2525 7.430794,44.124206,2524 7.430783,44.124193,2524 7.430775,44.124208,2525 7.430781,44.124172,2525 7.430852,44.124188,2525 7.430780,44.124167,2525 7.430776,44.124178,2526 7.430819,44.124171,2526 7.430734,44.124179,2526 7.430840,44.124140,2526 7.430848,44.124144,2526 7.430775,44.124223,2526 7.430820,44.124191,2525 7.430806,44.124196,2526 7.430786,44.124182,2526 7.430783,44.124160,2526 7.430738,44.124203,2526 7.430665,44.124255,2526 7.430712,44.124223,2526 7.430774,44.124201,2525 7.430759,44.124182,2525 7.430796,44.124200,2525 7.430813,44.124196,2525 7.430794,44.124164,2525 7.430753,44.124147,2525 7.430756,44.124161,2525 7.430799,44.124156,2525 7.430787,44.124163,2526 7.430823,44.124132,2526 7.430752,44.124166,2526 7.430757,44.124144,2526 7.430777,44.124148,2526 7.430752,44.124171,2526 7.430761,44.124207,2526 7.430748,44.124192,2526 7.430757,44.124164,2526 7.430760,44.124130,2526 7.430743,44.124127,2526 7.430764,44.124151,2526 7.430795,44.124155,2526 7.430812,44.124162,2527 7.430779,44.124145,2528 7.430841,44.124135,2528 7.430821,44.124096,2528 7.430813,44.124114,2528 7.430792,44.124142,2528 7.430817,44.124183,2528 7.430785,44.124197,2527 7.430770,44.124109,2528 7.430738,44.124108,2528 7.430737,44.124137,2528 7.430704,44.124133,2530 7.430663,44.124111,2531 7.430647,44.124110,2532 7.430639,44.124103,2533 7.430584,44.124065,2535 7.430507,44.124034,2536 7.430472,44.124008,2537 7.430480,44.123974,2538 7.430456,44.123973,2539 7.430369,44.123921,2540 7.430309,44.123837,2541 7.430268,44.123800,2542 7.430308,44.123745,2542 7.430286,44.123692,2543 7.430236,44.123627,2544 7.430198,44.123588,2545 7.430143,44.123552,2546 7.430090,44.123516,2547 7.430055,44.123484,2547 7.429972,44.123460,2548 7.429969,44.123452,2549 7.429969,44.123429,2549 7.429962,44.123429,2550 7.429828,44.123403,2550 7.429818,44.123407,2550 7.429819,44.123408,2551 7.429765,44.123387,2552 7.429796,44.123400,2552 7.429733,44.123419,2553 7.429744,44.123406,2554 7.429731,44.123415,2554 7.429727,44.123429,2554 7.429721,44.123414,2555 7.429684,44.123450,2556 7.429695,44.123436,2556 7.429695,44.123461,2557 7.429723,44.123504,2556 7.429712,44.123541,2558 7.429708,44.123533,2559 7.429682,44.123528,2559 7.429663,44.123501,2560 7.429612,44.123501,2561 7.429583,44.123501,2563 7.429529,44.123489,2564 7.429528,44.123512,2565 7.429525,44.123497,2566 7.429519,44.123497,2566 7.429454,44.123485,2566 7.429438,44.123473,2567 7.429381,44.123429,2568 7.429298,44.123447,2567 7.429287,44.123458,2566 7.429245,44.123488,2565 7.429229,44.123489,2565 7.429166,44.123486,2563 7.429160,44.123497,2563 7.429171,44.123494,2563 7.429133,44.123487,2562 7.429096,44.123486,2560 7.429084,44.123494,2559 7.429050,44.123509,2558 7.428958,44.123539,2557 7.428884,44.123523,2556 7.428876,44.123514,2555 7.428805,44.123523,2554 7.428750,44.123517,2552 7.428687,44.123521,2551 7.428682,44.123501,2550 7.428681,44.123498,2548 7.428650,44.123515,2547 7.428589,44.123510,2545 7.428596,44.123486,2544 7.428574,44.123460,2543 7.428561,44.123446,2542 7.428546,44.123427,2540 7.428511,44.123387,2539 7.428478,44.123374,2538 7.428446,44.123363,2537 7.428411,44.123352,2536 7.428356,44.123319,2535 7.428332,44.123298,2534 7.428335,44.123264,2533 7.428317,44.123234,2532 7.428259,44.123203,2531 7.428226,44.123164,2530 7.428217,44.123149,2530 7.428179,44.123119,2528 7.428093,44.123104,2527 7.427989,44.123073,2527 7.427962,44.123072,2525 7.427898,44.123062,2523 7.427870,44.123061,2522 7.427803,44.123065,2521 7.427743,44.123079,2519 7.427661,44.123060,2518 7.427619,44.122990,2517 7.427539,44.122983,2516 7.427509,44.122997,2514 7.427464,44.123024,2514 7.427508,44.123046,2513 7.427465,44.123070,2513 7.427343,44.122998,2512 7.427284,44.123011,2510 7.427226,44.123033,2509 7.427219,44.123036,2509 7.427259,44.123037,2507 7.427231,44.123072,2506 7.427202,44.123070,2505 7.427180,44.123073,2504 7.427120,44.123080,2504 7.427116,44.123077,2503 7.427076,44.123062,2503 7.427054,44.123049,2502 7.427046,44.123059,2501 7.427012,44.123071,2501 7.426993,44.123065,2500 7.427001,44.123034,2500 7.427007,44.123035,2499 7.427011,44.123051,2499 7.427020,44.123085,2498 7.427017,44.123098,2497 7.427004,44.123131,2496 7.427018,44.123163,2495 7.427020,44.123164,2494 7.427001,44.123180,2493 7.426993,44.123190,2493 7.427021,44.123192,2492 7.427029,44.123220,2490 7.426994,44.123235,2489 7.427004,44.123248,2488 7.426981,44.123336,2487 7.426910,44.123306,2486 7.426879,44.123265,2486 7.426860,44.123263,2484 7.426849,44.123269,2484 7.426812,44.123270,2483 7.426779,44.123274,2482 7.426815,44.123316,2480 7.426789,44.123374,2480 7.426762,44.123378,2479 7.426763,44.123384,2477 7.426724,44.123368,2476 7.426672,44.123340,2476 7.426675,44.123353,2475 7.426614,44.123328,2475 7.426575,44.123327,2474 7.426560,44.123326,2473 7.426580,44.123314,2473 7.426528,44.123336,2472 7.426502,44.123323,2471 7.426419,44.123307,2470 7.426414,44.123319,2469 7.426430,44.123318,2469 7.426422,44.123310,2468 7.426361,44.123285,2467 7.426322,44.123282,2466 7.426305,44.123323,2465 7.426289,44.123318,2464 7.426257,44.123341,2463 7.426190,44.123360,2461 7.426171,44.123379,2460 7.426142,44.123378,2459 7.426101,44.123407,2458 7.426091,44.123422,2457 7.426109,44.123455,2456 7.426075,44.123476,2455 7.426019,44.123466,2454 7.425980,44.123478,2453 7.425949,44.123490,2452 7.425905,44.123497,2451 7.425886,44.123522,2450 7.425856,44.123538,2449 7.425816,44.123535,2448 7.425821,44.123553,2447 7.425788,44.123571,2446 7.425773,44.123542,2446 7.425765,44.123539,2445 7.425700,44.123575,2445 7.425693,44.123587,2444 7.425616,44.123613,2443 7.425613,44.123619,2443 7.425619,44.123649,2442 7.425605,44.123670,2441 7.425577,44.123681,2440 7.425538,44.123660,2440 7.425496,44.123649,2439 7.425482,44.123622,2439 7.425379,44.123639,2438 7.425357,44.123611,2438 7.425325,44.123643,2437 7.425287,44.123652,2436 7.425281,44.123672,2436 7.425226,44.123672,2435 7.425140,44.123675,2434 7.425103,44.123715,2434 7.425041,44.123720,2434 7.424967,44.123718,2433 7.424965,44.123722,2432 7.424926,44.123711,2432 7.424864,44.123677,2431 7.424831,44.123676,2431 7.424842,44.123682,2431 7.424866,44.123677,2431 7.424833,44.123640,2431 7.424783,44.123681,2430 7.424796,44.123675,2430 7.424804,44.123675,2430 7.424834,44.123703,2429 7.424806,44.123730,2428 7.424831,44.123723,2427 7.424766,44.123735,2426 7.424757,44.123734,2426 7.424727,44.123744,2424 7.424691,44.123739,2424 7.424671,44.123736,2423 7.424624,44.123762,2422 7.424634,44.123752,2422 7.424689,44.123755,2422 7.424678,44.123765,2422 7.424646,44.123762,2421 7.424604,44.123768,2420 7.424546,44.123771,2419 7.424524,44.123766,2418 7.424511,44.123764,2417 7.424470,44.123759,2415 7.424511,44.123762,2414 7.424486,44.123807,2413 7.424456,44.123795,2412 7.424441,44.123825,2411 7.424434,44.123855,2410 7.424407,44.123819,2410 7.424391,44.123802,2410 7.424380,44.123800,2409 7.424344,44.123806,2407 7.424347,44.123838,2406 7.424342,44.123876,2405 7.424283,44.123864,2403 7.424264,44.123868,2402 7.424204,44.123889,2400 7.424151,44.123892,2399 7.424088,44.123857,2398 7.424050,44.123855,2397 7.423974,44.123869,2395 7.423979,44.123870,2395 7.423957,44.123872,2394 7.423944,44.123888,2393 7.423933,44.123921,2392 7.423916,44.123950,2390 7.423935,44.123965,2389 7.423961,44.123969,2388 7.423941,44.124011,2387 7.423920,44.124030,2385 7.423869,44.124065,2384 7.423922,44.124055,2382 7.423931,44.124081,2381 7.423921,44.124072,2380 7.423901,44.124110,2379 7.423893,44.124120,2379 7.423870,44.124148,2377 7.423854,44.124156,2376 7.423860,44.124173,2374 7.423842,44.124208,2373 7.423848,44.124210,2371 7.423840,44.124254,2370 7.423822,44.124264,2369 7.423815,44.124265,2368 7.423792,44.124281,2368 7.423773,44.124300,2366 7.423798,44.124315,2365 7.423790,44.124348,2364 7.423763,44.124333,2363 7.423735,44.124346,2362 7.423722,44.124349,2361 7.423734,44.124350,2361 7.423702,44.124349,2361 7.423737,44.124392,2361 7.423720,44.124420,2359 7.423726,44.124422,2358 7.423718,44.124471,2357 7.423700,44.124489,2356 7.423718,44.124492,2355 7.423656,44.124499,2354 7.423585,44.124508,2353 7.423495,44.124507,2352 7.423446,44.124502,2350 7.423449,44.124511,2350 7.423445,44.124527,2349 7.423419,44.124559,2347 7.423361,44.124578,2346 7.423363,44.124582,2345 7.423350,44.124572,2344 7.423325,44.124568,2345 7.423290,44.124569,2344 7.423227,44.124571,2344 7.423191,44.124571,2343 7.423140,44.124560,2343 7.423073,44.124621,2343 7.422956,44.124656,2343 7.422889,44.124650,2341 7.422860,44.124724,2340 7.422800,44.124735,2340 7.422756,44.124805,2337 7.422700,44.124843,2336 7.422712,44.124873,2335 7.422674,44.124925,2334 7.422644,44.124947,2333 7.422564,44.124966,2332 7.422498,44.125020,2331 7.422502,44.125063,2331 7.422470,44.125077,2330 7.422421,44.125096,2329 7.422347,44.125105,2329 7.422336,44.125095,2328 7.422343,44.125130,2328 7.422338,44.125184,2327 7.422321,44.125177,2326 7.422268,44.125188,2325 7.422244,44.125206,2324 7.422186,44.125256,2324 7.422124,44.125315,2324 7.422078,44.125341,2323 7.422059,44.125331,2322 7.421996,44.125331,2321 7.421925,44.125346,2321 7.421831,44.125396,2321 7.421800,44.125436,2321 7.421734,44.125455,2321 7.421712,44.125463,2320 7.421651,44.125573,2320 7.421654,44.125594,2320 7.421656,44.125591,2320 7.421677,44.125571,2320 7.421655,44.125615,2320 7.421581,44.125645,2320 7.421673,44.125610,2319 7.421729,44.125602,2319 7.421796,44.125570,2318 7.421843,44.125558,2318 7.421855,44.125558,2316 7.421801,44.125577,2315 7.421823,44.125567,2314 7.421873,44.125566,2314 7.421939,44.125553,2313 7.421986,44.125557,2312 7.421983,44.125574,2311 7.422006,44.125608,2310 7.421997,44.125626,2310 7.421940,44.125632,2308 7.421929,44.125671,2307 7.421939,44.125713,2306 7.421967,44.125734,2305 7.422004,44.125731,2304 7.422075,44.125747,2304 7.422135,44.125758,2303 7.422178,44.125785,2303 7.422204,44.125786,2302 7.422172,44.125766,2302 7.422231,44.125835,2302 7.422185,44.125827,2303 7.422193,44.125814,2303 7.422204,44.125822,2303 7.422190,44.125850,2303 7.422204,44.125855,2303 7.422184,44.125819,2303 7.422167,44.125822,2303 7.422171,44.125843,2304 7.422174,44.125844,2304 7.422247,44.125912,2304 7.422236,44.125908,2304 7.422204,44.125878,2304 7.422221,44.125841,2304 7.422141,44.125808,2304 7.422272,44.125792,2305 7.422292,44.125821,2305 7.422279,44.125856,2305 7.422293,44.125850,2305 7.422290,44.125863,2306 7.422280,44.125869,2306 7.422248,44.125867,2306 7.422220,44.125830,2307 7.422204,44.125826,2307 7.422209,44.125846,2307 7.422252,44.125846,2307 7.422163,44.125729,2307 7.422209,44.125754,2307 7.422257,44.125802,2307 7.422240,44.125828,2307 7.422193,44.125822,2307 7.422232,44.125850,2307 7.422266,44.125846,2308 7.422250,44.125839,2308 7.422232,44.125815,2308 7.422182,44.125836,2308 7.422147,44.125831,2308 7.422141,44.125819,2308 7.422107,44.125792,2308 7.422118,44.125800,2308 7.422175,44.125812,2308 7.422234,44.125835,2308 7.422239,44.125841,2308 7.422251,44.125901,2308 7.422201,44.125916,2308 7.422187,44.125896,2308 7.422211,44.125870,2308 7.422207,44.125892,2308 7.422179,44.125923,2308 7.422177,44.125851,2309 7.422191,44.125822,2309 7.422178,44.125847,2309 7.422227,44.125879,2309 7.422275,44.125892,2309 7.422300,44.125904,2309 7.422284,44.125916,2309 7.422170,44.125818,2309 7.422232,44.125878,2309 7.422181,44.125835,2309 7.422133,44.125801,2309 7.422178,44.125822,2308 7.422195,44.125827,2308 7.422172,44.125735,2308 7.422153,44.125762,2308 7.422161,44.125786,2308 7.422173,44.125810,2308 7.422159,44.125808,2308 7.422135,44.125771,2308 7.422176,44.125785,2308 7.422194,44.125801,2308 7.422187,44.125788,2308 7.422207,44.125776,2308 7.422192,44.125792,2308 7.422124,44.125752,2308 7.422104,44.125722,2308 7.422174,44.125793,2308 7.422207,44.125837,2308 7.422238,44.125802,2308 7.422146,44.125793,2308 7.422161,44.125800,2308 7.422188,44.125816,2308 7.422188,44.125759,2309 7.422193,44.125824,2309 7.422212,44.125803,2309 7.422176,44.125806,2309 7.422152,44.125815,2309 7.422152,44.125796,2309 7.422189,44.125828,2309 7.422196,44.125834,2309 7.422202,44.125829,2309 7.422165,44.125785,2309 7.422171,44.125819,2309 7.422211,44.125805,2309 7.422067,44.125761,2309 7.422105,44.125743,2309 7.422168,44.125809,2309 7.422204,44.125865,2309 7.422198,44.125905,2309 7.422188,44.125857,2309 7.422126,44.125818,2309 7.422109,44.125814,2309 7.422060,44.125741,2309 7.422035,44.125697,2309 7.422047,44.125671,2309 7.422079,44.125690,2309 7.422174,44.125786,2309 7.422146,44.125808,2309 7.422210,44.125847,2309 7.422198,44.125837,2309 7.422212,44.125840,2309 7.422206,44.125820,2310 7.422236,44.125843,2310 7.422228,44.125844,2310 7.422169,44.125832,2310 7.422177,44.125846,2310 7.422190,44.125853,2310 7.422217,44.125861,2310 7.422237,44.125911,2309 7.422243,44.125900,2309 7.422189,44.125816,2310 7.422109,44.125817,2310 7.422090,44.125822,2310 7.422209,44.125878,2310 7.422220,44.125900,2310 7.422237,44.125894,2310 7.422211,44.125886,2310 7.422183,44.125857,2310 7.422227,44.125877,2310 7.422141,44.125834,2310 7.422191,44.125862,2310 7.422282,44.125911,2310 7.422271,44.125936,2310 7.422206,44.125876,2310 7.422197,44.125865,2310 7.422186,44.125837,2311 7.422125,44.125813,2311 7.422202,44.125864,2311 7.422218,44.125875,2311 7.422223,44.125951,2311 7.422126,44.125861,2311 7.422187,44.125870,2311 7.422202,44.125867,2311 7.422191,44.125841,2311 7.422193,44.125826,2311 7.422212,44.125896,2311 7.422187,44.125867,2311 7.422159,44.125816,2311 7.422101,44.125828,2311 7.422149,44.125829,2311 7.422203,44.125856,2311 7.422136,44.125842,2311 7.422030,44.125824,2310 7.422101,44.125910,2310 7.422008,44.125921,2310 7.422016,44.125973,2310 7.421914,44.126016,2311 7.421899,44.126029,2312 7.421897,44.126032,2313 7.421896,44.126038,2313 7.421914,44.126062,2313 7.421924,44.126139,2314 7.421905,44.126117,2314 7.421897,44.126075,2315 7.421913,44.126078,2316 7.421839,44.126085,2316 7.421807,44.126081,2316 7.421885,44.126111,2317 7.421899,44.126131,2317 7.421905,44.126135,2318 7.421881,44.126151,2318 7.421773,44.126170,2320 7.421758,44.126171,2321 7.421770,44.126201,2321 7.421725,44.126265,2321 7.421697,44.126287,2321 7.421690,44.126300,2322 7.421640,44.126420,2323 7.421584,44.126422,2323 7.421564,44.126466,2321 7.421523,44.126504,2321 7.421520,44.126575,2320 7.421501,44.126577,2319 7.421452,44.126626,2318 7.421358,44.126727,2318 7.421360,44.126764,2316 7.421383,44.126832,2315 7.421363,44.126850,2315 7.421350,44.126829,2314 7.421301,44.126861,2313 7.421249,44.126900,2312 7.421271,44.126926,2311 7.421273,44.126962,2311 7.421273,44.126949,2311 7.421168,44.126989,2310 7.421106,44.127053,2310 7.420992,44.127126,2309 7.420869,44.127192,2308 7.420807,44.127198,2307 7.420762,44.127200,2306 7.420696,44.127205,2304 7.420627,44.127211,2303 7.420465,44.127241,2301 7.420412,44.127230,2301 7.420385,44.127276,2300 7.420338,44.127281,2300 7.420197,44.127309,2301 7.420039,44.127288,2301 7.419952,44.127269,2301 7.419865,44.127299,2302 7.419830,44.127312,2304 7.419762,44.127297,2305 7.419739,44.127296,2305 7.419732,44.127304,2305 7.419727,44.127317,2306 7.419700,44.127333,2306 7.419578,44.127375,2307 7.419477,44.127372,2308 7.419293,44.127318,2307 7.419199,44.127310,2306 7.419115,44.127298,2305 7.419038,44.127304,2304 7.418994,44.127286,2302 7.418962,44.127238,2301 7.418961,44.127216,2299 7.418938,44.127189,2297 7.418900,44.127207,2296 7.418863,44.127201,2294 7.418862,44.127175,2292 7.418842,44.127152,2291 7.418807,44.127131,2290 7.418726,44.127102,2288 7.418706,44.127093,2287 7.418679,44.127087,2286 7.418627,44.127074,2285 7.418601,44.127053,2284 7.418555,44.127040,2282 7.418505,44.127061,2280 7.418388,44.127030,2280 7.418334,44.127018,2279 7.418251,44.126957,2278 7.418151,44.126911,2277 7.418125,44.126909,2276 7.418022,44.126866,2275 7.417961,44.126853,2274 7.417898,44.126824,2274 7.417769,44.126805,2273 7.417640,44.126812,2273 7.417582,44.126821,2272 7.417507,44.126783,2272 7.417449,44.126763,2273 7.417454,44.126789,2274 7.417480,44.126818,2274 7.417472,44.126812,2273 7.417443,44.126792,2274 7.417436,44.126782,2274 7.417398,44.126784,2276 7.417321,44.126731,2276 7.417310,44.126705,2276 7.417294,44.126683,2277 7.417263,44.126728,2278 7.417232,44.126761,2278 7.417225,44.126757,2279 7.417163,44.126775,2281 7.417081,44.126808,2281 7.417035,44.126796,2282 7.416971,44.126771,2282 7.416866,44.126740,2282 7.416837,44.126737,2283 7.416752,44.126761,2283 7.416711,44.126767,2284 7.416707,44.126754,2284 7.416725,44.126737,2285 7.416713,44.126717,2286 7.416601,44.126747,2287 7.416544,44.126782,2288 7.416512,44.126833,2288 7.416475,44.126887,2289 7.416406,44.127000,2290 7.416382,44.126993,2290 7.416312,44.127009,2291 7.416239,44.127025,2291 7.416146,44.127014,2289 7.415976,44.126992,2288 7.415895,44.127030,2288 7.415747,44.127022,2288 7.415692,44.127027,2287 7.415635,44.127005,2286 7.415637,44.127015,2285 7.415568,44.127025,2283 7.415468,44.127054,2282 7.415411,44.127069,2282 7.415360,44.127080,2280 7.415343,44.127089,2279 7.415145,44.127064,2278 7.415071,44.127088,2279 7.415033,44.127117,2279 7.414963,44.127131,2278 7.414851,44.127199,2278 7.414783,44.127255,2279 7.414776,44.127326,2279 7.414822,44.127395,2280 7.414817,44.127404,2280 7.414793,44.127476,2280 7.414729,44.127588,2279 7.414695,44.127599,2280 7.414638,44.127632,2281 7.414617,44.127696,2283 7.414542,44.127740,2285 7.414510,44.127758,2286 7.414448,44.127772,2287 7.414395,44.127793,2288 7.414374,44.127787,2288 7.414383,44.127790,2288 7.414381,44.127787,2288 7.414388,44.127783,2288 7.414388,44.127744,2287 7.414446,44.127657,2289 7.414446,44.127646,2289 7.414406,44.127686,2290 7.414349,44.127727,2291 7.414281,44.127750,2292 7.414180,44.127775,2293 7.414028,44.127803,2294 7.413923,44.127796,2295 7.413812,44.127754,2296 7.413692,44.127735,2297 7.413565,44.127755,2297 7.413505,44.127773,2298 7.413392,44.127795,2298 7.413290,44.127809,2299 7.413215,44.127830,2300 7.413156,44.127820,2301 7.413190,44.127778,2302 7.413255,44.127728,2303 7.413238,44.127733,2303 7.413263,44.127699,2303 7.413340,44.127623,2304 7.413411,44.127587,2306 7.413471,44.127553,2307 7.413521,44.127536,2307 7.413644,44.127509,2309 7.413746,44.127505,2310 7.413813,44.127488,2312 7.413869,44.127422,2313 7.413896,44.127405,2314 7.413887,44.127415,2314 7.413924,44.127417,2313 7.413915,44.127417,2313 7.413869,44.127413,2313 7.413706,44.127392,2315 7.413617,44.127342,2316 7.413494,44.127316,2317 7.413379,44.127322,2318 7.413281,44.127354,2319 7.413214,44.127389,2320 7.413035,44.127453,2321 7.412975,44.127443,2321 7.412970,44.127436,2322 7.412943,44.127432,2324 7.412909,44.127395,2325 7.412874,44.127386,2326 7.412848,44.127359,2328 7.412864,44.127373,2329 7.412760,44.127389,2330 7.412611,44.127395,2331 7.412576,44.127401,2331 7.412476,44.127431,2333 7.412395,44.127440,2334 7.412365,44.127407,2335 7.412453,44.127326,2337 7.412535,44.127278,2338 7.412581,44.127237,2339 7.412696,44.127214,2341 7.412785,44.127188,2342 7.412779,44.127168,2343 7.412742,44.127142,2345 7.412715,44.127121,2346 7.412714,44.127123,2347 7.412636,44.127120,2348 7.412439,44.127160,2350 7.412304,44.127192,2351 7.412188,44.127191,2353 7.412102,44.127208,2354 7.411992,44.127201,2355 7.411861,44.127214,2356 7.411770,44.127253,2357 7.411727,44.127280,2358 7.411737,44.127231,2359 7.411765,44.127175,2360 7.411802,44.127130,2361 7.411847,44.127092,2363 7.411908,44.127071,2364 7.412019,44.127034,2366 7.412107,44.126963,2368 7.412188,44.126922,2370 7.412242,44.126891,2371 7.412306,44.126844,2372 7.412363,44.126791,2373 7.412423,44.126724,2375 7.412488,44.126661,2376 7.412497,44.126606,2377 7.412484,44.126557,2378 7.412468,44.126447,2378 7.412483,44.126325,2379 7.412542,44.126247,2380 7.412489,44.126261,2381 7.412380,44.126292,2382 7.412338,44.126342,2383 7.412279,44.126392,2384 7.412212,44.126433,2385 7.412159,44.126487,2386 7.412091,44.126569,2387 7.412038,44.126605,2388 7.411935,44.126640,2389 7.411787,44.126644,2390 7.411660,44.126678,2391 7.411556,44.126714,2392 7.411525,44.126679,2393 7.411600,44.126596,2394 7.411698,44.126546,2396 7.411760,44.126514,2397 7.411828,44.126429,2398 7.411863,44.126370,2399 7.411838,44.126329,2401 7.411826,44.126314,2402 7.411790,44.126365,2403 7.411709,44.126403,2404 7.411616,44.126403,2405 7.411610,44.126371,2406 7.411653,44.126324,2407 7.411661,44.126298,2408 7.411662,44.126305,2408 7.411656,44.126310,2408 7.411683,44.126262,2408 7.411675,44.126262,2408 7.411676,44.126291,2408 7.411653,44.126283,2408 7.411646,44.126276,2408 7.411640,44.126260,2408 7.411643,44.126282,2408 7.411647,44.126272,2408 7.411705,44.126222,2410 7.411761,44.126150,2411 7.411785,44.126117,2412 7.411805,44.126103,2413 7.411833,44.126053,2413 7.411870,44.126008,2415 7.411820,44.126014,2416 7.411734,44.126054,2417 7.411695,44.126079,2417 7.411616,44.126125,2418 7.411543,44.126180,2419 7.411493,44.126232,2420 7.411450,44.126253,2421 7.411340,44.126313,2422 7.411221,44.126396,2423 7.411158,44.126422,2424 7.411099,44.126452,2424 7.411041,44.126492,2425 7.411020,44.126557,2426 7.410962,44.126649,2428 7.410849,44.126677,2429 7.410779,44.126687,2430 7.410737,44.126697,2431 7.410688,44.126725,2433 7.410560,44.126718,2435 7.410623,44.126663,2436 7.410667,44.126625,2437 7.410693,44.126592,2438 7.410719,44.126559,2440 7.410735,44.126468,2441 7.410763,44.126407,2442 7.410795,44.126340,2443 7.410813,44.126304,2445 7.410869,44.126217,2447 7.410900,44.126171,2448 7.410886,44.126030,2450 7.410862,44.125983,2451 7.410819,44.125942,2452 7.410794,44.125916,2454 7.410770,44.125889,2455 7.410750,44.125843,2456 7.410733,44.125757,2458 7.410724,44.125691,2459 7.410722,44.125686,2459 7.410715,44.125635,2461 7.410721,44.125564,2462 7.410729,44.125533,2464 7.410702,44.125483,2465 7.410688,44.125427,2467 7.410668,44.125397,2468 7.410644,44.125385,2468 7.410600,44.125332,2470 7.410612,44.125264,2471 7.410604,44.125205,2472 7.410575,44.125163,2473 7.410570,44.125143,2475 7.410552,44.125107,2477 7.410549,44.125074,2478 7.410539,44.125039,2479 7.410533,44.124982,2480 7.410517,44.124948,2482 7.410501,44.124914,2483 7.410488,44.124875,2484 7.410476,44.124844,2485 7.410454,44.124820,2487 7.410404,44.124841,2487 7.410331,44.124877,2488 7.410299,44.124906,2489 7.410260,44.124974,2489 7.410245,44.125024,2490 7.410224,44.125057,2490 7.410171,44.125110,2491 7.410031,44.125179,2494 7.409985,44.125201,2495 7.409947,44.125247,2496 7.409897,44.125199,2498 7.409904,44.125165,2499 7.409911,44.125127,2501 7.409903,44.125109,2503 7.409891,44.125051,2504 7.409898,44.124978,2506 7.409854,44.125017,2507 7.409783,44.125074,2508 7.409718,44.125139,2509 7.409698,44.125108,2510 7.409722,44.125046,2512 7.409723,44.125002,2513 7.409733,44.124986,2513 7.409651,44.125023,2515 7.409605,44.125034,2517 7.409564,44.125059,2517 7.409537,44.125077,2518 7.409505,44.125062,2519 7.409490,44.125033,2520 7.409499,44.125022,2522 7.409495,44.125003,2523 7.409429,44.125001,2525 7.409391,44.125015,2526 7.409385,44.124982,2527 7.409395,44.124944,2528 7.409397,44.124898,2529 7.409399,44.124866,2530 7.409354,44.124879,2532 7.409323,44.124925,2533 7.409271,44.124986,2534 7.409215,44.124947,2535 7.409220,44.124909,2536 7.409203,44.124864,2537 7.409219,44.124819,2539 7.409192,44.124778,2540 7.409164,44.124741,2541 7.409147,44.124700,2542 7.409153,44.124674,2543 7.409163,44.124616,2545 7.409141,44.124532,2546 7.409108,44.124530,2547 7.409060,44.124582,2548 7.409023,44.124617,2550 7.408994,44.124598,2550 7.409012,44.124544,2552 7.408966,44.124589,2553 7.408903,44.124618,2555 7.408843,44.124649,2556 7.408802,44.124667,2556 7.408809,44.124608,2557 7.408825,44.124557,2559 7.408824,44.124565,2560 7.408826,44.124562,2559 7.408811,44.124566,2559 7.408820,44.124533,2560 7.408821,44.124514,2561 7.408793,44.124513,2562 7.408721,44.124548,2563 7.408672,44.124563,2564 7.408622,44.124595,2565 7.408594,44.124615,2566 7.408557,44.124632,2566 7.408491,44.124640,2568 7.408515,44.124580,2569 7.408515,44.124570,2570 7.408534,44.124510,2573 7.408585,44.124437,2575 7.408606,44.124418,2576 7.408641,44.124350,2578 7.408552,44.124349,2580 7.408398,44.124406,2581 7.408319,44.124423,2581 7.408290,44.124428,2582 7.408180,44.124484,2583 7.408096,44.124585,2583 7.408056,44.124590,2584 7.407994,44.124484,2585 7.407934,44.124433,2586 7.407873,44.124433,2588 7.407828,44.124483,2589 7.407728,44.124494,2590 7.407734,44.124410,2591 7.407772,44.124315,2592 7.407751,44.124315,2594 7.407665,44.124380,2595 7.407579,44.124393,2596 7.407609,44.124369,2597 7.407623,44.124331,2599 7.407640,44.124302,2601 7.407664,44.124253,2603 7.407643,44.124233,2605 7.407603,44.124290,2605 7.407606,44.124293,2604 7.407541,44.124207,2605 7.407507,44.124140,2606 7.407442,44.124110,2607 7.407373,44.124152,2607 7.407286,44.124213,2608 7.407233,44.124214,2609 7.407143,44.124181,2610 7.407104,44.124112,2610 7.407042,44.124108,2611 7.406969,44.124085,2613 7.406895,44.124074,2614 7.406791,44.124044,2614 7.406711,44.124008,2615 7.406581,44.124013,2616 7.406589,44.124014,2615 7.406604,44.124005,2616 7.406630,44.123983,2616 7.406574,44.123996,2616 7.406592,44.124007,2616 7.406678,44.124010,2616 7.406745,44.124026,2617 7.406769,44.124036,2617 7.406756,44.124022,2616 7.406800,44.124035,2617 7.406764,44.124026,2616 7.406767,44.124026,2616 7.406778,44.124038,2617</coordinates></LineString></Placemark></Document></kml>