<?xml version="1.0" encoding="UTF-8"?>
<kml xmlns="http://www.opengis.net/kml/2.2"><Document><name>Alta Linea Continua – Stage 1: Rifugio Garelli to Capanna Morgantini</name><Style id="l"><LineStyle><color>ff2b30c4</color><width>4</width></LineStyle></Style><Placemark><name>Alta Linea Continua – Stage 1: Rifugio Garelli to Capanna Morgantini</name><styleUrl>#l</styleUrl><LineString><tessellate>1</tessellate><altitudeMode>clampToGround</altitudeMode><coordinates>7.687591,44.188683,1965 7.687399,44.188710,1963 7.687389,44.188691,1963 7.687351,44.188704,1963 7.687288,44.188699,1962 7.687228,44.188645,1961 7.687150,44.188587,1959 7.687042,44.188528,1958 7.686821,44.188457,1960 7.686734,44.188438,1960 7.686681,44.188434,1960 7.686527,44.188377,1960 7.686414,44.188301,1960 7.686384,44.188148,1960 7.686459,44.188093,1958 7.686468,44.188014,1958 7.686462,44.187953,1957 7.686438,44.187862,1957 7.686353,44.187715,1956 7.686319,44.187646,1955 7.686456,44.187528,1953 7.686497,44.187531,1952 7.686528,44.187503,1951 7.686606,44.187455,1949 7.686688,44.187433,1948 7.686770,44.187417,1947 7.686798,44.187396,1946 7.686886,44.187357,1944 7.686998,44.187343,1943 7.687086,44.187307,1942 7.687177,44.187243,1942 7.687296,44.187155,1940 7.687407,44.187089,1939 7.687541,44.187011,1938 7.687726,44.186816,1939 7.687847,44.186678,1938 7.687868,44.186642,1939 7.687858,44.186547,1940 7.687908,44.186461,1939 7.687982,44.186411,1938 7.688028,44.186342,1936 7.688145,44.186299,1935 7.688141,44.186282,1934 7.688181,44.186231,1932 7.688197,44.186227,1931 7.688236,44.186183,1930 7.688311,44.186135,1929 7.688345,44.186103,1928 7.688373,44.186039,1926 7.688437,44.185955,1925 7.688488,44.185899,1924 7.688551,44.185850,1923 7.688675,44.185782,1922 7.688709,44.185714,1921 7.688808,44.185623,1920 7.688921,44.185562,1920 7.689120,44.185470,1921 7.689235,44.185350,1920 7.689436,44.185245,1921 7.689538,44.185212,1921 7.689555,44.185186,1921 7.689589,44.185137,1920 7.689654,44.185081,1919 7.689783,44.184986,1919 7.689907,44.184911,1919 7.689928,44.184877,1918 7.689974,44.184871,1918 7.689967,44.184886,1918 7.689961,44.184872,1918 7.690131,44.184795,1918 7.690283,44.184701,1919 7.690310,44.184658,1920 7.690457,44.184473,1920 7.690520,44.184384,1920 7.690655,44.184270,1919 7.690707,44.184178,1918 7.690753,44.184088,1917 7.690772,44.183981,1916 7.690829,44.183882,1916 7.690860,44.183861,1917 7.690852,44.183788,1919 7.690894,44.183719,1919 7.690938,44.183705,1921 7.690986,44.183673,1922 7.691016,44.183625,1923 7.691053,44.183545,1925 7.691066,44.183510,1926 7.691104,44.183477,1928 7.691126,44.183449,1929 7.691110,44.183302,1929 7.691159,44.183247,1930 7.691159,44.183211,1931 7.691157,44.183151,1932 7.691197,44.183140,1934 7.691216,44.183084,1935 7.691208,44.183008,1936 7.691212,44.182978,1938 7.691218,44.182909,1940 7.691177,44.182859,1941 7.691156,44.182833,1942 7.691142,44.182803,1943 7.691110,44.182765,1944 7.691058,44.182708,1945 7.691006,44.182551,1944 7.690997,44.182473,1943 7.690968,44.182446,1942 7.690942,44.182419,1940 7.690925,44.182387,1939 7.690908,44.182335,1938 7.690875,44.182271,1937 7.690858,44.182256,1935 7.690808,44.182220,1934 7.690760,44.182193,1932 7.690774,44.182137,1931 7.690722,44.182047,1930 7.690688,44.181931,1928 7.690673,44.181890,1927 7.690653,44.181843,1926 7.690699,44.181759,1926 7.690709,44.181703,1926 7.690795,44.181621,1927 7.690812,44.181609,1927 7.690830,44.181593,1928 7.690877,44.181493,1929 7.690923,44.181435,1929 7.690954,44.181418,1930 7.690997,44.181352,1931 7.691049,44.181274,1932 7.691123,44.181198,1933 7.691148,44.181167,1934 7.691193,44.181127,1936 7.691229,44.181117,1937 7.691212,44.181105,1937 7.691197,44.181028,1939 7.691226,44.180971,1940 7.691240,44.180944,1941 7.691242,44.180919,1943 7.691242,44.180901,1945 7.691250,44.180870,1946 7.691275,44.180846,1948 7.691299,44.180816,1949 7.691315,44.180827,1950 7.691287,44.180800,1951 7.691276,44.180782,1953 7.691320,44.180770,1954 7.691316,44.180740,1955 7.691317,44.180742,1956 7.691374,44.180740,1957 7.691400,44.180713,1958 7.691403,44.180706,1959 7.691440,44.180694,1960 7.691493,44.180726,1961 7.691507,44.180722,1963 7.691548,44.180724,1964 7.691552,44.180686,1965 7.691615,44.180657,1966 7.691645,44.180644,1967 7.691672,44.180627,1968 7.691672,44.180622,1969 7.691683,44.180600,1969 7.691710,44.180599,1970 7.691794,44.180575,1971 7.691796,44.180581,1972 7.691830,44.180580,1973 7.691876,44.180559,1974 7.691887,44.180554,1974 7.691906,44.180544,1974 7.691951,44.180524,1976 7.691986,44.180513,1977 7.692005,44.180497,1978 7.692048,44.180478,1979 7.692081,44.180469,1981 7.692087,44.180459,1982 7.692105,44.180456,1983 7.692133,44.180425,1984 7.692165,44.180415,1985 7.692198,44.180397,1987 7.692255,44.180367,1988 7.692258,44.180356,1989 7.692256,44.180350,1990 7.692259,44.180345,1991 7.692335,44.180319,1992 7.692368,44.180300,1993 7.692366,44.180277,1995 7.692388,44.180266,1996 7.692435,44.180261,1997 7.692461,44.180241,1998 7.692514,44.180192,2000 7.692558,44.180177,2001 7.692589,44.180163,2002 7.692637,44.180175,2003 7.692648,44.180157,2005 7.692677,44.180166,2006 7.692711,44.180136,2007 7.692736,44.180116,2008 7.692759,44.180078,2009 7.692804,44.180052,2011 7.692846,44.180033,2013 7.692883,44.180009,2015 7.692946,44.179974,2017 7.692981,44.179967,2018 7.693012,44.179958,2019 7.693069,44.179921,2020 7.693111,44.179877,2021 7.693153,44.179855,2022 7.693187,44.179835,2023 7.693251,44.179803,2024 7.693288,44.179776,2025 7.693305,44.179753,2026 7.693341,44.179715,2027 7.693375,44.179681,2029 7.693405,44.179675,2031 7.693437,44.179601,2031 7.693466,44.179553,2032 7.693506,44.179560,2033 7.693534,44.179523,2034 7.693547,44.179505,2035 7.693550,44.179497,2035 7.693555,44.179476,2036 7.693559,44.179461,2036 7.693586,44.179442,2037 7.693607,44.179422,2038 7.693635,44.179403,2039 7.693674,44.179377,2041 7.693715,44.179348,2043 7.693754,44.179328,2044 7.693797,44.179320,2045 7.693797,44.179301,2046 7.693813,44.179291,2047 7.693836,44.179295,2048 7.693876,44.179282,2049 7.693877,44.179291,2050 7.693901,44.179280,2051 7.693932,44.179277,2052 7.693966,44.179304,2053 7.694003,44.179297,2054 7.694039,44.179271,2055 7.694069,44.179259,2057 7.694054,44.179264,2057 7.694099,44.179226,2058 7.694125,44.179202,2059 7.694155,44.179186,2061 7.694199,44.179168,2062 7.694223,44.179192,2063 7.694248,44.179176,2065 7.694265,44.179156,2066 7.694284,44.179161,2067 7.694335,44.179168,2068 7.694358,44.179133,2069 7.694378,44.179088,2070 7.694416,44.179088,2071 7.694440,44.179079,2072 7.694436,44.179040,2074 7.694439,44.179023,2074 7.694445,44.179007,2075 7.694471,44.179007,2076 7.694474,44.178969,2077 7.694449,44.178942,2078 7.694424,44.178933,2079 7.694420,44.178935,2079 7.694446,44.178889,2081 7.694461,44.178891,2081 7.694480,44.178867,2083 7.694442,44.178851,2083 7.694452,44.178851,2084 7.694462,44.178818,2085 7.694472,44.178795,2087 7.694458,44.178767,2088 7.694466,44.178742,2090 7.694479,44.178725,2091 7.694458,44.178705,2091 7.694477,44.178673,2093 7.694489,44.178644,2094 7.694474,44.178630,2095 7.694432,44.178606,2096 7.694406,44.178589,2098 7.694372,44.178546,2100 7.694384,44.178538,2101 7.694389,44.178540,2101 7.694380,44.178528,2102 7.694346,44.178503,2103 7.694330,44.178497,2104 7.694322,44.178496,2104 7.694304,44.178483,2104 7.694234,44.178442,2105 7.694230,44.178417,2106 7.694224,44.178411,2107 7.694195,44.178377,2108 7.694176,44.178351,2110 7.694126,44.178333,2111 7.694103,44.178317,2111 7.694090,44.178294,2112 7.694068,44.178261,2113 7.694027,44.178236,2114 7.694001,44.178222,2115 7.694008,44.178205,2117 7.694064,44.178197,2118 7.694112,44.178197,2119 7.694140,44.178196,2120 7.694148,44.178200,2121 7.694132,44.178198,2121 7.694142,44.178200,2121 7.694162,44.178221,2121 7.694202,44.178199,2121 7.694222,44.178194,2122 7.694251,44.178155,2124 7.694293,44.178155,2126 7.694326,44.178138,2127 7.694321,44.178124,2127 7.694321,44.178096,2128 7.694305,44.178072,2129 7.694291,44.178048,2131 7.694272,44.178039,2132 7.694233,44.178008,2133 7.694236,44.178007,2134 7.694231,44.177972,2136 7.694196,44.177963,2137 7.694174,44.177932,2138 7.694166,44.177924,2139 7.694146,44.177895,2140 7.694150,44.177887,2141 7.694085,44.177850,2142 7.694099,44.177815,2143 7.694141,44.177696,2144 7.694147,44.177619,2144 7.694158,44.177592,2144 7.694173,44.177554,2145 7.694155,44.177500,2146 7.694157,44.177406,2147 7.694129,44.177407,2147 7.694144,44.177440,2147 7.694157,44.177412,2147 7.694162,44.177409,2147 7.694152,44.177393,2147 7.694148,44.177395,2147 7.694146,44.177370,2148 7.694160,44.177323,2149 7.694156,44.177298,2150 7.694108,44.177223,2151 7.694078,44.177173,2152 7.694067,44.177144,2152 7.694065,44.177103,2154 7.694046,44.177071,2155 7.693991,44.177021,2155 7.693961,44.177001,2155 7.693925,44.176974,2156 7.693920,44.176981,2156 7.693910,44.176972,2157 7.693852,44.176964,2158 7.693817,44.176963,2159 7.693817,44.176934,2161 7.693789,44.176916,2161 7.693778,44.176891,2163 7.693732,44.176872,2164 7.693683,44.176862,2165 7.693651,44.176847,2166 7.693667,44.176819,2168 7.693716,44.176788,2169 7.693691,44.176800,2170 7.693630,44.176771,2171 7.693612,44.176762,2172 7.693607,44.176717,2173 7.693612,44.176699,2174 7.693636,44.176685,2176 7.693622,44.176656,2177 7.693634,44.176622,2178 7.693642,44.176590,2180 7.693654,44.176569,2181 7.693652,44.176552,2181 7.693646,44.176544,2182 7.693634,44.176548,2183 7.693648,44.176514,2184 7.693659,44.176474,2185 7.693609,44.176465,2186 7.693555,44.176466,2187 7.693579,44.176467,2188 7.693547,44.176472,2190 7.693521,44.176449,2191 7.693514,44.176472,2192 7.693488,44.176440,2193 7.693509,44.176406,2194 7.693540,44.176365,2195 7.693559,44.176356,2196 7.693453,44.176364,2199 7.693407,44.176338,2200 7.693383,44.176330,2201 7.693397,44.176334,2202 7.693400,44.176294,2203 7.693375,44.176294,2203 7.693353,44.176345,2204 7.693382,44.176333,2204 7.693341,44.176316,2206 7.693358,44.176326,2207 7.693348,44.176349,2208 7.693275,44.176325,2208 7.693291,44.176273,2209 7.693298,44.176293,2210 7.693278,44.176255,2210 7.693278,44.176270,2211 7.693267,44.176251,2212 7.693263,44.176208,2214 7.693239,44.176215,2215 7.693171,44.176219,2216 7.693125,44.176229,2217 7.693115,44.176204,2218 7.693132,44.176198,2218 7.693150,44.176188,2219 7.693142,44.176189,2219 7.693121,44.176168,2221 7.693143,44.176144,2222 7.693160,44.176119,2223 7.693111,44.176126,2224 7.693059,44.176130,2225 7.693073,44.176123,2226 7.693051,44.176125,2226 7.693030,44.176117,2228 7.693025,44.176165,2229 7.692981,44.176137,2230 7.692931,44.176129,2230 7.692938,44.176128,2231 7.692946,44.176115,2232 7.692943,44.176094,2233 7.692924,44.176093,2234 7.692942,44.176089,2235 7.692947,44.176065,2236 7.692906,44.176029,2238 7.692910,44.176032,2239 7.692864,44.176073,2240 7.692854,44.176051,2241 7.692856,44.176006,2242 7.692864,44.175970,2244 7.692890,44.175942,2245 7.692901,44.175961,2246 7.692907,44.175964,2247 7.692853,44.175979,2247 7.692851,44.175940,2248 7.692871,44.175912,2250 7.692891,44.175895,2251 7.692901,44.175842,2253 7.692890,44.175861,2254 7.692865,44.175880,2255 7.692832,44.175912,2256 7.692841,44.175944,2256 7.692777,44.175893,2257 7.692789,44.175894,2257 7.692844,44.175901,2257 7.692893,44.175847,2258 7.692837,44.175857,2259 7.692842,44.175851,2260 7.692787,44.175828,2261 7.692793,44.175821,2262 7.692780,44.175763,2263 7.692782,44.175761,2264 7.692790,44.175747,2265 7.692774,44.175743,2267 7.692739,44.175710,2267 7.692737,44.175710,2268 7.692752,44.175711,2268 7.692757,44.175729,2269 7.692753,44.175758,2270 7.692747,44.175738,2271 7.692734,44.175730,2272 7.692727,44.175764,2273 7.692690,44.175763,2274 7.692630,44.175757,2275 7.692645,44.175736,2276 7.692676,44.175683,2277 7.692663,44.175708,2278 7.692655,44.175702,2279 7.692626,44.175674,2280 7.692608,44.175658,2281 7.692602,44.175662,2281 7.692604,44.175670,2281 7.692626,44.175666,2282 7.692600,44.175651,2283 7.692642,44.175629,2284 7.692654,44.175625,2285 7.692627,44.175627,2285 7.692601,44.175623,2287 7.692593,44.175600,2288 7.692602,44.175611,2289 7.692600,44.175614,2290 7.692555,44.175594,2291 7.692546,44.175606,2292 7.692532,44.175585,2293 7.692553,44.175582,2295 7.692557,44.175568,2296 7.692532,44.175563,2297 7.692545,44.175538,2298 7.692558,44.175533,2300 7.692563,44.175517,2301 7.692541,44.175496,2303 7.692495,44.175499,2304 7.692480,44.175497,2305 7.692503,44.175486,2306 7.692518,44.175510,2307 7.692525,44.175508,2308 7.692525,44.175471,2309 7.692554,44.175455,2310 7.692551,44.175441,2311 7.692532,44.175440,2313 7.692525,44.175428,2314 7.692502,44.175423,2315 7.692511,44.175439,2316 7.692491,44.175435,2318 7.692504,44.175457,2318 7.692485,44.175440,2319 7.692474,44.175434,2320 7.692475,44.175441,2321 7.692414,44.175433,2323 7.692403,44.175441,2324 7.692367,44.175544,2325 7.692285,44.175651,2326 7.692266,44.175657,2327 7.692240,44.175650,2328 7.692303,44.175597,2329 7.692302,44.175510,2329 7.692316,44.175427,2330 7.692330,44.175387,2330 7.692326,44.175362,2330 7.692320,44.175335,2330 7.692316,44.175302,2331 7.692312,44.175284,2332 7.692293,44.175277,2333 7.692271,44.175275,2334 7.692237,44.175258,2335 7.692203,44.175254,2335 7.692154,44.175258,2337 7.692109,44.175267,2338 7.692091,44.175258,2339 7.692046,44.175267,2340 7.692032,44.175283,2341 7.692063,44.175308,2341 7.692150,44.175279,2342 7.692195,44.175254,2342 7.692208,44.175266,2342 7.692200,44.175311,2342 7.692104,44.175390,2342 7.692093,44.175401,2343 7.692089,44.175421,2343 7.692143,44.175403,2342 7.692180,44.175402,2343 7.692174,44.175363,2343 7.692136,44.175321,2343 7.692207,44.175335,2343 7.692236,44.175333,2343 7.692186,44.175336,2343 7.692117,44.175359,2344 7.692110,44.175368,2344 7.692154,44.175373,2344 7.692222,44.175384,2344 7.692159,44.175414,2344 7.692053,44.175410,2345 7.692021,44.175458,2345 7.692001,44.175449,2345 7.692007,44.175441,2345 7.691992,44.175428,2345 7.691995,44.175442,2345 7.692007,44.175447,2345 7.691977,44.175401,2345 7.692007,44.175408,2346 7.692012,44.175400,2346 7.692027,44.175365,2346 7.692023,44.175395,2347 7.692030,44.175441,2348 7.692004,44.175456,2348 7.691978,44.175457,2349 7.691987,44.175441,2349 7.692008,44.175438,2349 7.692043,44.175399,2349 7.692018,44.175448,2349 7.692043,44.175399,2350 7.692121,44.175371,2349 7.692251,44.175307,2350 7.692311,44.175268,2350 7.692337,44.175224,2350 7.692314,44.175242,2350 7.692045,44.175472,2351 7.691868,44.175695,2351 7.691849,44.175716,2351 7.691843,44.175683,2352 7.691921,44.175575,2352 7.692062,44.175458,2352 7.692082,44.175423,2353 7.692030,44.175412,2353 7.692035,44.175477,2353 7.692062,44.175470,2353 7.692069,44.175460,2353 7.692065,44.175437,2353 7.692030,44.175405,2353 7.691973,44.175387,2354 7.691983,44.175428,2354 7.692040,44.175391,2354 7.692070,44.175365,2354 7.692067,44.175304,2355 7.692050,44.175296,2355 7.692046,44.175268,2355 7.692019,44.175320,2355 7.692088,44.175318,2356 7.691989,44.175424,2356 7.692033,44.175413,2357 7.692059,44.175369,2357 7.692150,44.175373,2357 7.692051,44.175378,2357 7.692024,44.175410,2358 7.691958,44.175446,2359 7.691949,44.175495,2359 7.691944,44.175510,2360 7.691912,44.175540,2361 7.691880,44.175555,2361 7.691861,44.175569,2362 7.691841,44.175538,2363 7.691820,44.175524,2364 7.691822,44.175518,2364 7.691826,44.175507,2364 7.691809,44.175512,2365 7.691783,44.175529,2365 7.691740,44.175558,2365 7.691760,44.175539,2365 7.691770,44.175530,2366 7.691785,44.175540,2367 7.691776,44.175587,2368 7.691761,44.175584,2368 7.691753,44.175582,2369 7.691726,44.175597,2370 7.691707,44.175631,2370 7.691702,44.175567,2371 7.691700,44.175626,2371 7.691700,44.175634,2371 7.691670,44.175711,2372 7.691665,44.175711,2373 7.691653,44.175683,2374 7.691631,44.175691,2375 7.691668,44.175715,2376 7.691677,44.175682,2377 7.691630,44.175662,2378 7.691686,44.175626,2379 7.691644,44.175633,2379 7.691629,44.175549,2379 7.691628,44.175565,2379 7.691660,44.175538,2379 7.691669,44.175559,2379 7.691616,44.175552,2378 7.691571,44.175542,2380 7.691583,44.175531,2381 7.691557,44.175607,2382 7.691595,44.175617,2383 7.691608,44.175553,2383 7.691611,44.175477,2384 7.691609,44.175485,2385 7.691596,44.175470,2385 7.691552,44.175524,2386 7.691494,44.175556,2387 7.691462,44.175575,2388 7.691466,44.175557,2389 7.691460,44.175496,2389 7.691457,44.175479,2390 7.691445,44.175542,2390 7.691438,44.175542,2391 7.691424,44.175521,2392 7.691400,44.175567,2391 7.691393,44.175639,2392 7.691392,44.175642,2392 7.691401,44.175525,2393 7.691398,44.175490,2393 7.691410,44.175405,2393 7.691402,44.175398,2394 7.691425,44.175354,2395 7.691426,44.175372,2395 7.691426,44.175394,2395 7.691378,44.175526,2396 7.691387,44.175523,2396 7.691424,44.175512,2396 7.691438,44.175449,2397 7.691397,44.175377,2398 7.691402,44.175345,2398 7.691389,44.175420,2399 7.691397,44.175469,2399 7.691363,44.175496,2399 7.691279,44.175528,2400 7.691316,44.175443,2401 7.691331,44.175415,2401 7.691328,44.175401,2402 7.691398,44.175412,2403 7.691366,44.175431,2403 7.691336,44.175443,2404 7.691364,44.175456,2404 7.691411,44.175443,2405 7.691478,44.175457,2406 7.691520,44.175446,2406 7.691492,44.175467,2407 7.691382,44.175500,2407 7.691399,44.175511,2408 7.691422,44.175538,2409 7.691426,44.175529,2410 7.691510,44.175527,2411 7.691549,44.175524,2411 7.691556,44.175547,2412 7.691566,44.175572,2412 7.691573,44.175570,2413 7.691464,44.175594,2413 7.691476,44.175605,2413 7.691473,44.175602,2413 7.691433,44.175635,2414 7.691421,44.175667,2416 7.691414,44.175705,2417 7.691415,44.175775,2417 7.691478,44.175778,2418 7.691441,44.175730,2417 7.691415,44.175716,2417 7.691452,44.175683,2418 7.691356,44.175686,2418 7.691337,44.175716,2419 7.691346,44.175726,2420 7.691365,44.175714,2420 7.691377,44.175682,2421 7.691313,44.175683,2422 7.691273,44.175723,2423 7.691272,44.175726,2424 7.691363,44.175737,2424 7.691367,44.175732,2424 7.691258,44.175733,2424 7.691229,44.175748,2425 7.691225,44.175723,2425 7.691216,44.175716,2426 7.691166,44.175673,2426 7.691136,44.175658,2426 7.691068,44.175645,2425 7.690985,44.175609,2427 7.690978,44.175586,2427 7.691038,44.175593,2427 7.690953,44.175542,2428 7.690948,44.175512,2428 7.690966,44.175464,2427 7.690980,44.175386,2428 7.690976,44.175357,2428 7.691000,44.175323,2429 7.691006,44.175298,2430 7.690953,44.175352,2429 7.690967,44.175358,2429 7.690957,44.175384,2428 7.690984,44.175364,2427 7.690987,44.175314,2427 7.690972,44.175333,2427 7.690963,44.175335,2427 7.690962,44.175321,2426 7.690966,44.175299,2426 7.691032,44.175213,2428 7.691024,44.175194,2430 7.691010,44.175206,2430 7.691012,44.175203,2431 7.691008,44.175176,2433 7.691031,44.175091,2434 7.691057,44.175029,2435 7.691047,44.175016,2436 7.691039,44.175002,2437 7.691058,44.174999,2437 7.691087,44.174992,2436 7.691103,44.174916,2436 7.691103,44.174853,2437 7.691061,44.174835,2437 7.691114,44.174799,2437 7.691153,44.174745,2437 7.691107,44.174717,2437 7.691072,44.174729,2437 7.691078,44.174691,2436 7.691056,44.174690,2436 7.691079,44.174662,2437 7.691065,44.174624,2438 7.691025,44.174605,2439 7.691038,44.174603,2439 7.691072,44.174497,2439 7.691106,44.174421,2438 7.691123,44.174353,2438 7.691157,44.174229,2439 7.691143,44.174204,2439 7.691128,44.174150,2440 7.691179,44.174123,2441 7.691232,44.174080,2443 7.691255,44.173997,2443 7.691247,44.173942,2444 7.691215,44.173882,2445 7.691191,44.173847,2446 7.691119,44.173821,2448 7.691078,44.173795,2449 7.691104,44.173788,2449 7.691054,44.173788,2451 7.690979,44.173713,2451 7.690931,44.173647,2453 7.690938,44.173617,2454 7.690921,44.173599,2455 7.690921,44.173579,2456 7.690918,44.173530,2457 7.690910,44.173443,2456 7.690953,44.173339,2455 7.690963,44.173283,2455 7.690956,44.173221,2455 7.690951,44.173209,2455 7.690953,44.173160,2454 7.690989,44.173119,2454 7.691053,44.173019,2453 7.691060,44.172966,2452 7.691062,44.172842,2454 7.691065,44.172773,2455 7.691115,44.172705,2455 7.691047,44.172584,2454 7.691014,44.172527,2454 7.690967,44.172447,2453 7.690830,44.172380,2453 7.690739,44.172361,2454 7.690689,44.172351,2455 7.690673,44.172341,2455 7.690671,44.172335,2455 7.690683,44.172348,2455 7.690659,44.172374,2456 7.690616,44.172379,2457 7.690581,44.172395,2459 7.690592,44.172375,2460 7.690527,44.172343,2461 7.690521,44.172340,2462 7.690511,44.172332,2461 7.690505,44.172332,2461 7.690525,44.172348,2461 7.690534,44.172353,2461 7.690515,44.172353,2461 7.690546,44.172354,2461 7.690527,44.172351,2461 7.690515,44.172335,2461 7.690393,44.172298,2463 7.690350,44.172276,2464 7.690287,44.172240,2465 7.690114,44.172151,2464 7.690093,44.172140,2464 7.690069,44.172128,2464 7.689994,44.172096,2465 7.689922,44.172074,2466 7.689769,44.172057,2467 7.689666,44.172017,2468 7.689553,44.172005,2466 7.689443,44.171959,2465 7.689355,44.171922,2464 7.689268,44.171900,2464 7.689190,44.171836,2465 7.689155,44.171781,2466 7.689082,44.171772,2467 7.689009,44.171774,2468 7.688991,44.171766,2469 7.689005,44.171775,2469 7.689008,44.171779,2469 7.688943,44.171739,2470 7.689031,44.171710,2470 7.688986,44.171720,2469 7.688838,44.171714,2471 7.688757,44.171698,2472 7.688718,44.171677,2473 7.688669,44.171662,2474 7.688637,44.171689,2476 7.688612,44.171711,2477 7.688579,44.171721,2478 7.688485,44.171754,2480 7.688468,44.171766,2481 7.688423,44.171779,2482 7.688386,44.171756,2483 7.688368,44.171758,2484 7.688343,44.171772,2485 7.688330,44.171738,2487 7.688317,44.171720,2488 7.688334,44.171721,2488 7.688323,44.171718,2488 7.688255,44.171695,2489 7.688226,44.171682,2490 7.688205,44.171631,2491 7.688220,44.171581,2492 7.688174,44.171528,2493 7.688166,44.171511,2494 7.688188,44.171458,2496 7.688162,44.171409,2496 7.688131,44.171354,2497 7.688093,44.171316,2498 7.688062,44.171321,2499 7.688025,44.171345,2500 7.687994,44.171368,2501 7.687946,44.171387,2503 7.687918,44.171386,2504 7.687867,44.171389,2505 7.687820,44.171387,2506 7.687767,44.171379,2507 7.687728,44.171434,2508 7.687673,44.171476,2509 7.687616,44.171494,2510 7.687595,44.171522,2511 7.687591,44.171576,2512 7.687584,44.171583,2513 7.687619,44.171589,2512 7.687621,44.171626,2513 7.687631,44.171672,2514 7.687652,44.171713,2515 7.687588,44.171721,2517 7.687546,44.171730,2518 7.687485,44.171722,2519 7.687452,44.171713,2519 7.687425,44.171699,2520 7.687431,44.171707,2521 7.687407,44.171707,2521 7.687424,44.171708,2521 7.687490,44.171732,2521 7.687449,44.171748,2521 7.687421,44.171779,2522 7.687413,44.171809,2523 7.687444,44.171854,2524 7.687429,44.171914,2526 7.687438,44.171905,2527 7.687406,44.171906,2527 7.687360,44.171931,2528 7.687356,44.171964,2529 7.687370,44.171978,2530 7.687354,44.172018,2532 7.687319,44.172037,2533 7.687294,44.172049,2534 7.687273,44.172062,2535 7.687276,44.172068,2535 7.687281,44.172104,2535 7.687236,44.172132,2537 7.687222,44.172163,2538 7.687162,44.172175,2539 7.687150,44.172166,2540 7.687138,44.172172,2541 7.687105,44.172195,2542 7.687091,44.172199,2543 7.687063,44.172231,2544 7.687056,44.172238,2544 7.687024,44.172241,2546 7.687028,44.172212,2547 7.687016,44.172210,2547 7.686981,44.172313,2548 7.686970,44.172353,2549 7.686962,44.172372,2550 7.686939,44.172397,2551 7.686930,44.172424,2552 7.686911,44.172442,2554 7.686876,44.172467,2554 7.686838,44.172499,2555 7.686788,44.172533,2556 7.686730,44.172553,2556 7.686686,44.172584,2557 7.686663,44.172597,2558 7.686604,44.172614,2559 7.686544,44.172634,2560 7.686482,44.172643,2560 7.686425,44.172622,2561 7.686365,44.172640,2562 7.686320,44.172641,2563 7.686283,44.172645,2563 7.686213,44.172638,2563 7.686133,44.172660,2562 7.686059,44.172689,2563 7.686061,44.172716,2564 7.686126,44.172734,2565 7.686143,44.172772,2566 7.686198,44.172834,2568 7.686258,44.172801,2569 7.686280,44.172803,2569 7.686282,44.172822,2569 7.686291,44.172839,2571 7.686279,44.172862,2572 7.686272,44.172884,2573 7.686227,44.172914,2574 7.686206,44.172945,2576 7.686238,44.172952,2577 7.686177,44.172967,2578 7.686155,44.172994,2580 7.686207,44.173056,2582 7.686159,44.173062,2583 7.686167,44.173043,2584 7.686145,44.173079,2584 7.686108,44.173118,2586 7.686074,44.173141,2587 7.686055,44.173166,2589 7.686054,44.173182,2590 7.686052,44.173174,2590 7.686038,44.173202,2590 7.686018,44.173239,2591 7.685992,44.173278,2592 7.685937,44.173273,2594 7.685907,44.173280,2595 7.685847,44.173294,2596 7.685781,44.173316,2597 7.685754,44.173353,2600 7.685748,44.173357,2600 7.685703,44.173366,2601 7.685638,44.173386,2602 7.685651,44.173399,2603 7.685650,44.173403,2603 7.685656,44.173423,2603 7.685659,44.173430,2604 7.685601,44.173440,2604 7.685590,44.173461,2605 7.685568,44.173473,2606 7.685532,44.173505,2608 7.685542,44.173532,2608 7.685535,44.173553,2609 7.685479,44.173587,2610 7.685395,44.173604,2611 7.685393,44.173610,2613 7.685399,44.173603,2613 7.685308,44.173596,2614 7.685305,44.173628,2616 7.685294,44.173623,2616 7.685257,44.173639,2617 7.685240,44.173617,2617 7.685231,44.173610,2618 7.685207,44.173583,2619 7.685139,44.173557,2620 7.685131,44.173494,2620 7.685074,44.173514,2621 7.685072,44.173523,2623 7.685063,44.173516,2624 7.685002,44.173477,2626 7.684997,44.173468,2626 7.684991,44.173458,2627 7.684951,44.173436,2625 7.684923,44.173426,2624 7.684880,44.173423,2626 7.684877,44.173424,2627 7.684813,44.173411,2628 7.684799,44.173412,2629 7.684754,44.173399,2631 7.684716,44.173407,2632 7.684726,44.173406,2633 7.684740,44.173437,2634 7.684741,44.173468,2635 7.684748,44.173473,2634 7.684742,44.173485,2636 7.684733,44.173510,2636 7.684687,44.173525,2637 7.684688,44.173578,2638 7.684687,44.173590,2638 7.684673,44.173625,2640 7.684647,44.173665,2642 7.684636,44.173677,2642 7.684622,44.173687,2642 7.684611,44.173735,2644 7.684562,44.173760,2644 7.684493,44.173806,2645 7.684483,44.173862,2648 7.684454,44.173909,2649 7.684419,44.173873,2649 7.684474,44.173891,2648 7.684447,44.173869,2647 7.684430,44.173849,2648 7.684456,44.173848,2648 7.684459,44.173896,2647 7.684447,44.173897,2647 7.684455,44.173926,2646 7.684436,44.173961,2646 7.684455,44.173907,2645 7.684436,44.173894,2644 7.684432,44.173864,2644 7.684457,44.173897,2643 7.684409,44.173885,2644 7.684442,44.173935,2645 7.684448,44.173956,2643 7.684450,44.173977,2643 7.684444,44.173962,2643 7.684466,44.173947,2641 7.684467,44.173940,2642 7.684470,44.173944,2643 7.684477,44.173943,2641 7.684460,44.173896,2641 7.684468,44.173897,2641 7.684491,44.173921,2639 7.684468,44.173909,2640 7.684461,44.173931,2639 7.684456,44.173929,2641 7.684472,44.173933,2639 7.684463,44.173924,2642 7.684482,44.173890,2641 7.684470,44.173906,2641 7.684414,44.173906,2642 7.684464,44.173929,2641 7.684474,44.173917,2640 7.684488,44.173898,2638 7.684517,44.173882,2639 7.684578,44.173875,2638 7.684559,44.173867,2637 7.684554,44.173848,2636 7.684538,44.173877,2636 7.684522,44.173859,2636 7.684531,44.173847,2635 7.684555,44.173858,2635 7.684530,44.173883,2635 7.684552,44.173878,2634 7.684585,44.173863,2634 7.684559,44.173852,2634 7.684542,44.173849,2634 7.684546,44.173904,2633 7.684540,44.173916,2633 7.684537,44.173930,2633 7.684562,44.173902,2632 7.684560,44.173897,2632 7.684535,44.173871,2632 7.684530,44.173870,2632 7.684542,44.173876,2632 7.684542,44.173841,2631 7.684515,44.173871,2631 7.684521,44.173943,2630 7.684524,44.173961,2630 7.684545,44.173977,2629 7.684542,44.173977,2629 7.684543,44.173974,2629 7.684535,44.173912,2628 7.684524,44.173874,2628 7.684556,44.173920,2628 7.684566,44.173949,2627 7.684598,44.173893,2628 7.684519,44.173879,2629 7.684466,44.173904,2630 7.684476,44.173911,2631 7.684496,44.173932,2630 7.684497,44.173917,2631 7.684477,44.173926,2630 7.684501,44.173935,2632 7.684504,44.173944,2632 7.684501,44.173934,2632 7.684495,44.173922,2630 7.684497,44.173924,2632 7.684487,44.173936,2632 7.684494,44.173925,2630 7.684495,44.173925,2631 7.684498,44.173935,2631 7.684490,44.173921,2630 7.684494,44.173920,2632 7.684478,44.173944,2632 7.684493,44.173928,2630 7.684512,44.173933,2629 7.684490,44.173933,2632 7.684483,44.173929,2634 7.684498,44.173922,2632 7.684494,44.173919,2631 7.684481,44.173946,2632 7.684488,44.173929,2631 7.684487,44.173935,2632 7.684495,44.173927,2631 7.684491,44.173921,2631 7.684512,44.173921,2630 7.684486,44.173919,2631 7.684474,44.173929,2631 7.684485,44.173936,2632 7.684466,44.173921,2631 7.684380,44.173868,2631 7.684292,44.173850,2629 7.684220,44.173830,2627 7.684180,44.173826,2625 7.684152,44.173821,2624 7.684161,44.173843,2625 7.684149,44.173869,2625 7.684106,44.173871,2622 7.684071,44.173879,2622 7.683993,44.173917,2622 7.683958,44.173956,2622 7.683949,44.174027,2622 7.683933,44.174083,2623 7.683884,44.174081,2623 7.683853,44.174079,2622 7.683795,44.174072,2619 7.683756,44.174065,2617 7.683699,44.174079,2614 7.683616,44.174081,2614 7.683590,44.174092,2612 7.683572,44.174096,2610 7.683532,44.174095,2609 7.683480,44.174100,2607 7.683458,44.174082,2608 7.683417,44.174073,2607 7.683417,44.174071,2606 7.683408,44.174065,2605 7.683383,44.174039,2603 7.683368,44.174036,2600 7.683333,44.174037,2600 7.683323,44.174038,2600 7.683305,44.174033,2599 7.683268,44.174053,2598 7.683211,44.174075,2597 7.683193,44.174075,2593 7.683172,44.174090,2592 7.683176,44.174102,2595 7.683151,44.174108,2593 7.683102,44.174083,2592 7.683090,44.174041,2589 7.683087,44.174038,2587 7.683089,44.174029,2586 7.683048,44.174014,2584 7.683023,44.174019,2585 7.683001,44.174026,2585 7.682992,44.174029,2583 7.682961,44.174030,2579 7.682960,44.174008,2578 7.682939,44.174003,2579 7.682898,44.174032,2579 7.682868,44.174032,2577 7.682845,44.174026,2579 7.682781,44.174039,2578 7.682766,44.174041,2572 7.682717,44.174054,2573 7.682668,44.174063,2572 7.682630,44.174101,2571 7.682549,44.174142,2569 7.682502,44.174167,2571 7.682512,44.174165,2571 7.682525,44.174164,2570 7.682493,44.174173,2569 7.682500,44.174184,2570 7.682507,44.174197,2571 7.682523,44.174187,2572 7.682487,44.174174,2570 7.682462,44.174166,2567 7.682430,44.174170,2566 7.682386,44.174170,2566 7.682339,44.174151,2563 7.682323,44.174142,2562 7.682297,44.174155,2560 7.682265,44.174149,2559 7.682228,44.174144,2558 7.682198,44.174130,2558 7.682184,44.174134,2556 7.682124,44.174171,2557 7.682121,44.174177,2557 7.682111,44.174188,2557 7.682090,44.174202,2558 7.682111,44.174211,2559 7.682142,44.174282,2561 7.682139,44.174281,2562 7.682149,44.174284,2563 7.682156,44.174278,2563 7.682179,44.174298,2562 7.682184,44.174308,2561 7.682177,44.174309,2559 7.682198,44.174370,2558 7.682228,44.174420,2557 7.682234,44.174419,2557 7.682230,44.174462,2557 7.682231,44.174504,2556 7.682244,44.174524,2555 7.682256,44.174541,2555 7.682248,44.174565,2555 7.682258,44.174570,2554 7.682254,44.174563,2554 7.682266,44.174591,2553 7.682215,44.174492,2554 7.682218,44.174502,2554 7.682244,44.174503,2553 7.682245,44.174509,2553 7.682249,44.174530,2553 7.682252,44.174555,2553 7.682253,44.174582,2554 7.682248,44.174569,2554 7.682266,44.174573,2554 7.682205,44.174507,2553 7.682179,44.174478,2554 7.682200,44.174434,2555 7.682185,44.174414,2554 7.682202,44.174435,2554 7.682186,44.174409,2554 7.682186,44.174411,2554 7.682206,44.174417,2554 7.682209,44.174426,2554 7.682220,44.174392,2554 7.682212,44.174408,2554 7.682205,44.174421,2553 7.682230,44.174406,2553 7.682209,44.174423,2553 7.682223,44.174416,2553 7.682210,44.174419,2552 7.682224,44.174425,2553 7.682231,44.174419,2552 7.682230,44.174421,2552 7.682203,44.174426,2553 7.682213,44.174423,2552 7.682212,44.174423,2552 7.682210,44.174415,2552 7.682204,44.174410,2552 7.682232,44.174448,2552 7.682209,44.174440,2551 7.682243,44.174413,2552 7.682199,44.174409,2552 7.682200,44.174409,2552 7.682205,44.174417,2552 7.682215,44.174416,2552 7.682213,44.174424,2552 7.682214,44.174428,2552 7.682201,44.174401,2552 7.682218,44.174433,2551 7.682220,44.174424,2551 7.682222,44.174417,2551 7.682224,44.174387,2550 7.682194,44.174405,2550 7.682190,44.174417,2551 7.682188,44.174383,2550 7.682203,44.174418,2551 7.682225,44.174435,2551 7.682190,44.174418,2551 7.682181,44.174414,2550 7.682239,44.174437,2551 7.682211,44.174403,2551 7.682211,44.174403,2551 7.682221,44.174415,2551 7.682206,44.174410,2552 7.682217,44.174440,2552 7.682226,44.174439,2551 7.682209,44.174428,2551 7.682239,44.174471,2550 7.682268,44.174526,2549 7.682272,44.174576,2550 7.682285,44.174627,2550 7.682333,44.174644,2547 7.682343,44.174656,2546 7.682356,44.174664,2545 7.682360,44.174668,2545 7.682378,44.174673,2543 7.682387,44.174683,2542 7.682373,44.174684,2542 7.682381,44.174708,2541 7.682373,44.174719,2541 7.682370,44.174711,2541 7.682370,44.174706,2541 7.682390,44.174705,2540 7.682412,44.174699,2540 7.682439,44.174680,2539 7.682406,44.174698,2539 7.682413,44.174734,2539 7.682478,44.174749,2538 7.682462,44.174742,2538 7.682473,44.174746,2538 7.682448,44.174733,2538 7.682442,44.174741,2539 7.682462,44.174729,2539 7.682477,44.174749,2538 7.682514,44.174801,2540 7.682519,44.174788,2541 7.682532,44.174797,2541 7.682533,44.174801,2541 7.682547,44.174800,2541 7.682550,44.174802,2541 7.682523,44.174805,2542 7.682547,44.174787,2541 7.682535,44.174787,2542 7.682521,44.174793,2542 7.682514,44.174789,2542 7.682532,44.174784,2541 7.682524,44.174781,2541 7.682553,44.174801,2542 7.682540,44.174796,2542 7.682571,44.174836,2541 7.682575,44.174821,2541 7.682558,44.174809,2541 7.682568,44.174814,2542 7.682563,44.174804,2541 7.682557,44.174805,2541 7.682561,44.174820,2541 7.682570,44.174838,2541 7.682565,44.174812,2542 7.682582,44.174887,2542 7.682527,44.174806,2542 7.682559,44.174815,2542 7.682548,44.174837,2542 7.682611,44.174855,2542 7.682561,44.174814,2542 7.682576,44.174860,2542 7.682558,44.174806,2542 7.682577,44.174825,2542 7.682579,44.174809,2541 7.682559,44.174805,2541 7.682524,44.174805,2542 7.682558,44.174809,2541 7.682604,44.174872,2541 7.682565,44.174852,2541 7.682548,44.174762,2541 7.682568,44.174830,2542 7.682601,44.174834,2542 7.682580,44.174801,2542 7.682562,44.174837,2542 7.682587,44.174837,2541 7.682590,44.174829,2541 7.682576,44.174825,2541 7.682592,44.174835,2541 7.682608,44.174850,2541 7.682651,44.174880,2542 7.682645,44.174864,2542 7.682649,44.174870,2542 7.682627,44.174854,2542 7.682650,44.174866,2542 7.682640,44.174909,2542 7.682646,44.174871,2542 7.682638,44.174868,2542 7.682639,44.174868,2542 7.682634,44.174879,2542 7.682652,44.174880,2542 7.682629,44.174866,2542 7.682629,44.174866,2542 7.682640,44.174872,2542 7.682654,44.174882,2543 7.682654,44.174883,2543 7.682673,44.174911,2544 7.682656,44.174889,2544 7.682668,44.174885,2544 7.682672,44.174892,2545 7.682666,44.174893,2544 7.682701,44.174909,2545 7.682710,44.174921,2545 7.682709,44.174922,2545 7.682712,44.174925,2545 7.682709,44.174922,2545 7.682709,44.174922,2545 7.682709,44.174922,2545 7.682709,44.174922,2545 7.682724,44.174931,2545 7.682728,44.174943,2545 7.682751,44.174961,2544 7.682733,44.174973,2545 7.682697,44.174942,2545 7.682741,44.174932,2544 7.682699,44.174930,2544 7.682722,44.174925,2544 7.682705,44.174944,2544 7.682718,44.174954,2544 7.682723,44.174959,2544 7.682717,44.174949,2544 7.682720,44.174941,2544 7.682732,44.174943,2545 7.682721,44.174937,2545 7.682744,44.174961,2545 7.682747,44.174983,2546 7.682726,44.174962,2545 7.682737,44.174951,2545 7.682770,44.174965,2545 7.682731,44.174955,2546 7.682748,44.174957,2546 7.682744,44.174959,2546 7.682733,44.174960,2546 7.682733,44.174959,2547 7.682731,44.174966,2546 7.682718,44.174954,2546 7.682713,44.174935,2545 7.682720,44.174920,2545 7.682717,44.174941,2545 7.682718,44.174948,2545 7.682724,44.174939,2545 7.682709,44.174978,2546 7.682741,44.174960,2546 7.682727,44.174953,2545 7.682738,44.174969,2545 7.682738,44.174967,2545 7.682722,44.174961,2544 7.682701,44.174961,2544 7.682728,44.174940,2544 7.682723,44.174962,2545 7.682722,44.174936,2545 7.682723,44.174945,2544 7.682730,44.174947,2544 7.682728,44.174941,2544 7.682728,44.174932,2544 7.682730,44.174945,2543 7.682726,44.174966,2544 7.682719,44.174953,2544 7.682729,44.174953,2544 7.682733,44.174978,2544 7.682736,44.174956,2544 7.682747,44.174948,2544 7.682738,44.174955,2544 7.682731,44.174989,2544 7.682761,44.174977,2544 7.682740,44.174951,2544 7.682718,44.174973,2544 7.682744,44.174962,2545 7.682726,44.174974,2544 7.682754,44.174969,2544 7.682741,44.174965,2544 7.682742,44.174982,2544 7.682745,44.174980,2543 7.682725,44.174976,2544 7.682756,44.175011,2545 7.682750,44.175001,2544 7.682769,44.175017,2544 7.682778,44.175016,2543 7.682782,44.175027,2543 7.682793,44.175016,2544 7.682777,44.175045,2543 7.682765,44.175036,2543 7.682763,44.175041,2543 7.682763,44.175042,2543 7.682764,44.175007,2543 7.682782,44.175022,2542 7.682754,44.175009,2541 7.682722,44.175025,2541 7.682712,44.175022,2540 7.682676,44.174997,2540 7.682639,44.174978,2538 7.682606,44.174976,2536 7.682606,44.174971,2537 7.682660,44.174974,2540 7.682668,44.174980,2541 7.682711,44.175004,2540 7.682725,44.175011,2540 7.682720,44.175005,2540 7.682714,44.174992,2540 7.682725,44.174997,2540 7.682716,44.175012,2540 7.682701,44.174998,2539 7.682683,44.174992,2539 7.682682,44.174994,2540 7.682692,44.175010,2540 7.682713,44.175013,2543 7.682751,44.175017,2544 7.682757,44.175028,2545 7.682758,44.175031,2546 7.682763,44.175032,2545 7.682766,44.175039,2546 7.682760,44.175044,2545 7.682787,44.175041,2544 7.682766,44.175031,2545 7.682764,44.175032,2544 7.682754,44.175035,2544 7.682759,44.175024,2544 7.682763,44.175042,2544 7.682792,44.175060,2543 7.682808,44.175067,2543 7.682794,44.175069,2544 7.682804,44.175089,2542 7.682816,44.175087,2541 7.682823,44.175093,2541 7.682823,44.175093,2541 7.682795,44.175093,2540 7.682829,44.175109,2540 7.682829,44.175109,2540 7.682816,44.175083,2540 7.682810,44.175094,2540 7.682816,44.175103,2540 7.682787,44.175108,2540 7.682787,44.175108,2540 7.682787,44.175108,2540 7.682787,44.175108,2540 7.682826,44.175109,2539 7.682838,44.175110,2539 7.682871,44.175123,2538 7.682866,44.175123,2538 7.682866,44.175123,2538 7.682880,44.175132,2538 7.682880,44.175130,2538 7.682888,44.175135,2537 7.682877,44.175159,2537 7.682935,44.175136,2537 7.682931,44.175132,2537 7.682874,44.175136,2537 7.682896,44.175153,2537 7.682879,44.175140,2537 7.682876,44.175146,2537 7.682893,44.175189,2537 7.682871,44.175201,2536 7.682912,44.175169,2535 7.682921,44.175186,2535 7.682922,44.175203,2535 7.682904,44.175220,2535 7.682941,44.175228,2536 7.682929,44.175225,2537 7.682913,44.175211,2537 7.682913,44.175217,2537 7.682913,44.175217,2537 7.682922,44.175232,2537 7.682918,44.175232,2538 7.682910,44.175227,2538 7.682909,44.175221,2538 7.682935,44.175219,2538 7.682919,44.175216,2538 7.682918,44.175232,2538 7.682918,44.175232,2537 7.682915,44.175229,2537 7.682921,44.175219,2537 7.682905,44.175248,2537 7.682901,44.175267,2538 7.682939,44.175284,2537 7.682928,44.175247,2538 7.682915,44.175230,2537 7.682917,44.175225,2537 7.682918,44.175228,2537 7.682918,44.175232,2537 7.682899,44.175231,2537 7.682938,44.175226,2536 7.682918,44.175232,2536 7.682918,44.175232,2536 7.682918,44.175232,2536 7.682918,44.175232,2535 7.682918,44.175225,2535 7.682930,44.175212,2535 7.682935,44.175225,2535 7.682931,44.175223,2535 7.682902,44.175222,2536 7.682925,44.175220,2535 7.682954,44.175227,2535 7.682925,44.175212,2536 7.682915,44.175194,2536 7.682918,44.175202,2536 7.682918,44.175222,2535 7.682892,44.175203,2535 7.682899,44.175219,2535 7.682932,44.175205,2536 7.682931,44.175215,2536 7.682931,44.175216,2536 7.682933,44.175223,2536 7.682918,44.175223,2536 7.682908,44.175221,2535 7.682903,44.175221,2535 7.682922,44.175238,2535 7.682935,44.175259,2535 7.682935,44.175225,2536 7.682930,44.175261,2535 7.682950,44.175289,2537 7.682962,44.175318,2538 7.682982,44.175345,2537 7.683017,44.175336,2537 7.683034,44.175352,2539 7.683057,44.175371,2540 7.683056,44.175375,2541 7.683084,44.175408,2541 7.683096,44.175394,2541 7.683074,44.175407,2541 7.683103,44.175401,2541 7.683129,44.175410,2540 7.683102,44.175437,2540 7.683112,44.175405,2540 7.683101,44.175397,2540 7.683083,44.175403,2539 7.683080,44.175404,2539 7.683096,44.175401,2539 7.683065,44.175403,2538 7.683090,44.175398,2537 7.683086,44.175392,2537 7.683077,44.175406,2537 7.683077,44.175399,2536 7.683098,44.175397,2536 7.683097,44.175398,2536 7.683076,44.175389,2536 7.683070,44.175400,2535 7.683073,44.175394,2535 7.683075,44.175387,2534 7.683079,44.175393,2534 7.683052,44.175375,2533 7.683056,44.175372,2533 7.683061,44.175372,2532 7.683067,44.175378,2531 7.683029,44.175381,2534 7.682995,44.175347,2531 7.682996,44.175352,2531 7.683006,44.175353,2529 7.682996,44.175348,2529 7.682983,44.175348,2527 7.682970,44.175358,2527 7.682969,44.175351,2526 7.682963,44.175339,2525 7.682961,44.175350,2524 7.682927,44.175341,2524 7.682924,44.175355,2523 7.682921,44.175354,2523 7.682898,44.175339,2522 7.682889,44.175339,2521 7.682863,44.175332,2521 7.682849,44.175338,2520 7.682866,44.175337,2518 7.682850,44.175334,2520 7.682814,44.175330,2519 7.682801,44.175328,2516 7.682803,44.175325,2518 7.682824,44.175351,2518 7.682840,44.175325,2518 7.682799,44.175335,2517 7.682801,44.175332,2515 7.682779,44.175319,2515 7.682753,44.175320,2516 7.682754,44.175327,2516 7.682762,44.175314,2516 7.682762,44.175328,2517 7.682752,44.175332,2518 7.682708,44.175323,2517 7.682705,44.175311,2515 7.682701,44.175299,2513 7.682680,44.175304,2512 7.682696,44.175316,2512 7.682688,44.175318,2511 7.682672,44.175322,2512 7.682639,44.175304,2510 7.682622,44.175306,2507 7.682609,44.175306,2509 7.682568,44.175292,2509 7.682562,44.175290,2506 7.682529,44.175271,2506 7.682492,44.175245,2504 7.682454,44.175241,2504 7.682437,44.175237,2503 7.682412,44.175226,2501 7.682392,44.175214,2502 7.682384,44.175207,2503 7.682367,44.175198,2501 7.682354,44.175195,2500 7.682299,44.175171,2500 7.682290,44.175167,2499 7.682254,44.175156,2497 7.682240,44.175165,2496 7.682232,44.175169,2497 7.682220,44.175142,2498 7.682189,44.175129,2497 7.682170,44.175097,2497 7.682163,44.175117,2496 7.682137,44.175118,2496 7.682090,44.175098,2494 7.682080,44.175085,2492 7.682078,44.175082,2493 7.682069,44.175092,2494 7.682055,44.175084,2491 7.682012,44.175107,2490 7.682000,44.175100,2490 7.681982,44.175105,2491 7.681948,44.175096,2488 7.681959,44.175104,2487 7.681975,44.175110,2487 7.681936,44.175115,2487 7.681928,44.175095,2486 7.681926,44.175098,2486 7.681909,44.175109,2486 7.681883,44.175143,2485 7.681863,44.175176,2483 7.681860,44.175170,2482 7.681789,44.175162,2483 7.681787,44.175140,2481 7.681789,44.175152,2482 7.681783,44.175181,2480 7.681777,44.175170,2480 7.681752,44.175165,2481 7.681689,44.175136,2480 7.681699,44.175157,2478 7.681679,44.175156,2478 7.681673,44.175154,2477 7.681650,44.175146,2477 7.681643,44.175134,2475 7.681621,44.175156,2475 7.681588,44.175151,2474 7.681607,44.175146,2472 7.681567,44.175157,2473 7.681552,44.175142,2472 7.681540,44.175120,2471 7.681527,44.175113,2471 7.681523,44.175116,2470 7.681511,44.175134,2469 7.681479,44.175139,2470 7.681473,44.175152,2468 7.681428,44.175156,2466 7.681417,44.175157,2467 7.681409,44.175144,2466 7.681426,44.175135,2463 7.681449,44.175124,2464 7.681380,44.175141,2463 7.681372,44.175135,2462 7.681359,44.175135,2460 7.681333,44.175134,2459 7.681298,44.175168,2458 7.681224,44.175197,2457 7.681166,44.175208,2455 7.681126,44.175224,2455 7.681115,44.175225,2456 7.681121,44.175251,2454 7.681089,44.175245,2452 7.681059,44.175247,2453 7.680994,44.175266,2451 7.680971,44.175268,2452 7.680941,44.175252,2449 7.680950,44.175258,2447 7.680881,44.175263,2446 7.680823,44.175276,2444 7.680778,44.175283,2442 7.680774,44.175283,2441 7.680710,44.175297,2439 7.680676,44.175295,2441 7.680650,44.175304,2439 7.680580,44.175322,2437 7.680550,44.175332,2436 7.680522,44.175333,2434 7.680397,44.175396,2433 7.680321,44.175450,2433 7.680301,44.175464,2435 7.680315,44.175489,2435 7.680406,44.175430,2435 7.680264,44.175415,2436 7.680313,44.175416,2437 7.680388,44.175431,2437 7.680387,44.175430,2437 7.680301,44.175500,2438 7.680278,44.175477,2438 7.680285,44.175474,2437 7.680280,44.175520,2438 7.680289,44.175489,2438 7.680278,44.175492,2439 7.680271,44.175527,2439 7.680265,44.175557,2439 7.680291,44.175511,2438 7.680274,44.175528,2439 7.680301,44.175503,2440 7.680277,44.175490,2439 7.680267,44.175499,2440 7.680302,44.175465,2441 7.680317,44.175457,2440 7.680306,44.175458,2442 7.680367,44.175457,2443 7.680347,44.175452,2443 7.680315,44.175476,2443 7.680314,44.175469,2443 7.680357,44.175432,2443 7.680310,44.175511,2443 7.680299,44.175472,2444 7.680313,44.175501,2443 7.680335,44.175471,2444 7.680351,44.175462,2444 7.680324,44.175439,2444 7.680363,44.175426,2445 7.680371,44.175424,2445 7.680377,44.175454,2445 7.680383,44.175438,2446 7.680389,44.175441,2447 7.680375,44.175438,2448 7.680350,44.175425,2447 7.680338,44.175416,2449 7.680323,44.175460,2448 7.680341,44.175461,2449 7.680400,44.175418,2449 7.680440,44.175442,2449 7.680413,44.175431,2450 7.680388,44.175439,2449 7.680369,44.175454,2450 7.680401,44.175380,2450 7.680379,44.175494,2451 7.680361,44.175513,2452 7.680349,44.175508,2452 7.680370,44.175429,2450 7.680362,44.175457,2449 7.680342,44.175472,2450 7.680344,44.175456,2449 7.680333,44.175469,2450 7.680354,44.175455,2450 7.680318,44.175426,2450 7.680362,44.175431,2450 7.680357,44.175448,2450 7.680345,44.175453,2450 7.680278,44.175470,2449 7.680317,44.175454,2450 7.680311,44.175460,2450 7.680311,44.175503,2452 7.680307,44.175535,2454 7.680290,44.175538,2454 7.680276,44.175557,2455 7.680248,44.175585,2455 7.680237,44.175582,2456 7.680214,44.175573,2457 7.680142,44.175608,2459 7.680098,44.175644,2459 7.680103,44.175649,2460 7.680132,44.175674,2462 7.680142,44.175693,2463 7.680143,44.175745,2465 7.680077,44.175747,2466 7.680108,44.175785,2467 7.680103,44.175728,2468 7.680098,44.175730,2468 7.680107,44.175764,2468 7.680143,44.175818,2470 7.680141,44.175826,2471 7.680126,44.175841,2472 7.680143,44.175832,2474 7.680175,44.175838,2475 7.680180,44.175853,2475 7.680183,44.175872,2475 7.680186,44.175902,2476 7.680203,44.175911,2478 7.680222,44.175955,2478 7.680212,44.175960,2479 7.680219,44.175952,2480 7.680205,44.175982,2481 7.680193,44.176019,2482 7.680146,44.176055,2484 7.680059,44.176066,2483 7.680071,44.176079,2485 7.680062,44.176089,2486 7.680074,44.176111,2488 7.680094,44.176123,2489 7.680109,44.176148,2489 7.680193,44.176202,2490 7.680174,44.176210,2491 7.680178,44.176210,2492 7.680097,44.176217,2492 7.680136,44.176219,2494 7.680196,44.176171,2493 7.680141,44.176229,2493 7.680116,44.176251,2492 7.680112,44.176250,2492 7.680112,44.176241,2492 7.680122,44.176226,2492 7.680130,44.176257,2492 7.680101,44.176249,2493 7.680085,44.176272,2494 7.680073,44.176286,2496 7.680075,44.176271,2496 7.680090,44.176280,2496 7.680108,44.176298,2497 7.680069,44.176323,2498 7.680071,44.176300,2499 7.680091,44.176331,2499 7.680063,44.176341,2499 7.680041,44.176365,2500 7.680050,44.176392,2501 7.680059,44.176404,2503 7.680058,44.176423,2503 7.680037,44.176445,2506 7.680044,44.176470,2507 7.680012,44.176470,2508 7.680003,44.176473,2509 7.679998,44.176501,2512 7.679973,44.176507,2512 7.679941,44.176492,2512 7.679919,44.176491,2513 7.679915,44.176494,2513 7.679903,44.176488,2513 7.679889,44.176507,2513 7.679891,44.176508,2513 7.679864,44.176429,2513 7.679796,44.176400,2512 7.679731,44.176390,2511 7.679662,44.176381,2510 7.679585,44.176360,2510 7.679509,44.176340,2510 7.679491,44.176319,2509 7.679442,44.176315,2507 7.679396,44.176303,2506 7.679303,44.176334,2505 7.679305,44.176317,2505 7.679295,44.176282,2504 7.679290,44.176270,2502 7.679268,44.176257,2501 7.679216,44.176234,2500 7.679197,44.176245,2499 7.679156,44.176245,2498 7.679127,44.176258,2498 7.679113,44.176283,2497 7.679101,44.176351,2498 7.679047,44.176390,2498 7.679021,44.176420,2498 7.678970,44.176479,2497 7.678918,44.176522,2497 7.678883,44.176518,2495 7.678812,44.176526,2494 7.678797,44.176513,2492 7.678773,44.176508,2491 7.678729,44.176495,2490 7.678703,44.176449,2487 7.678684,44.176449,2486 7.678650,44.176453,2486 7.678609,44.176448,2484 7.678606,44.176443,2483 7.678606,44.176434,2481 7.678570,44.176409,2480 7.678527,44.176381,2479 7.678528,44.176352,2477 7.678531,44.176327,2476 7.678521,44.176352,2475 7.678471,44.176366,2474 7.678398,44.176372,2473 7.678346,44.176393,2471 7.678308,44.176411,2470 7.678258,44.176430,2468 7.678233,44.176423,2468 7.678199,44.176410,2467 7.678162,44.176390,2465 7.678105,44.176364,2463 7.678058,44.176341,2461 7.678019,44.176313,2460 7.677943,44.176236,2458 7.677901,44.176212,2456 7.677848,44.176179,2455 7.677824,44.176184,2453 7.677808,44.176185,2452 7.677770,44.176206,2451 7.677778,44.176223,2451 7.677730,44.176241,2450 7.677733,44.176237,2450 7.677699,44.176227,2449 7.677706,44.176215,2448 7.677704,44.176206,2446 7.677695,44.176227,2446 7.677666,44.176241,2444 7.677674,44.176255,2443 7.677707,44.176195,2444 7.677581,44.176251,2442 7.677518,44.176253,2441 7.677387,44.176291,2443 7.677359,44.176309,2444 7.677281,44.176324,2446 7.677235,44.176333,2448 7.677217,44.176349,2449 7.677187,44.176363,2450 7.677146,44.176391,2451 7.677092,44.176426,2453 7.676955,44.176504,2453 7.676877,44.176565,2453 7.676843,44.176605,2453 7.676818,44.176594,2453 7.676850,44.176619,2452 7.676880,44.176621,2453 7.676865,44.176613,2453 7.676820,44.176618,2453 7.676839,44.176602,2454 7.676851,44.176635,2454 7.676842,44.176636,2453 7.676832,44.176604,2453 7.676845,44.176608,2453 7.676898,44.176604,2453 7.676927,44.176594,2454 7.676904,44.176603,2454 7.676808,44.176607,2454 7.676861,44.176606,2453 7.676828,44.176592,2455 7.676817,44.176600,2457 7.676806,44.176617,2456 7.676743,44.176650,2453 7.676644,44.176703,2453 7.676539,44.176737,2453 7.676428,44.176768,2452 7.676295,44.176830,2452 7.676212,44.176868,2454 7.676114,44.176914,2455 7.675979,44.176965,2456 7.675906,44.176988,2456 7.675931,44.176976,2457 7.675938,44.176974,2461 7.675935,44.176981,2458 7.675927,44.176987,2455 7.675937,44.176977,2456 7.675876,44.177010,2456 7.675863,44.176995,2455 7.675827,44.176980,2457 7.675815,44.176993,2455 7.675802,44.176989,2456 7.675790,44.176990,2457 7.675784,44.177001,2456 7.675788,44.176997,2456 7.675815,44.176954,2457 7.675813,44.176987,2457 7.675874,44.176981,2456 7.675791,44.177002,2456 7.675831,44.177019,2455 7.675812,44.177006,2457 7.675806,44.177003,2455 7.675817,44.176997,2456 7.675789,44.176982,2457 7.675770,44.176977,2457 7.675751,44.177002,2459 7.675742,44.176999,2459 7.675791,44.176980,2460 7.675751,44.176964,2460 7.675732,44.177000,2461 7.675702,44.176996,2462 7.675721,44.177023,2462 7.675731,44.177016,2463 7.675729,44.177015,2463 7.675713,44.176989,2464 7.675717,44.176969,2461 7.675715,44.176971,2460 7.675643,44.176946,2458 7.675620,44.176928,2456 7.675602,44.176947,2455 7.675624,44.176976,2456 7.675579,44.176950,2456 7.675568,44.176935,2455 7.675550,44.176950,2455 7.675554,44.176958,2456 7.675567,44.176962,2456 7.675553,44.176929,2456 7.675536,44.176902,2456 7.675600,44.176923,2457 7.675516,44.176963,2456 7.675515,44.176966,2456 7.675542,44.176960,2456 7.675555,44.176937,2456 7.675508,44.176940,2455 7.675502,44.176937,2455 7.675499,44.176938,2455 7.675591,44.176939,2455 7.675593,44.176944,2455 7.675541,44.176948,2454 7.675534,44.176978,2453 7.675424,44.177027,2454 7.675409,44.177005,2454 7.675686,44.176928,2453 7.675574,44.176944,2454 7.675547,44.176944,2454 7.675559,44.176929,2454 7.675604,44.176932,2454 7.675614,44.176944,2454 7.675618,44.176963,2453 7.675573,44.176975,2453 7.675637,44.176969,2453 7.675575,44.176941,2453 7.675578,44.176954,2453 7.675560,44.176933,2453 7.675553,44.176959,2453 7.675574,44.176940,2453 7.675579,44.176958,2452 7.675604,44.176959,2452 7.675572,44.176931,2452 7.675524,44.176918,2452 7.675530,44.176963,2452 7.675588,44.176966,2451 7.675614,44.176970,2451 7.675546,44.176948,2451 7.675548,44.176950,2452 7.675574,44.176959,2452 7.675563,44.176961,2452 7.675519,44.176952,2452 7.675546,44.176960,2452 7.675590,44.176978,2452 7.675443,44.177018,2452 7.675536,44.176971,2452 7.675594,44.176954,2451 7.675597,44.176958,2452 7.675606,44.176972,2452 7.675598,44.176971,2452 7.675618,44.176979,2451 7.675620,44.176969,2451 7.675612,44.176980,2451 7.675603,44.176983,2451 7.675594,44.176993,2451 7.675617,44.176991,2451 7.675567,44.176954,2452 7.675565,44.176982,2452 7.675546,44.176955,2452 7.675539,44.176964,2452 7.675555,44.176970,2452 7.675561,44.176959,2452 7.675588,44.176965,2451 7.675548,44.177012,2452 7.675544,44.177013,2452 7.675561,44.176969,2452 7.675581,44.176953,2452 7.675541,44.176952,2452 7.675524,44.176955,2452 7.675573,44.176910,2452 7.675579,44.176968,2452 7.675588,44.176977,2453 7.675588,44.176975,2453 7.675591,44.176988,2453 7.675583,44.176982,2453 7.675577,44.176969,2453 7.675575,44.176964,2454 7.675594,44.176946,2454 7.675617,44.176981,2453 7.675641,44.176957,2454 7.675626,44.176936,2454 7.675579,44.176939,2453 7.675576,44.176957,2454 7.675599,44.176948,2454 7.675566,44.176923,2455 7.675570,44.176929,2455 7.675584,44.176945,2455 7.675577,44.176962,2455 7.675561,44.176953,2455 7.675609,44.176949,2455 7.675614,44.176971,2455 7.675591,44.176946,2455 7.675612,44.176950,2455 7.675593,44.176948,2456 7.675569,44.176942,2456 7.675590,44.176919,2456 7.675591,44.176917,2457 7.675587,44.176930,2457 7.675584,44.176949,2456 7.675619,44.176961,2456 7.675612,44.176909,2456 7.675596,44.176963,2455 7.675588,44.176933,2456 7.675597,44.176923,2456 7.675591,44.176935,2456 7.675560,44.176959,2456 7.675574,44.176952,2456 7.675517,44.176960,2456 7.675549,44.176903,2457 7.675595,44.176945,2456 7.675591,44.176961,2456 7.675573,44.176961,2456 7.675579,44.176944,2456 7.675581,44.176927,2456 7.675560,44.176944,2456 7.675537,44.176946,2456 7.675592,44.176942,2457 7.675610,44.176963,2456 7.675595,44.176961,2456 7.675586,44.176918,2457 7.675577,44.176926,2457 7.675579,44.176957,2456 7.675602,44.176952,2456 7.675592,44.176952,2455 7.675617,44.176939,2456 7.675638,44.176935,2456 7.675596,44.176943,2456 7.675582,44.176943,2455 7.675585,44.176949,2455 7.675598,44.176957,2455 7.675595,44.176929,2456 7.675566,44.176958,2456 7.675594,44.176915,2457 7.675589,44.176913,2457 7.675593,44.176931,2457 7.675582,44.176931,2457 7.675557,44.177171,2460 7.675577,44.177180,2460 7.675517,44.177210,2459 7.675491,44.177232,2460 7.675503,44.177222,2461 7.675537,44.177175,2460 7.675527,44.177216,2460 7.675512,44.177196,2461 7.675506,44.177178,2461 7.675534,44.177212,2461 7.675568,44.177155,2460 7.675525,44.177187,2460 7.675534,44.177186,2460 7.675559,44.177183,2460 7.675539,44.177178,2460 7.675556,44.177136,2461 7.675479,44.177147,2459 7.675583,44.177153,2459 7.675614,44.177147,2459 7.675560,44.177160,2459 7.675580,44.177155,2460 7.675560,44.177143,2458 7.675566,44.177149,2459 7.675560,44.177168,2459 7.675539,44.177199,2459 7.675522,44.177184,2461 7.675526,44.177145,2460 7.675527,44.177165,2460 7.675510,44.177160,2460 7.675507,44.177162,2460 7.675497,44.177182,2459 7.675536,44.177193,2459 7.675552,44.177182,2459 7.675535,44.177171,2458 7.675564,44.177149,2457 7.675575,44.177132,2457 7.675577,44.177130,2456 7.675574,44.177132,2457 7.675552,44.177155,2457 7.675503,44.177168,2456 7.675482,44.177180,2455 7.675427,44.177232,2455 7.675421,44.177204,2455 7.675440,44.177199,2455 7.675492,44.177132,2456 7.675459,44.177187,2455 7.675476,44.177200,2455 7.675503,44.177173,2456 7.675541,44.177136,2454 7.675573,44.177143,2454 7.675571,44.177104,2454 7.675517,44.177144,2454 7.675550,44.177187,2454 7.675562,44.177203,2455 7.675588,44.177206,2455 7.675600,44.177143,2455 7.675578,44.177138,2455 7.675562,44.177174,2454 7.675545,44.177220,2455 7.675616,44.177221,2455 7.675581,44.177255,2455 7.675539,44.177267,2455 7.675564,44.177193,2454 7.675529,44.177187,2454 7.675510,44.177206,2454 7.675492,44.177192,2454 7.675535,44.177158,2454 7.675524,44.177109,2454 7.675576,44.177124,2454 7.675628,44.177093,2454 7.675609,44.177089,2454 7.675525,44.177172,2454 7.675487,44.177172,2454 7.675514,44.177128,2454 7.675522,44.177147,2454 7.675539,44.177187,2454 7.675518,44.177184,2454 7.675545,44.177194,2454 7.675556,44.177204,2453 7.675571,44.177176,2453 7.675584,44.177122,2453 7.675549,44.177142,2452 7.675542,44.177136,2452 7.675577,44.177141,2451 7.675576,44.177118,2451 7.675543,44.177127,2451 7.675505,44.177122,2450 7.675488,44.177154,2449 7.675498,44.177138,2449 7.675554,44.177100,2448 7.675559,44.177074,2448 7.675503,44.177147,2448 7.675526,44.177109,2448 7.675586,44.177081,2448 7.675554,44.177100,2448 7.675532,44.177091,2448 7.675539,44.177105,2448 7.675558,44.177100,2448 7.675538,44.177094,2448 7.675551,44.177084,2449 7.675530,44.177088,2449 7.675524,44.177085,2448 7.675503,44.177128,2449 7.675450,44.177164,2449 7.675537,44.177158,2450 7.675526,44.177114,2449 7.675536,44.177099,2449 7.675535,44.177124,2450 7.675521,44.177120,2448 7.675564,44.177076,2448 7.675528,44.177082,2448 7.675532,44.177085,2447 7.675543,44.177080,2447 7.675578,44.177095,2448 7.675554,44.177103,2448 7.675565,44.177103,2447 7.675575,44.177107,2448 7.675548,44.177113,2448 7.675557,44.177115,2448 7.675591,44.177076,2448 7.675584,44.177100,2448 7.675567,44.177114,2449 7.675579,44.177125,2448 7.675574,44.177110,2447 7.675588,44.177078,2447 7.675548,44.177113,2447 7.675575,44.177119,2447 7.675551,44.177125,2447 7.675554,44.177114,2447 7.675558,44.177107,2447 7.675556,44.177105,2448 7.675560,44.177111,2448 7.675575,44.177060,2447 7.675588,44.177067,2446 7.675561,44.177077,2447 7.675590,44.177074,2446 7.675631,44.177046,2444 7.675663,44.177003,2445 7.675615,44.177019,2444 7.675610,44.177052,2445 7.675612,44.177064,2446 7.675603,44.177038,2445 7.675650,44.177065,2445 7.675701,44.177049,2444 7.675708,44.177039,2443 7.675654,44.177046,2443 7.675643,44.177022,2444 7.675678,44.177024,2443 7.675710,44.177009,2444 7.675723,44.177005,2444 7.675717,44.177030,2445 7.675716,44.177006,2444 7.675685,44.177014,2445 7.675707,44.177005,2445 7.675708,44.177028,2446 7.675704,44.177028,2446 7.675741,44.177021,2445 7.675686,44.177022,2446 7.675693,44.177032,2445 7.675715,44.176996,2445 7.675717,44.177014,2446 7.675731,44.176994,2446 7.675705,44.177024,2446 7.675692,44.177014,2447 7.675685,44.177043,2447 7.675685,44.177004,2448 7.675695,44.177012,2448 7.675706,44.177009,2448 7.675665,44.177005,2449 7.675701,44.177007,2449 7.675734,44.177015,2449 7.675713,44.177015,2450 7.675722,44.177015,2450 7.675738,44.177014,2449 7.675735,44.177010,2449 7.675716,44.177026,2450 7.675679,44.177017,2450 7.675698,44.177005,2450 7.675696,44.177003,2449 7.675679,44.176999,2448 7.675683,44.176987,2452 7.675712,44.176957,2449 7.675718,44.176951,2447 7.675669,44.176931,2444 7.675657,44.176892,2442 7.675669,44.176869,2441 7.675621,44.176858,2438 7.675620,44.176847,2437 7.675603,44.176799,2435 7.675574,44.176795,2433 7.675559,44.176790,2433 7.675540,44.176785,2431 7.675510,44.176777,2430 7.675477,44.176758,2428 7.675453,44.176752,2427 7.675438,44.176742,2426 7.675393,44.176723,2424 7.675375,44.176717,2423 7.675350,44.176716,2422 7.675326,44.176720,2422 7.675294,44.176711,2421 7.675237,44.176681,2420 7.675226,44.176659,2418 7.675201,44.176661,2417 7.675174,44.176670,2417 7.675080,44.176672,2416 7.675049,44.176665,2417 7.675022,44.176645,2416 7.675005,44.176632,2415 7.674981,44.176611,2414 7.674917,44.176607,2413 7.674906,44.176626,2411 7.674873,44.176611,2410 7.674877,44.176586,2409 7.674889,44.176565,2408 7.674901,44.176524,2407 7.674849,44.176523,2405 7.674816,44.176530,2404 7.674770,44.176531,2404 7.674760,44.176534,2402 7.674699,44.176531,2402 7.674696,44.176529,2402 7.674634,44.176522,2400 7.674606,44.176526,2399 7.674588,44.176531,2399 7.674569,44.176532,2400 7.674507,44.176523,2398 7.674475,44.176518,2398 7.674475,44.176518,2397 7.674427,44.176514,2396 7.674391,44.176515,2396 7.674309,44.176510,2395 7.674269,44.176510,2394 7.674259,44.176508,2393 7.674183,44.176539,2392 7.674110,44.176559,2391 7.674070,44.176563,2390 7.674006,44.176539,2389 7.673952,44.176518,2390 7.673910,44.176532,2389 7.673883,44.176505,2386 7.673861,44.176492,2385 7.673876,44.176445,2384 7.673878,44.176451,2383 7.673864,44.176460,2384 7.673847,44.176472,2385 7.673795,44.176526,2386 7.673736,44.176522,2387 7.673696,44.176511,2388 7.673690,44.176531,2389 7.673676,44.176549,2391 7.673675,44.176525,2391 7.673643,44.176510,2392 7.673596,44.176509,2390 7.673549,44.176519,2392 7.673522,44.176538,2392 7.673482,44.176548,2392 7.673440,44.176579,2392 7.673494,44.176578,2392 7.673519,44.176577,2393 7.673514,44.176595,2394 7.673539,44.176584,2395 7.673530,44.176598,2396 7.673530,44.176603,2397 7.673525,44.176612,2397 7.673504,44.176653,2399 7.673510,44.176670,2400 7.673495,44.176696,2401 7.673447,44.176724,2402 7.673458,44.176739,2403 7.673453,44.176772,2404 7.673468,44.176786,2406 7.673463,44.176805,2407 7.673446,44.176797,2408 7.673431,44.176787,2408 7.673415,44.176800,2409 7.673407,44.176803,2411 7.673393,44.176825,2411 7.673386,44.176834,2412 7.673384,44.176822,2413 7.673381,44.176848,2414 7.673406,44.176857,2415 7.673413,44.176860,2416 7.673384,44.176874,2418 7.673384,44.176892,2418 7.673378,44.176901,2419 7.673381,44.176924,2420 7.673377,44.176937,2420 7.673389,44.176961,2420 7.673391,44.176915,2420 7.673431,44.176953,2421 7.673417,44.176951,2422 7.673423,44.176970,2423 7.673433,44.176973,2422 7.673423,44.176988,2422 7.673432,44.176998,2422 7.673424,44.177001,2423 7.673409,44.177004,2423 7.673435,44.177031,2423 7.673424,44.177041,2425 7.673418,44.177041,2425 7.673449,44.177056,2426 7.673428,44.177048,2426 7.673413,44.177088,2426 7.673432,44.177050,2427 7.673440,44.177086,2427 7.673466,44.177101,2428 7.673483,44.177084,2427 7.673499,44.177084,2427 7.673530,44.177082,2429 7.673522,44.177084,2429 7.673555,44.177055,2429 7.673545,44.177075,2430 7.673535,44.177084,2431 7.673553,44.177118,2431 7.673574,44.177102,2431 7.673536,44.177100,2430 7.673587,44.177167,2431 7.673575,44.177131,2431 7.673569,44.177119,2432 7.673588,44.177126,2432 7.673571,44.177128,2432 7.673590,44.177140,2433 7.673587,44.177148,2433 7.673570,44.177155,2434 7.673580,44.177151,2433 7.673585,44.177151,2434 7.673619,44.177144,2434 7.673646,44.177136,2435 7.673631,44.177154,2436 7.673670,44.177157,2437 7.673682,44.177169,2436 7.673657,44.177158,2438 7.673661,44.177153,2438 7.673676,44.177172,2438 7.673678,44.177174,2437 7.673678,44.177174,2437 7.673684,44.177167,2436 7.673668,44.177157,2437 7.673684,44.177172,2436 7.673698,44.177182,2436 7.673720,44.177175,2437 7.673685,44.177166,2437 7.673683,44.177158,2436 7.673683,44.177158,2437 7.673672,44.177150,2438 7.673694,44.177166,2439 7.673728,44.177175,2440 7.673728,44.177175,2439 7.673738,44.177181,2441 7.673749,44.177181,2441 7.673763,44.177185,2440 7.673776,44.177184,2441 7.673778,44.177183,2442 7.673791,44.177198,2441 7.673794,44.177207,2441 7.673825,44.177216,2442 7.673809,44.177209,2443 7.673807,44.177211,2442 7.673804,44.177213,2442 7.673808,44.177221,2442 7.673801,44.177221,2443 7.673837,44.177217,2444 7.673839,44.177220,2444 7.673892,44.177239,2445 7.673906,44.177249,2446 7.673922,44.177276,2446 7.673990,44.177294,2446 7.674006,44.177273,2447 7.674033,44.177264,2448 7.674037,44.177236,2449 7.674038,44.177236,2449 7.674096,44.177225,2450 7.674124,44.177215,2451 7.674149,44.177200,2452 7.674180,44.177179,2453 7.674215,44.177174,2455 7.674234,44.177171,2456 7.674261,44.177166,2457 7.674285,44.177158,2457 7.674285,44.177147,2458 7.674284,44.177142,2458 7.674310,44.177128,2459 7.674351,44.177117,2461 7.674464,44.177082,2463 7.674468,44.177075,2466 7.674519,44.177060,2464 7.674568,44.177070,2465 7.674612,44.177050,2467 7.674646,44.177043,2468 7.674670,44.177039,2468 7.674681,44.177030,2469 7.674709,44.177018,2471 7.674752,44.177009,2472 7.674767,44.177008,2473 7.674787,44.177005,2475 7.674788,44.176998,2476 7.674808,44.176998,2477 7.674861,44.176987,2478 7.674845,44.176986,2478 7.674871,44.176999,2479 7.674877,44.177000,2479 7.674927,44.177004,2480 7.674936,44.177004,2481 7.674954,44.177018,2480 7.674962,44.177022,2481 7.674954,44.177018,2481 7.674975,44.177005,2482 7.675010,44.177025,2481 7.675020,44.177024,2482 7.675045,44.177028,2481 7.675092,44.177027,2482 7.675129,44.177027,2483 7.675188,44.177032,2485 7.675211,44.177037,2487 7.675248,44.177040,2487 7.675334,44.177051,2487 7.675386,44.177085,2487 7.675375,44.177076,2488 7.675377,44.177083,2488 7.675343,44.177083,2487 7.675374,44.177080,2486 7.675371,44.177086,2486 7.675367,44.177078,2487 7.675392,44.177105,2487 7.675400,44.177121,2487 7.675385,44.177119,2487 7.675355,44.177104,2487 7.675375,44.177085,2488 7.675374,44.177101,2488 7.675363,44.177087,2488 7.675375,44.177089,2488 7.675374,44.177101,2488 7.675358,44.177094,2488 7.675339,44.177093,2489 7.675384,44.177090,2489 7.675340,44.177071,2488 7.675384,44.177084,2489 7.675358,44.177086,2489 7.675366,44.177102,2489 7.675350,44.177070,2489 7.675357,44.177079,2489 7.675350,44.177077,2490 7.675355,44.177055,2490 7.675362,44.177060,2490 7.675369,44.177067,2490 7.675359,44.177086,2489 7.675361,44.177079,2489 7.675354,44.177075,2490 7.675351,44.177085,2490 7.675362,44.177080,2491 7.675376,44.177077,2490 7.675375,44.177072,2490 7.675365,44.177074,2491 7.675365,44.177074,2491 7.675361,44.177083,2491 7.675365,44.177074,2491 7.675365,44.177074,2491 7.675365,44.177074,2491 7.675365,44.177074,2491 7.675365,44.177074,2492 7.675365,44.177074,2491 7.675364,44.177084,2491 7.675357,44.177067,2492 7.675360,44.177083,2492 7.675343,44.177116,2492 7.675345,44.177117,2492 7.675363,44.177102,2492 7.675367,44.177081,2493 7.675351,44.177078,2493 7.675360,44.177074,2493 7.675370,44.177077,2493 7.675372,44.177095,2494 7.675359,44.177085,2494 7.675369,44.177091,2494 7.675365,44.177092,2494 7.675365,44.177082,2494 7.675356,44.177088,2493 7.675356,44.177088,2493 7.675357,44.177088,2493 7.675360,44.177072,2493 7.675370,44.177071,2494 7.675375,44.177070,2494 7.675374,44.177078,2494 7.675371,44.177108,2494 7.675361,44.177094,2494 7.675358,44.177094,2494 7.675349,44.177075,2495 7.675338,44.177071,2495 7.675367,44.177068,2495 7.675394,44.177072,2496 7.675369,44.177080,2496 7.675380,44.177075,2496 7.675394,44.177085,2496 7.675398,44.177088,2496 7.675380,44.177091,2496 7.675382,44.177100,2496 7.675372,44.177085,2497 7.675369,44.177081,2497 7.675368,44.177072,2497 7.675375,44.177097,2497 7.675367,44.177098,2498 7.675379,44.177081,2498 7.675363,44.177074,2498 7.675364,44.177081,2498 7.675346,44.177071,2498 7.675355,44.177096,2499 7.675349,44.177074,2499 7.675367,44.177087,2498 7.675383,44.177097,2498 7.675376,44.177089,2498 7.675361,44.177091,2499 7.675360,44.177088,2499 7.675381,44.177076,2499 7.675379,44.177079,2500 7.675373,44.177090,2500 7.675369,44.177081,2500 7.675364,44.177092,2500 7.675367,44.177073,2501 7.675368,44.177079,2501 7.675364,44.177082,2501 7.675348,44.177068,2501 7.675350,44.177062,2502 7.675363,44.177076,2502 7.675373,44.177096,2503 7.675385,44.177112,2503 7.675399,44.177113,2503 7.675419,44.177118,2503 7.675392,44.177095,2503 7.675384,44.177093,2502 7.675380,44.177100,2502 7.675381,44.177089,2502 7.675364,44.177083,2502 7.675348,44.177091,2503 7.675381,44.177056,2503 7.675370,44.177075,2503 7.675359,44.177091,2504 7.675328,44.177090,2503 7.675337,44.177079,2504 7.675347,44.177086,2504 7.675350,44.177087,2503 7.675346,44.177083,2504 7.675333,44.177099,2504 7.675346,44.177100,2504 7.675356,44.177095,2504 7.675360,44.177080,2504 7.675317,44.177078,2503 7.675164,44.177042,2503 7.675129,44.177044,2502 7.675038,44.177031,2500 7.675000,44.177046,2499 7.674942,44.177071,2497 7.674899,44.177051,2496 7.674876,44.177036,2495 7.674860,44.177044,2493 7.674798,44.177053,2491 7.674734,44.177063,2490 7.674631,44.177052,2488 7.674609,44.177060,2487 7.674554,44.177065,2485 7.674481,44.177073,2483 7.674434,44.177085,2482 7.674435,44.177090,2483 7.674407,44.177101,2481 7.674343,44.177114,2480 7.674278,44.177115,2478 7.674248,44.177143,2477 7.674224,44.177167,2476 7.674196,44.177186,2474 7.674143,44.177191,2474 7.674107,44.177199,2472 7.674060,44.177219,2470 7.674057,44.177232,2468 7.674038,44.177247,2467 7.673951,44.177263,2465 7.673950,44.177266,2464 7.673936,44.177271,2463 7.673915,44.177271,2462 7.673900,44.177286,2460 7.673889,44.177296,2459 7.673835,44.177313,2457 7.673763,44.177305,2455 7.673735,44.177300,2452 7.673686,44.177301,2450 7.673667,44.177291,2451 7.673618,44.177296,2449 7.673578,44.177303,2448 7.673513,44.177308,2446 7.673473,44.177333,2443 7.673461,44.177337,2442 7.673489,44.177346,2441 7.673455,44.177335,2440 7.673392,44.177336,2437 7.673386,44.177343,2436 7.673369,44.177356,2437 7.673392,44.177364,2435 7.673364,44.177368,2433 7.673294,44.177364,2431 7.673245,44.177386,2429 7.673145,44.177362,2429 7.673120,44.177368,2427 7.673115,44.177387,2426 7.673057,44.177387,2425 7.673031,44.177391,2423 7.672984,44.177377,2422 7.672955,44.177382,2421 7.672932,44.177395,2420 7.672896,44.177401,2419 7.672851,44.177411,2418 7.672794,44.177415,2416 7.672738,44.177419,2414 7.672719,44.177422,2413 7.672726,44.177431,2414 7.672728,44.177424,2416 7.672679,44.177486,2415 7.672592,44.177508,2414 7.672560,44.177543,2412 7.672455,44.177627,2412 7.672391,44.177683,2411 7.672373,44.177734,2411 7.672346,44.177797,2410 7.672355,44.177809,2409 7.672362,44.177808,2409 7.672308,44.177767,2409 7.672284,44.177746,2407 7.672262,44.177708,2406 7.672246,44.177670,2405 7.672231,44.177635,2404 7.672236,44.177575,2403 7.672269,44.177517,2402 7.672230,44.177472,2401 7.672191,44.177477,2399 7.672157,44.177460,2397 7.672114,44.177431,2398 7.672099,44.177396,2395 7.672083,44.177388,2394 7.672079,44.177378,2394 7.672077,44.177370,2396 7.672073,44.177367,2396 7.672069,44.177361,2394 7.672089,44.177382,2393 7.672084,44.177341,2392 7.672073,44.177293,2391 7.672065,44.177275,2389 7.672041,44.177236,2387 7.672019,44.177194,2386 7.672027,44.177174,2386 7.672000,44.177140,2383 7.671952,44.177132,2383 7.671928,44.177111,2381 7.671896,44.177098,2380 7.671885,44.177112,2379 7.671873,44.177108,2378 7.671847,44.177104,2375 7.671806,44.177090,2374 7.671756,44.177081,2371 7.671725,44.177053,2370 7.671686,44.177031,2368 7.671659,44.177028,2366 7.671648,44.177009,2366 7.671627,44.177004,2364 7.671611,44.176996,2363 7.671588,44.176983,2362 7.671594,44.176969,2362 7.671579,44.176976,2362 7.671589,44.176951,2362 7.671622,44.176920,2363 7.671645,44.176857,2364 7.671651,44.176795,2362 7.671629,44.176740,2361 7.671592,44.176627,2359 7.671556,44.176563,2357 7.671525,44.176491,2355 7.671544,44.176434,2359 7.671505,44.176394,2356 7.671474,44.176382,2353 7.671382,44.176348,2352 7.671369,44.176308,2351 7.671339,44.176268,2348 7.671305,44.176238,2346 7.671275,44.176221,2345 7.671196,44.176177,2343 7.671170,44.176166,2343 7.671122,44.176141,2343 7.671088,44.176110,2345 7.671082,44.176099,2348 7.671026,44.176070,2354 7.671004,44.176001,2356 7.671036,44.175949,2353 7.671053,44.175933,2347 7.671050,44.175940,2338 7.670923,44.175864,2338 7.670822,44.175832,2336 7.670770,44.175818,2339 7.670777,44.175822,2341 7.670718,44.175820,2341 7.670637,44.175809,2337 7.670518,44.175773,2339 7.670474,44.175735,2338 7.670379,44.175702,2339 7.670306,44.175680,2340 7.670328,44.175668,2341 7.670335,44.175625,2340 7.670299,44.175621,2340 7.670285,44.175624,2340 7.670223,44.175606,2342 7.670197,44.175603,2343 7.670088,44.175582,2344 7.670012,44.175596,2343 7.669955,44.175646,2342 7.669908,44.175660,2343 7.669845,44.175642,2343 7.669817,44.175630,2342 7.669824,44.175628,2343 7.669771,44.175637,2342 7.669723,44.175643,2340 7.669608,44.175634,2340 7.669532,44.175641,2339 7.669490,44.175648,2336 7.669401,44.175640,2334 7.669353,44.175624,2336 7.669283,44.175628,2334 7.669242,44.175631,2333 7.669174,44.175649,2330 7.669157,44.175650,2329 7.669042,44.175629,2329 7.668934,44.175618,2328 7.668861,44.175627,2328 7.668780,44.175639,2327 7.668739,44.175652,2329 7.668703,44.175663,2327 7.668673,44.175640,2323 7.668614,44.175652,2321 7.668599,44.175681,2320 7.668585,44.175680,2318 7.668601,44.175677,2320 7.668606,44.175684,2318 7.668599,44.175688,2317 7.668540,44.175688,2316 7.668501,44.175671,2314 7.668400,44.175694,2314 7.668375,44.175687,2312 7.668310,44.175671,2313 7.668311,44.175674,2313 7.668255,44.175693,2313 7.668255,44.175693,2314 7.668283,44.175709,2312 7.668248,44.175706,2310 7.668262,44.175711,2309 7.668247,44.175702,2310 7.668273,44.175694,2309 7.668300,44.175702,2310 7.668300,44.175696,2307 7.668275,44.175686,2307 7.668275,44.175671,2306 7.668266,44.175661,2305 7.668264,44.175669,2305 7.668228,44.175689,2304 7.668230,44.175716,2302 7.668238,44.175737,2303 7.668260,44.175731,2302 7.668302,44.175728,2302 7.668299,44.175738,2301 7.668316,44.175722,2301 7.668283,44.175723,2300 7.668263,44.175743,2300 7.668224,44.175727,2299 7.668226,44.175734,2299 7.668220,44.175764,2299 7.668220,44.175746,2298 7.668214,44.175778,2297 7.668181,44.175764,2296 7.668150,44.175751,2295 7.668165,44.175725,2295 7.668091,44.175760,2293 7.668034,44.175776,2292 7.668055,44.175771,2293 7.668078,44.175771,2293 7.667981,44.175800,2293 7.667896,44.175862,2294 7.667877,44.175904,2292 7.667828,44.175930,2289 7.667686,44.175960,2291 7.667611,44.175962,2289 7.667504,44.175975,2291 7.667345,44.175992,2289 7.667318,44.176012,2288 7.667311,44.176040,2287 7.667278,44.176083,2285 7.667252,44.176141,2284 7.667229,44.176158,2282 7.667187,44.176175,2280 7.667194,44.176176,2281 7.667201,44.176168,2279 7.667174,44.176166,2279 7.667179,44.176159,2279 7.667220,44.176165,2278 7.667168,44.176146,2279 7.667102,44.176130,2278 7.667055,44.176121,2277 7.666945,44.176102,2278 7.666821,44.176061,2279 7.666587,44.176036,2279 7.666484,44.176007,2281 7.666449,44.176004,2280 7.666432,44.176006,2278 7.666247,44.175965,2278 7.666144,44.175961,2279 7.666042,44.175952,2280 7.665970,44.175928,2282 7.665905,44.175909,2283 7.665853,44.175883,2284 7.665778,44.175861,2286 7.665711,44.175838,2286 7.665656,44.175844,2287 7.665608,44.175813,2287 7.665582,44.175759,2288 7.665557,44.175714,2286 7.665556,44.175705,2284 7.665529,44.175678,2282 7.665520,44.175653,2283 7.665520,44.175640,2281 7.665508,44.175641,2279 7.665502,44.175649,2277 7.665473,44.175630,2275 7.665438,44.175610,2276 7.665469,44.175562,2275 7.665450,44.175528,2273 7.665424,44.175526,2270 7.665378,44.175513,2269 7.665340,44.175485,2268 7.665358,44.175515,2269 7.665354,44.175507,2269 7.665367,44.175502,2268 7.665398,44.175456,2267 7.665393,44.175441,2266 7.665420,44.175427,2264 7.665420,44.175428,2263 7.665463,44.175379,2265 7.665519,44.175338,2262 7.665553,44.175339,2262 7.665610,44.175312,2260 7.665644,44.175278,2259 7.665666,44.175260,2258 7.665695,44.175225,2255 7.665726,44.175206,2254 7.665785,44.175173,2253 7.665812,44.175148,2252 7.665780,44.175127,2251 7.665694,44.175086,2249 7.665656,44.175076,2247 7.665618,44.175078,2246 7.665521,44.175079,2244 7.665365,44.175057,2243 7.665270,44.175051,2244 7.665151,44.175071,2243 7.665053,44.175025,2242 7.665011,44.174971,2241 7.664995,44.174926,2239 7.664977,44.174886,2237 7.664980,44.174851,2236 7.664924,44.174831,2235 7.664882,44.174841,2234 7.664851,44.174857,2233 7.664852,44.174848,2233 7.664907,44.174848,2233 7.664794,44.174862,2232 7.664716,44.174855,2231 7.664692,44.174864,2230 7.664668,44.174868,2228 7.664588,44.174884,2227 7.664519,44.174877,2226 7.664487,44.174851,2225 7.664458,44.174804,2224 7.664420,44.174763,2222 7.664352,44.174707,2221 7.664271,44.174687,2219 7.664175,44.174659,2218 7.664093,44.174645,2217 7.664020,44.174619,2216 7.663893,44.174598,2215 7.663833,44.174587,2214 7.663756,44.174570,2212 7.663643,44.174556,2210 7.663570,44.174569,2209 7.663514,44.174552,2208 7.663501,44.174540,2207 7.663433,44.174513,2205 7.663359,44.174457,2204 7.663275,44.174432,2202 7.663207,44.174447,2201 7.663142,44.174456,2200 7.663003,44.174443,2198 7.662814,44.174356,2197 7.662786,44.174343,2196 7.662696,44.174324,2193 7.662625,44.174295,2192 7.662580,44.174297,2191 7.662519,44.174303,2190 7.662430,44.174289,2189 7.662373,44.174245,2187 7.662382,44.174202,2187 7.662350,44.174168,2185 7.662350,44.174129,2184 7.662334,44.174112,2183 7.662321,44.174069,2182 7.662345,44.174072,2182 7.662342,44.174071,2181 7.662313,44.174081,2182 7.662316,44.174092,2183 7.662287,44.174099,2183 7.662297,44.174022,2183 7.662278,44.173982,2181 7.662257,44.173960,2180 7.662241,44.173947,2179 7.662198,44.173931,2177 7.662146,44.173884,2176 7.662105,44.173833,2175 7.662082,44.173811,2174 7.662061,44.173800,2172 7.662080,44.173795,2173 7.662083,44.173758,2173 7.662082,44.173808,2173 7.662065,44.173732,2172 7.662008,44.173665,2170 7.661937,44.173628,2168 7.661911,44.173608,2167 7.661876,44.173534,2166 7.661816,44.173488,2164 7.661744,44.173435,2163 7.661683,44.173340,2162 7.661674,44.173326,2162 7.661574,44.173199,2162 7.661542,44.173096,2161 7.661488,44.172988,2160 7.661370,44.172860,2160 7.661300,44.172730,2160 7.661294,44.172746,2161 7.661224,44.172730,2160 7.661169,44.172678,2161 7.661160,44.172590,2160 7.661129,44.172505,2158 7.661026,44.172441,2157 7.660901,44.172417,2158 7.660836,44.172373,2159 7.660752,44.172344,2160 7.660717,44.172338,2162 7.660662,44.172342,2162 7.660601,44.172354,2163 7.660499,44.172394,2164 7.660357,44.172449,2164 7.660297,44.172469,2165 7.660251,44.172483,2166 7.660236,44.172484,2166 7.660179,44.172482,2166 7.660136,44.172522,2167 7.660046,44.172543,2168 7.659979,44.172618,2170 7.659872,44.172706,2170 7.659860,44.172710,2171 7.659766,44.172838,2172 7.659709,44.172940,2172 7.659710,44.173006,2173 7.659679,44.173098,2174 7.659648,44.173214,2175 7.659687,44.173381,2176 7.659710,44.173435,2177 7.659702,44.173511,2178 7.659690,44.173582,2178 7.659647,44.173657,2179 7.659615,44.173817,2177 7.659567,44.173914,2178 7.659533,44.174028,2179 7.659483,44.174114,2180 7.659447,44.174208,2181 7.659422,44.174269,2182 7.659454,44.174312,2184 7.659500,44.174453,2185 7.659500,44.174504,2186 7.659494,44.174515,2187 7.659492,44.174552,2187 7.659496,44.174609,2188 7.659498,44.174653,2189 7.659481,44.174710,2190 7.659470,44.174773,2191 7.659453,44.174852,2192 7.659411,44.174919,2193 7.659380,44.174968,2194 7.659345,44.175009,2195 7.659278,44.175049,2196 7.659224,44.175096,2198 7.659214,44.175105,2198 7.659181,44.175147,2199 7.659083,44.175180,2200 7.659010,44.175191,2200 7.658998,44.175198,2201 7.658915,44.175219,2202 7.658831,44.175229,2203 7.658690,44.175289,2206 7.658624,44.175335,2207 7.658564,44.175351,2208 7.658519,44.175367,2208 7.658416,44.175387,2209 7.658377,44.175418,2210 7.658254,44.175496,2212 7.658165,44.175549,2213 7.658155,44.175560,2214 7.658141,44.175571,2214 7.658063,44.175630,2215 7.657992,44.175650,2216 7.657940,44.175681,2217 7.657907,44.175748,2218 7.657858,44.175770,2219 7.657795,44.175809,2220 7.657729,44.175830,2221 7.657647,44.175864,2222 7.657619,44.175911,2223 7.657527,44.175938,2224 7.657432,44.175954,2226 7.657350,44.176001,2227 7.657327,44.176012,2228 7.657321,44.175986,2227 7.657317,44.176006,2227 7.657307,44.176025,2227 7.657298,44.176017,2228 7.657306,44.176002,2228 7.657219,44.176029,2228 7.657120,44.176064,2230 7.657017,44.176067,2230 7.656887,44.176078,2232 7.656777,44.176086,2233 7.656747,44.176088,2233 7.656659,44.176106,2234 7.656519,44.176123,2235 7.656437,44.176123,2236 7.656368,44.176124,2237 7.656266,44.176107,2239 7.656109,44.175995,2240 7.655988,44.175942,2240 7.655948,44.175791,2239 7.655791,44.175663,2238 7.655704,44.175655,2240 7.655639,44.175670,2241 7.655443,44.175688,2242 7.655282,44.175643,2243 7.655231,44.175644,2245 7.655132,44.175677,2245 7.655051,44.175739,2246 7.654932,44.175809,2247 7.654869,44.175830,2248 7.654749,44.175889,2249 7.654643,44.175911,2250 7.654584,44.175931,2251 7.654561,44.175989,2252 7.654568,44.176044,2253 7.654531,44.176121,2254 7.654506,44.176141,2256 7.654472,44.176183,2257 7.654470,44.176202,2258 7.654464,44.176216,2259 7.654487,44.176310,2260 7.654547,44.176332,2261 7.654614,44.176385,2262 7.654620,44.176422,2263 7.654665,44.176499,2264 7.654727,44.176512,2266 7.654796,44.176519,2266 7.654861,44.176524,2268 7.654904,44.176560,2269 7.654982,44.176606,2271 7.655023,44.176631,2272 7.654979,44.176647,2273 7.654932,44.176669,2274 7.654849,44.176667,2276 7.654733,44.176644,2277 7.654708,44.176650,2278 7.654600,44.176648,2280 7.654559,44.176644,2281 7.654533,44.176644,2282 7.654418,44.176647,2283 7.654352,44.176640,2285 7.654302,44.176630,2286 7.654218,44.176595,2287 7.654156,44.176579,2288 7.654117,44.176557,2290 7.654061,44.176526,2291 7.653998,44.176498,2292 7.653956,44.176471,2294 7.653883,44.176425,2295 7.653791,44.176389,2297 7.653755,44.176364,2298 7.653670,44.176317,2299 7.653649,44.176288,2300 7.653620,44.176257,2301 7.653551,44.176214,2302 7.653491,44.176143,2303 7.653396,44.175996,2304 7.653342,44.175907,2303 7.653247,44.175856,2305 7.653209,44.175816,2306 7.653165,44.175774,2306 7.653046,44.175696,2308 7.652925,44.175657,2308 7.652807,44.175617,2309 7.652633,44.175533,2308 7.652532,44.175487,2308 7.652411,44.175450,2308 7.652281,44.175403,2307 7.652134,44.175373,2306 7.652016,44.175331,2305 7.651943,44.175315,2304 7.651814,44.175296,2304 7.651762,44.175290,2303 7.651727,44.175283,2303 7.651662,44.175251,2301 7.651566,44.175222,2301 7.651450,44.175197,2299 7.651413,44.175200,2298 7.651329,44.175181,2298 7.651249,44.175174,2297 7.651162,44.175145,2296 7.651108,44.175136,2295 7.650969,44.175114,2293 7.650886,44.175085,2291 7.650783,44.175036,2290 7.650689,44.174983,2289 7.650600,44.174954,2288 7.650509,44.174918,2286 7.650463,44.174914,2285 7.650379,44.174911,2284 7.650316,44.174928,2283 7.650246,44.174982,2284 7.650050,44.175076,2283 7.649931,44.175117,2283 7.649901,44.175099,2282 7.649812,44.175076,2281 7.649727,44.175041,2279 7.649654,44.175028,2278 7.649570,44.175005,2276 7.649444,44.174994,2275 7.649394,44.174985,2274 7.649327,44.174977,2273 7.649191,44.174999,2272 7.649133,44.175001,2271 7.649030,44.175007,2270 7.648974,44.174997,2269 7.648813,44.174977,2267 7.648728,44.174962,2266 7.648577,44.174923,2264 7.648532,44.174905,2263 7.648508,44.174876,2263 7.648391,44.174820,2261 7.648313,44.174780,2260 7.648241,44.174738,2259 7.648114,44.174628,2258 7.647982,44.174573,2257 7.647938,44.174564,2256 7.647836,44.174494,2255 7.647668,44.174414,2254 7.647575,44.174410,2253 7.647490,44.174398,2252 7.647244,44.174273,2251 7.647129,44.174123,2251 7.647043,44.174076,2250 7.646946,44.174081,2248 7.646837,44.174097,2247 7.646718,44.174113,2246 7.646692,44.174138,2245 7.646619,44.174137,2244 7.646530,44.174135,2244 7.646385,44.174116,2241 7.646261,44.174112,2240 7.646091,44.174112,2241 7.645952,44.174148,2239 7.645727,44.174206,2239 7.645591,44.174248,2237 7.645390,44.174257,2237 7.645289,44.174242,2236 7.645180,44.174280,2235 7.645160,44.174329,2232 7.645086,44.174404,2233 7.645026,44.174429,2235 7.644919,44.174448,2236 7.644867,44.174501,2236 7.644792,44.174584,2236 7.644703,44.174581,2237 7.644632,44.174564,2239 7.644564,44.174563,2240 7.644373,44.174639,2239 7.644302,44.174625,2237 7.644085,44.174599,2237 7.643940,44.174690,2237 7.643848,44.174691,2235 7.643765,44.174678,2236 7.643694,44.174680,2234 7.643655,44.174681,2232 7.643588,44.174680,2231 7.643468,44.174677,2229 7.643377,44.174692,2229 7.643325,44.174710,2227 7.643254,44.174728,2226 7.643192,44.174744,2224 7.643163,44.174757,2223 7.643106,44.174781,2222 7.643035,44.174840,2221 7.642981,44.174877,2219 7.642913,44.174885,2218 7.642839,44.174886,2217 7.642716,44.174888,2215 7.642638,44.174941,2214 7.642573,44.175018,2212 7.642522,44.175104,2212 7.642475,44.175175,2213 7.642485,44.175269,2214 7.642490,44.175365,2215 7.642447,44.175385,2214 7.642290,44.175348,2213 7.642219,44.175372,2215 7.642243,44.175370,2215 7.642222,44.175402,2214 7.642169,44.175465,2215 7.642161,44.175470,2216 7.642152,44.175498,2216 7.642136,44.175580,2216 7.641889,44.175653,2215 7.641632,44.175682,2217 7.641584,44.175757,2216 7.641445,44.175795,2216 7.641288,44.175867,2216 7.641178,44.175891,2215 7.641089,44.175925,2216 7.640894,44.175953,2216 7.640827,44.175936,2216 7.640700,44.175871,2215 7.640531,44.175803,2217 7.640426,44.175797,2217 7.640242,44.175807,2216 7.640111,44.175814,2217 7.639961,44.175775,2216 7.639904,44.175747,2215 7.639777,44.175733,2215 7.639674,44.175748,2218 7.639623,44.175798,2219 7.639620,44.175890,2218 7.639572,44.176006,2217 7.639438,44.176081,2218 7.639336,44.176191,2218 7.639246,44.176283,2218 7.639077,44.176418,2219 7.638974,44.176597,2218 7.638994,44.176601,2219 7.639010,44.176632,2220 7.638964,44.176565,2219 7.638977,44.176584,2219 7.639016,44.176634,2219 7.638993,44.176636,2219 7.639026,44.176575,2218 7.639013,44.176543,2218 7.639035,44.176626,2218 7.639126,44.176648,2219 7.639238,44.176716,2220 7.639248,44.176739,2222 7.639270,44.176814,2223 7.639270,44.176816,2223 7.639334,44.176898,2225 7.639327,44.176931,2227 7.639369,44.176957,2228 7.639417,44.176974,2227 7.639438,44.176988,2229 7.639461,44.176987,2227 7.639467,44.176978,2227 7.639425,44.176987,2228 7.639388,44.176986,2227 7.639399,44.176991,2228 7.639385,44.176993,2227 7.639419,44.177013,2227 7.639403,44.177008,2227 7.639396,44.176992,2229 7.639385,44.176993,2230 7.639370,44.176995,2228 7.639398,44.176965,2227 7.639434,44.176954,2227 7.639434,44.176970,2226 7.639410,44.177032,2227 7.639395,44.177022,2227 7.639372,44.177003,2228 7.639457,44.177031,2227 7.639402,44.177012,2227 7.639396,44.176995,2226 7.639400,44.176994,2228 7.639405,44.176989,2229 7.639443,44.177025,2228 7.639412,44.177011,2228 7.639372,44.176995,2229 7.639389,44.176990,2228 7.639386,44.177009,2229 7.639410,44.176994,2230 7.639393,44.176990,2229 7.639397,44.176992,2230 7.639414,44.177009,2230 7.639434,44.177021,2230 7.639393,44.176998,2230 7.639401,44.176968,2230 7.639401,44.176968,2230 7.639401,44.176967,2230 7.639401,44.176967,2230 7.639355,44.176999,2230 7.639373,44.177001,2231 7.639403,44.176989,2230 7.639376,44.176996,2229 7.639381,44.176998,2230 7.639401,44.176991,2231 7.639389,44.176981,2230 7.639398,44.176998,2230 7.639386,44.176994,2230 7.639387,44.176986,2231 7.639382,44.176977,2230 7.639382,44.176977,2231 7.639382,44.176977,2231 7.639403,44.176982,2231 7.639409,44.176988,2231 7.639405,44.176976,2231 7.639390,44.176991,2231 7.639400,44.176999,2230 7.639378,44.176989,2231 7.639372,44.176994,2231 7.639386,44.176999,2231 7.639388,44.176999,2230 7.639384,44.177001,2232 7.639397,44.176991,2231 7.639397,44.177002,2229 7.639396,44.176989,2230 7.639390,44.176981,2231 7.639380,44.176973,2231 7.639392,44.176992,2232 7.639403,44.176997,2231 7.639384,44.177002,2230 7.639397,44.176994,2229 7.639389,44.176982,2231 7.639402,44.176995,2231 7.639377,44.177004,2229 7.639412,44.176999,2229 7.639403,44.176958,2230 7.639399,44.176959,2231 7.639413,44.177000,2230 7.639403,44.177012,2228 7.639426,44.177013,2230 7.639397,44.177012,2230 7.639413,44.176983,2230 7.639394,44.176994,2230 7.639400,44.176981,2230 7.639392,44.176992,2230 7.639391,44.176990,2230 7.639376,44.176990,2231 7.639387,44.176991,2231 7.639383,44.177006,2231 7.639331,44.176978,2229 7.639289,44.176940,2227 7.639176,44.176854,2224 7.639149,44.176800,2225 7.639166,44.176755,2225 7.639140,44.176725,2223 7.639062,44.176685,2221 7.638975,44.176609,2220 7.639007,44.176596,2222 7.638992,44.176636,2222 7.638984,44.176631,2221 7.638988,44.176620,2222 7.638998,44.176616,2222 7.638949,44.176604,2221 7.638878,44.176468,2215 7.638779,44.176384,2217 7.638746,44.176388,2219 7.638718,44.176385,2220 7.638775,44.176370,2219 7.638905,44.176502,2219 7.638908,44.176564,2220 7.638958,44.176612,2221 7.638995,44.176588,2221 7.638987,44.176608,2221 7.638962,44.176634,2221 7.638981,44.176621,2220 7.639004,44.176625,2218 7.638992,44.176622,2220 7.639007,44.176635,2221 7.638980,44.176614,2222 7.638966,44.176599,2222 7.638999,44.176627,2220 7.638978,44.176621,2221 7.638956,44.176610,2223 7.638973,44.176622,2221 7.638954,44.176644,2220 7.638881,44.176674,2219 7.638608,44.176707,2219 7.638473,44.176700,2219 7.638122,44.176682,2219 7.637971,44.176701,2220 7.637847,44.176663,2219 7.637597,44.176560,2218 7.637408,44.176561,2217 7.637229,44.176631,2220 7.637156,44.176647,2221 7.637121,44.176657,2221 7.637004,44.176696,2223 7.636905,44.176788,2224 7.636831,44.176949,2224 7.636749,44.177003,2225 7.636665,44.177053,2227 7.636607,44.177134,2229 7.636618,44.177161,2229 7.636591,44.177178,2229 7.636534,44.177232,2226 7.636488,44.177256,2224 7.636458,44.177267,2224 7.636325,44.177293,2222 7.636208,44.177296,2221 7.636106,44.177293,2220 7.636033,44.177233,2220 7.636029,44.177231,2219 7.635989,44.177273,2219 7.635932,44.177320,2220 7.635878,44.177341,2221 7.635823,44.177354,2222 7.635782,44.177316,2223 7.635644,44.177269,2224 7.635526,44.177244,2224 7.635510,44.177257,2224 7.635525,44.177281,2225 7.635544,44.177322,2226 7.635535,44.177360,2225 7.635529,44.177341,2226 7.635526,44.177295,2227 7.635537,44.177241,2226 7.635516,44.177256,2226 7.635470,44.177232,2220 7.635400,44.177193,2219 7.635342,44.177178,2222 7.635315,44.177194,2225 7.635300,44.177207,2227 7.635292,44.177206,2229 7.635318,44.177252,2230 7.635337,44.177297,2232 7.635328,44.177293,2231 7.635325,44.177291,2230 7.635349,44.177299,2231 7.635369,44.177303,2231 7.635388,44.177295,2232 7.635467,44.177251,2219 7.635573,44.177257,2225 7.635592,44.177291,2224 7.635569,44.177311,2223 7.635584,44.177333,2223 7.635608,44.177302,2225 7.635659,44.177278,2223 7.635752,44.177279,2221 7.635826,44.177293,2220 7.635893,44.177385,2221 7.635893,44.177428,2219 7.635889,44.177465,2217 7.635867,44.177493,2217 7.635819,44.177546,2214 7.635789,44.177565,2213 7.635788,44.177552,2213 7.635791,44.177587,2213 7.635777,44.177633,2211 7.635770,44.177672,2212 7.635727,44.177740,2209 7.635683,44.177740,2208 7.635602,44.177741,2206 7.635626,44.177778,2205 7.635652,44.177796,2204 7.635670,44.177840,2203 7.635688,44.177869,2203 7.635728,44.177922,2202 7.635798,44.177982,2200 7.635846,44.177996,2199 7.635926,44.178028,2199 7.635937,44.178078,2198 7.635919,44.178039,2199 7.635924,44.177990,2199 7.635800,44.177942,2198 7.635811,44.177927,2199 7.635842,44.177919,2200 7.635811,44.177964,2199 7.635858,44.177976,2198 7.635840,44.178006,2197 7.635824,44.178038,2199 7.635822,44.178058,2200 7.635835,44.178073,2200 7.635845,44.178058,2200 7.635816,44.178000,2200 7.635703,44.177983,2200 7.635675,44.178004,2200 7.635658,44.178006,2201 7.635645,44.178005,2201 7.635621,44.177979,2201 7.635652,44.177952,2200 7.635653,44.177965,2200 7.635655,44.177967,2200 7.635661,44.177969,2201 7.635676,44.177974,2202 7.635745,44.177968,2201 7.635804,44.177976,2198 7.635823,44.177989,2198 7.635844,44.177972,2199 7.635821,44.178003,2200 7.635808,44.177997,2200 7.635844,44.177961,2198 7.635844,44.177964,2198 7.635831,44.177991,2196 7.635838,44.177982,2197 7.635822,44.178003,2197 7.635830,44.178003,2197 7.635854,44.177993,2199</coordinates></LineString></Placemark></Document></kml>