<?xml version="1.0" encoding="UTF-8"?>
<kml xmlns="http://www.opengis.net/kml/2.2"><Document><name>Alta Linea Continua – Stage 20: Bivacco Boerio to Above Colle dell'Agnello</name><Style id="l"><LineStyle><color>ff2b30c4</color><width>4</width></LineStyle></Style><Placemark><name>Alta Linea Continua – Stage 20: Bivacco Boerio to Above Colle dell'Agnello</name><styleUrl>#l</styleUrl><LineString><tessellate>1</tessellate><altitudeMode>clampToGround</altitudeMode><coordinates>6.950605,44.614969,3085 6.950629,44.614889,3085 6.950643,44.614827,3084 6.950632,44.614810,3084 6.950633,44.614796,3084 6.950599,44.614731,3083 6.950543,44.614697,3082 6.950527,44.614643,3080 6.950538,44.614584,3079 6.950535,44.614526,3077 6.950510,44.614475,3076 6.950484,44.614365,3075 6.950490,44.614270,3074 6.950429,44.614231,3074 6.950383,44.614192,3073 6.950264,44.614100,3071 6.950203,44.614035,3070 6.950071,44.613961,3071 6.949915,44.613932,3072 6.949773,44.613971,3072 6.949764,44.613999,3073 6.949732,44.614028,3075 6.949703,44.614066,3076 6.949717,44.614083,3077 6.949695,44.614131,3078 6.949630,44.614197,3079 6.949482,44.614312,3079 6.949392,44.614365,3080 6.949304,44.614413,3081 6.949214,44.614492,3082 6.949121,44.614551,3083 6.949065,44.614597,3084 6.949071,44.614631,3085 6.949077,44.614675,3086 6.949079,44.614708,3087 6.949066,44.614733,3088 6.949080,44.614773,3089 6.949106,44.614831,3091 6.949087,44.614865,3092 6.949071,44.614895,3093 6.949088,44.614944,3095 6.949102,44.614942,3095 6.949093,44.614934,3096 6.949072,44.614957,3096 6.949082,44.614973,3097 6.949098,44.615016,3098 6.949093,44.615058,3101 6.949094,44.615060,3100 6.949104,44.615101,3103 6.949087,44.615142,3103 6.949152,44.615161,3105 6.949201,44.615183,3106 6.949207,44.615183,3106 6.949216,44.615190,3106 6.949218,44.615206,3106 6.949219,44.615268,3106 6.949198,44.615337,3108 6.949223,44.615397,3109 6.949207,44.615473,3110 6.949233,44.615539,3111 6.949218,44.615566,3112 6.949198,44.615619,3113 6.949199,44.615663,3115 6.949195,44.615720,3116 6.949161,44.615766,3117 6.949074,44.615816,3118 6.949087,44.615864,3119 6.949075,44.615911,3120 6.949071,44.615935,3121 6.949065,44.615977,3123 6.949100,44.616016,3124 6.949101,44.616032,3125 6.949067,44.616059,3127 6.949076,44.616103,3128 6.949079,44.616140,3129 6.949038,44.616156,3130 6.949018,44.616169,3131 6.948982,44.616186,3133 6.948958,44.616174,3133 6.948981,44.616191,3133 6.948965,44.616186,3133 6.948974,44.616187,3133 6.948965,44.616171,3133 6.948983,44.616187,3132 6.949017,44.616212,3132 6.948995,44.616209,3132 6.949024,44.616224,3133 6.948974,44.616251,3134 6.948966,44.616307,3136 6.948960,44.616349,3137 6.948947,44.616379,3138 6.948946,44.616399,3139 6.948961,44.616428,3139 6.948985,44.616493,3140 6.948953,44.616537,3141 6.948938,44.616578,3142 6.948928,44.616643,3143 6.948945,44.616660,3143 6.948960,44.616700,3145 6.948964,44.616721,3145 6.948965,44.616709,3147 6.948971,44.616705,3148 6.948944,44.616702,3149 6.948922,44.616727,3149 6.948918,44.616774,3151 6.948901,44.616790,3152 6.948912,44.616813,3154 6.948930,44.616822,3155 6.948890,44.616833,3156 6.948898,44.616876,3157 6.948885,44.616897,3159 6.948884,44.616914,3159 6.948880,44.616923,3160 6.948874,44.616913,3160 6.948862,44.616918,3160 6.948867,44.616912,3161 6.948849,44.616887,3162 6.948789,44.616892,3164 6.948800,44.616933,3165 6.948801,44.616963,3167 6.948747,44.616962,3168 6.948775,44.617002,3168 6.948818,44.617000,3168 6.948820,44.617004,3169 6.948823,44.616997,3169 6.948794,44.617013,3170 6.948722,44.617041,3171 6.948778,44.617048,3173 6.948791,44.617068,3175 6.948722,44.617065,3176 6.948681,44.617076,3177 6.948739,44.617139,3179 6.948748,44.617178,3180 6.948728,44.617192,3180 6.948725,44.617186,3181 6.948737,44.617195,3181 6.948768,44.617173,3181 6.948770,44.617189,3180 6.948713,44.617201,3182 6.948659,44.617186,3183 6.948676,44.617187,3183 6.948612,44.617199,3186 6.948575,44.617227,3187 6.948566,44.617189,3188 6.948580,44.617199,3189 6.948573,44.617205,3190 6.948597,44.617232,3190 6.948574,44.617237,3191 6.948574,44.617244,3192 6.948573,44.617268,3193 6.948577,44.617289,3194 6.948588,44.617297,3195 6.948645,44.617369,3197 6.948683,44.617394,3197 6.948693,44.617447,3198 6.948724,44.617469,3199 6.948758,44.617509,3200 6.948743,44.617530,3201 6.948712,44.617556,3202 6.948661,44.617590,3203 6.948719,44.617621,3205 6.948744,44.617610,3205 6.948740,44.617588,3205 6.948738,44.617593,3204 6.948722,44.617600,3204 6.948728,44.617605,3204 6.948727,44.617633,3204 6.948749,44.617611,3205 6.948762,44.617613,3206 6.948781,44.617637,3208 6.948772,44.617660,3210 6.948797,44.617690,3211 6.948800,44.617707,3212 6.948795,44.617736,3213 6.948833,44.617765,3215 6.948862,44.617790,3216 6.948886,44.617822,3217 6.948906,44.617846,3218 6.948911,44.617856,3219 6.948911,44.617858,3220 6.948926,44.617873,3221 6.948907,44.617885,3223 6.948918,44.617906,3224 6.948886,44.617895,3225 6.948846,44.617903,3226 6.948837,44.617925,3227 6.948858,44.617958,3228 6.948871,44.617977,3229 6.948836,44.618003,3230 6.948847,44.618021,3232 6.948808,44.618034,3233 6.948755,44.618030,3234 6.948720,44.618031,3235 6.948710,44.618032,3236 6.948654,44.618042,3239 6.948629,44.618070,3240 6.948661,44.618115,3241 6.948653,44.618124,3242 6.948629,44.618167,3244 6.948638,44.618178,3245 6.948594,44.618216,3246 6.948618,44.618259,3247 6.948660,44.618254,3249 6.948671,44.618262,3250 6.948627,44.618306,3251 6.948617,44.618321,3252 6.948623,44.618343,3253 6.948622,44.618372,3254 6.948594,44.618395,3255 6.948567,44.618432,3256 6.948578,44.618433,3257 6.948596,44.618474,3257 6.948589,44.618471,3258 6.948566,44.618455,3258 6.948595,44.618460,3258 6.948634,44.618479,3259 6.948698,44.618486,3261 6.948753,44.618493,3262 6.948753,44.618489,3263 6.948740,44.618519,3264 6.948763,44.618515,3265 6.948798,44.618542,3266 6.948816,44.618542,3267 6.948850,44.618544,3268 6.948888,44.618551,3270 6.948882,44.618558,3271 6.948939,44.618579,3272 6.948947,44.618589,3273 6.948925,44.618615,3274 6.948944,44.618631,3275 6.948952,44.618652,3276 6.948954,44.618690,3278 6.949005,44.618699,3279 6.949016,44.618697,3279 6.949042,44.618719,3281 6.949012,44.618722,3281 6.949046,44.618746,3283 6.949072,44.618755,3283 6.949101,44.618763,3284 6.949115,44.618773,3285 6.949108,44.618761,3285 6.949124,44.618793,3286 6.949138,44.618808,3287 6.949116,44.618814,3289 6.949112,44.618862,3290 6.949180,44.618860,3291 6.949206,44.618850,3293 6.949196,44.618868,3295 6.949206,44.618894,3296 6.949193,44.618922,3297 6.949183,44.618939,3298 6.949147,44.618973,3300 6.949118,44.618994,3301 6.949123,44.619011,3303 6.949167,44.619032,3304 6.949191,44.619036,3305 6.949197,44.619057,3306 6.949209,44.619099,3307 6.949184,44.619134,3309 6.949198,44.619138,3309 6.949207,44.619164,3310 6.949266,44.619176,3311 6.949354,44.619141,3312 6.949347,44.619149,3313 6.949332,44.619202,3314 6.949355,44.619217,3315 6.949381,44.619236,3316 6.949366,44.619256,3317 6.949349,44.619338,3320 6.949358,44.619385,3321 6.949398,44.619375,3322 6.949424,44.619386,3322 6.949456,44.619377,3324 6.949466,44.619379,3324 6.949438,44.619401,3325 6.949429,44.619413,3326 6.949446,44.619426,3326 6.949497,44.619462,3327 6.949535,44.619489,3328 6.949561,44.619493,3329 6.949604,44.619518,3331 6.949604,44.619525,3331 6.949577,44.619535,3330 6.949510,44.619534,3329 6.949481,44.619539,3328 6.949453,44.619544,3327 6.949486,44.619565,3326 6.949499,44.619574,3325 6.949472,44.619580,3324 6.949469,44.619577,3324 6.949473,44.619558,3324 6.949491,44.619540,3323 6.949484,44.619563,3322 6.949497,44.619579,3322 6.949483,44.619575,3322 6.949475,44.619599,3321 6.949477,44.619585,3320 6.949537,44.619550,3323 6.949572,44.619548,3324 6.949597,44.619539,3324 6.949578,44.619535,3324 6.949593,44.619533,3325 6.949607,44.619539,3325 6.949511,44.619539,3323 6.949477,44.619568,3321 6.949489,44.619558,3320 6.949563,44.619531,3322 6.949654,44.619513,3324 6.949632,44.619514,3323 6.949612,44.619522,3323 6.949632,44.619518,3323 6.949637,44.619526,3323 6.949656,44.619521,3323 6.949647,44.619508,3323 6.949611,44.619504,3323 6.949602,44.619513,3323 6.949604,44.619572,3323 6.949655,44.619593,3323 6.949693,44.619577,3323 6.949687,44.619593,3323 6.949685,44.619596,3323 6.949686,44.619605,3322 6.949689,44.619599,3322 6.949705,44.619629,3322 6.949718,44.619622,3321 6.949666,44.619602,3321 6.949617,44.619579,3321 6.949600,44.619618,3321 6.949615,44.619605,3320 6.949638,44.619606,3320 6.949616,44.619590,3320 6.949633,44.619594,3319 6.949633,44.619614,3319 6.949650,44.619618,3319 6.949673,44.619546,3319 6.949640,44.619577,3318 6.949636,44.619542,3318 6.949653,44.619554,3317 6.949629,44.619568,3317 6.949638,44.619547,3317 6.949636,44.619523,3317 6.949619,44.619515,3316 6.949651,44.619521,3316 6.949651,44.619540,3316 6.949650,44.619539,3316 6.949630,44.619552,3316 6.949629,44.619535,3316 6.949670,44.619599,3316 6.949672,44.619625,3316 6.949712,44.619638,3315 6.949695,44.619660,3316 6.949721,44.619674,3315 6.949745,44.619668,3314 6.949751,44.619675,3314 6.949762,44.619683,3313 6.949774,44.619707,3312 6.949785,44.619682,3311 6.949841,44.619666,3309 6.949896,44.619676,3310 6.949902,44.619672,3310 6.949898,44.619678,3310 6.950019,44.619772,3310 6.950033,44.619807,3310 6.950037,44.619768,3309 6.950032,44.619783,3308 6.950017,44.619758,3307 6.950030,44.619736,3306 6.950037,44.619745,3306 6.950028,44.619738,3305 6.950025,44.619717,3305 6.950053,44.619719,3304 6.950020,44.619732,3303 6.950027,44.619708,3303 6.950051,44.619728,3303 6.950041,44.619738,3302 6.950040,44.619722,3303 6.950055,44.619732,3303 6.950012,44.619741,3302 6.950025,44.619754,3302 6.950012,44.619734,3301 6.950053,44.619747,3300 6.950062,44.619764,3300 6.950073,44.619787,3298 6.950047,44.619770,3298 6.950066,44.619784,3297 6.950114,44.619770,3296 6.950138,44.619746,3295 6.950099,44.619717,3294 6.950066,44.619696,3293 6.950085,44.619696,3291 6.950145,44.619699,3291 6.950182,44.619732,3290 6.950153,44.619680,3289 6.950194,44.619661,3287 6.950203,44.619690,3287 6.950205,44.619707,3286 6.950247,44.619734,3286 6.950297,44.619698,3285 6.950358,44.619708,3284 6.950345,44.619713,3283 6.950353,44.619695,3283 6.950367,44.619700,3283 6.950374,44.619721,3283 6.950364,44.619719,3283 6.950390,44.619727,3283 6.950359,44.619696,3283 6.950358,44.619697,3283 6.950354,44.619720,3283 6.950422,44.619726,3283 6.950418,44.619733,3283 6.950346,44.619713,3283 6.950343,44.619731,3283 6.950379,44.619733,3283 6.950376,44.619732,3283 6.950372,44.619730,3283 6.950347,44.619735,3283 6.950363,44.619746,3283 6.950346,44.619730,3283 6.950332,44.619741,3283 6.950371,44.619728,3283 6.950362,44.619748,3283 6.950372,44.619739,3283 6.950411,44.619728,3283 6.950373,44.619744,3283 6.950392,44.619734,3282 6.950451,44.619765,3282 6.950426,44.619771,3282 6.950614,44.619713,3281 6.950653,44.619700,3282 6.950626,44.619710,3282 6.950472,44.619757,3282 6.950439,44.619726,3281 6.950471,44.619733,3281 6.950441,44.619749,3281 6.950419,44.619746,3281 6.950350,44.619767,3280 6.950389,44.619788,3279 6.950466,44.619760,3279 6.950494,44.619753,3279 6.950459,44.619739,3278 6.950428,44.619779,3277 6.950463,44.619775,3277 6.950482,44.619792,3277 6.950463,44.619782,3276 6.950469,44.619819,3276 6.950479,44.619777,3275 6.950519,44.619779,3274 6.950638,44.619833,3275 6.950688,44.619841,3276 6.950719,44.619843,3277 6.950725,44.619858,3278 6.950750,44.619908,3279 6.950751,44.619930,3280 6.950759,44.619940,3280 6.950820,44.619940,3280 6.950847,44.619962,3281 6.950864,44.619977,3281 6.950839,44.619943,3281 6.950835,44.619923,3280 6.950843,44.619905,3279 6.950815,44.619891,3277 6.950804,44.619864,3276 6.950794,44.619840,3275 6.950784,44.619840,3275 6.950778,44.619823,3274 6.950762,44.619803,3273 6.950763,44.619794,3272 6.950757,44.619784,3272 6.950755,44.619774,3271 6.950760,44.619767,3271 6.950732,44.619764,3270 6.950733,44.619749,3269 6.950729,44.619732,3268 6.950718,44.619727,3268 6.950737,44.619706,3267 6.950723,44.619695,3266 6.950659,44.619704,3266 6.950722,44.619705,3266 6.950733,44.619659,3265 6.950710,44.619657,3264 6.950722,44.619631,3263 6.950715,44.619613,3263 6.950727,44.619625,3262 6.950739,44.619621,3262 6.950736,44.619614,3262 6.950737,44.619612,3261 6.950761,44.619613,3261 6.950738,44.619579,3260 6.950716,44.619569,3261 6.950757,44.619564,3261 6.950831,44.619563,3261 6.950760,44.619548,3261 6.950753,44.619570,3261 6.950831,44.619552,3260 6.950891,44.619541,3260 6.950835,44.619517,3260 6.950774,44.619553,3260 6.950729,44.619550,3260 6.950808,44.619543,3259 6.950784,44.619549,3259 6.950759,44.619567,3259 6.950738,44.619537,3258 6.950767,44.619535,3258 6.950780,44.619530,3257 6.950777,44.619531,3257 6.950745,44.619519,3256 6.950778,44.619532,3257 6.950761,44.619533,3256 6.950789,44.619538,3256 6.950767,44.619535,3256 6.950697,44.619505,3256 6.950792,44.619506,3256 6.950809,44.619522,3256 6.950831,44.619542,3256 6.950819,44.619556,3255 6.950804,44.619541,3256 6.950819,44.619521,3256 6.950759,44.619598,3256 6.950869,44.619543,3256 6.950824,44.619554,3256 6.950823,44.619560,3256 6.950799,44.619569,3256 6.950844,44.619607,3255 6.950845,44.619617,3255 6.950858,44.619626,3255 6.950948,44.619620,3254 6.950885,44.619627,3255 6.950898,44.619623,3255 6.950889,44.619640,3256 6.950878,44.619652,3257 6.950876,44.619661,3258 6.950973,44.619682,3259 6.950953,44.619686,3260 6.950998,44.619720,3261 6.951025,44.619735,3261 6.951085,44.619748,3262 6.951098,44.619760,3261 6.951113,44.619750,3261 6.951159,44.619812,3263 6.951186,44.619841,3263 6.951213,44.619866,3265 6.951251,44.619881,3266 6.951306,44.619877,3268 6.951348,44.619891,3268 6.951346,44.619882,3268 6.951350,44.619875,3268 6.951332,44.619872,3267 6.951335,44.619881,3267 6.951310,44.619903,3267 6.951302,44.619890,3267 6.951312,44.619883,3267 6.951318,44.619912,3268 6.951300,44.619906,3267 6.951296,44.619897,3266 6.951289,44.619895,3266 6.951279,44.619869,3266 6.951258,44.619846,3265 6.951214,44.619810,3263 6.951217,44.619815,3262 6.951191,44.619788,3261 6.951204,44.619769,3259 6.951178,44.619759,3258 6.951192,44.619753,3257 6.951190,44.619737,3256 6.951210,44.619744,3255 6.951180,44.619734,3254 6.951187,44.619730,3254 6.951177,44.619726,3253 6.951203,44.619709,3253 6.951182,44.619685,3252 6.951176,44.619671,3252 6.951229,44.619681,3251 6.951171,44.619671,3250 6.951184,44.619693,3250 6.951205,44.619677,3249 6.951194,44.619680,3248 6.951171,44.619657,3248 6.951142,44.619649,3247 6.951166,44.619665,3246 6.951192,44.619652,3245 6.951241,44.619666,3245 6.951265,44.619650,3245 6.951219,44.619686,3245 6.951231,44.619698,3245 6.951223,44.619708,3245 6.951192,44.619673,3244 6.951241,44.619700,3244 6.951276,44.619694,3244 6.951265,44.619702,3244 6.951230,44.619704,3244 6.951262,44.619716,3243 6.951293,44.619719,3244 6.951263,44.619702,3244 6.951232,44.619705,3244 6.951204,44.619648,3244 6.951184,44.619629,3243 6.951155,44.619628,3242 6.951120,44.619611,3241 6.951145,44.619601,3240 6.951078,44.619557,3241 6.951093,44.619544,3241 6.951089,44.619537,3241 6.951072,44.619558,3240 6.951048,44.619576,3240 6.951020,44.619522,3239 6.951023,44.619515,3239 6.950995,44.619531,3238 6.951005,44.619525,3238 6.951007,44.619512,3237 6.951007,44.619526,3236 6.951016,44.619537,3236 6.950994,44.619489,3235 6.950969,44.619503,3235 6.951021,44.619488,3235 6.950997,44.619471,3235 6.950962,44.619465,3235 6.950987,44.619453,3235 6.950994,44.619452,3234 6.951002,44.619465,3233 6.950979,44.619489,3233 6.950995,44.619459,3234 6.950998,44.619455,3233 6.951005,44.619454,3234 6.951053,44.619445,3233 6.950999,44.619468,3233 6.951012,44.619472,3234 6.950983,44.619463,3234 6.950991,44.619462,3235 6.951001,44.619430,3235 6.951045,44.619439,3235 6.951051,44.619451,3235 6.951002,44.619452,3235 6.950982,44.619452,3235 6.950975,44.619435,3234 6.950934,44.619456,3234 6.950975,44.619437,3233 6.950994,44.619446,3234 6.951024,44.619428,3234 6.951005,44.619448,3234 6.951035,44.619444,3234 6.951025,44.619425,3233 6.950977,44.619429,3233 6.950994,44.619413,3232 6.951015,44.619370,3231 6.951014,44.619362,3231 6.951035,44.619380,3231 6.951038,44.619378,3230 6.951082,44.619387,3230 6.951082,44.619380,3230 6.951080,44.619378,3229 6.951100,44.619360,3229 6.951124,44.619369,3228 6.951178,44.619378,3226 6.951202,44.619366,3225 6.951201,44.619357,3225 6.951233,44.619403,3225 6.951286,44.619401,3224 6.951290,44.619406,3224 6.951286,44.619399,3223 6.951348,44.619358,3224 6.951308,44.619439,3224 6.951321,44.619428,3225 6.951322,44.619404,3225 6.951319,44.619405,3224 6.951333,44.619416,3223 6.951346,44.619403,3223 6.951368,44.619425,3222 6.951373,44.619415,3222 6.951388,44.619420,3221 6.951409,44.619444,3221 6.951462,44.619424,3221 6.951582,44.619445,3220 6.951631,44.619438,3220 6.951657,44.619497,3220 6.951679,44.619452,3221 6.951720,44.619475,3221 6.951743,44.619466,3221 6.951746,44.619486,3222 6.951738,44.619509,3223 6.951747,44.619522,3223 6.951760,44.619536,3225 6.951815,44.619568,3226 6.951849,44.619591,3226 6.951864,44.619599,3226 6.951906,44.619627,3227 6.951879,44.619652,3228 6.951867,44.619659,3229 6.951885,44.619705,3228 6.951886,44.619747,3229 6.951899,44.619744,3229 6.951897,44.619778,3229 6.951915,44.619792,3228 6.951984,44.619818,3229 6.952031,44.619836,3230 6.952044,44.619852,3231 6.952049,44.619849,3231 6.952044,44.619908,3230 6.952037,44.619919,3230 6.952056,44.619915,3230 6.952030,44.619915,3229 6.952067,44.619923,3228 6.952102,44.619942,3228 6.952129,44.619959,3227 6.952128,44.619962,3227 6.952144,44.620016,3228 6.952221,44.620055,3229 6.952271,44.620084,3229 6.952393,44.620151,3228 6.952473,44.620164,3227 6.952584,44.620167,3225 6.952703,44.620192,3225 6.952742,44.620182,3224 6.952839,44.620183,3223 6.952914,44.620194,3224 6.952927,44.620177,3223 6.952958,44.620174,3223 6.952974,44.620172,3222 6.953075,44.620214,3222 6.953134,44.620251,3223 6.953212,44.620240,3224 6.953279,44.620241,3223 6.953410,44.620226,3222 6.953377,44.620223,3222 6.953303,44.620272,3223 6.953333,44.620252,3222 6.953329,44.620262,3221 6.953309,44.620264,3221 6.953291,44.620256,3219 6.953324,44.620281,3218 6.953336,44.620288,3217 6.953353,44.620323,3216 6.953318,44.620301,3216 6.953297,44.620281,3216 6.953318,44.620308,3214 6.953269,44.620301,3213 6.953271,44.620282,3213 6.953257,44.620264,3212 6.953225,44.620308,3211 6.953243,44.620318,3211 6.953263,44.620303,3209 6.953262,44.620321,3209 6.953271,44.620327,3208 6.953317,44.620326,3208 6.953386,44.620335,3209 6.953416,44.620362,3207 6.953429,44.620376,3206 6.953469,44.620413,3205 6.953532,44.620426,3205 6.953587,44.620462,3203 6.953589,44.620483,3203 6.953592,44.620481,3203 6.953570,44.620434,3203 6.953604,44.620409,3203 6.953619,44.620397,3203 6.953567,44.620379,3204 6.953585,44.620443,3203 6.953580,44.620453,3203 6.953572,44.620464,3202 6.953590,44.620476,3202 6.953609,44.620498,3201 6.953673,44.620510,3201 6.953688,44.620517,3200 6.953784,44.620549,3200 6.953790,44.620566,3199 6.953913,44.620610,3199 6.953978,44.620629,3200 6.954042,44.620654,3201 6.954076,44.620665,3201 6.954143,44.620690,3202 6.954180,44.620713,3203 6.954205,44.620733,3204 6.954261,44.620738,3204 6.954347,44.620754,3203 6.954318,44.620766,3202 6.954378,44.620802,3202 6.954390,44.620773,3203 6.954419,44.620795,3203 6.954438,44.620786,3203 6.954429,44.620800,3203 6.954416,44.620807,3203 6.954389,44.620801,3203 6.954396,44.620800,3203 6.954396,44.620781,3203 6.954428,44.620825,3203 6.954416,44.620828,3203 6.954414,44.620821,3203 6.954431,44.620787,3203 6.954447,44.620830,3203 6.954447,44.620806,3203 6.954430,44.620804,3202 6.954435,44.620806,3202 6.954429,44.620799,3202 6.954443,44.620799,3202 6.954428,44.620811,3201 6.954442,44.620822,3200 6.954478,44.620846,3200 6.954494,44.620837,3199 6.954550,44.620848,3199 6.954654,44.620891,3199 6.954683,44.620920,3199 6.954730,44.620938,3200 6.954778,44.620970,3200 6.954806,44.620975,3201 6.954847,44.620994,3201 6.954857,44.620993,3202 6.954872,44.620994,3202 6.954888,44.620987,3203 6.954884,44.620985,3204 6.954883,44.620974,3204 6.954881,44.620975,3204 6.954879,44.620983,3204 6.954870,44.620997,3202 6.954872,44.621015,3201 6.954906,44.621024,3200 6.954927,44.621009,3200 6.954873,44.621048,3200 6.954901,44.621048,3199 6.954916,44.621069,3198 6.954892,44.621056,3196 6.954859,44.621062,3196 6.954876,44.621079,3194 6.954842,44.621088,3193 6.954830,44.621094,3193 6.954839,44.621119,3192 6.954836,44.621124,3191 6.954830,44.621123,3191 6.954834,44.621133,3190 6.954821,44.621143,3189 6.954816,44.621172,3188 6.954821,44.621179,3188 6.954827,44.621197,3187 6.954868,44.621252,3186 6.954899,44.621273,3185 6.954910,44.621271,3186 6.954956,44.621287,3185 6.955004,44.621299,3185 6.954991,44.621308,3185 6.955035,44.621293,3185 6.955054,44.621301,3184 6.955063,44.621305,3184 6.955093,44.621281,3184 6.955100,44.621256,3183 6.955123,44.621308,3183 6.955111,44.621289,3183 6.955115,44.621293,3182 6.955134,44.621309,3182 6.955129,44.621324,3181 6.955132,44.621325,3181 6.955136,44.621335,3180 6.955144,44.621354,3179 6.955160,44.621371,3178 6.955126,44.621385,3177 6.955123,44.621344,3177 6.955127,44.621382,3177 6.955126,44.621338,3177 6.955142,44.621366,3178 6.955133,44.621361,3178 6.955163,44.621376,3178 6.955158,44.621361,3179 6.955134,44.621356,3179 6.955150,44.621390,3179 6.955141,44.621392,3180 6.955134,44.621388,3180 6.955132,44.621390,3180 6.955150,44.621399,3179 6.955153,44.621406,3177 6.955151,44.621407,3176 6.955153,44.621436,3175 6.955166,44.621449,3174 6.955182,44.621469,3173 6.955201,44.621450,3172 6.955207,44.621439,3172 6.955220,44.621456,3171 6.955236,44.621465,3170 6.955258,44.621486,3169 6.955311,44.621504,3168 6.955330,44.621525,3168 6.955371,44.621538,3167 6.955410,44.621586,3166 6.955370,44.621570,3166 6.955413,44.621575,3165 6.955418,44.621594,3164 6.955421,44.621584,3163 6.955437,44.621606,3163 6.955438,44.621611,3163 6.955468,44.621631,3163 6.955443,44.621614,3164 6.955431,44.621613,3164 6.955444,44.621594,3164 6.955461,44.621602,3163 6.955495,44.621617,3161 6.955514,44.621647,3160 6.955522,44.621641,3159 6.955537,44.621664,3159 6.955550,44.621670,3157 6.955568,44.621681,3157 6.955591,44.621672,3156 6.955609,44.621663,3156 6.955625,44.621706,3155 6.955634,44.621723,3154 6.955672,44.621760,3153 6.955685,44.621736,3152 6.955726,44.621708,3152 6.955697,44.621746,3153 6.955733,44.621811,3151 6.955728,44.621805,3150 6.955756,44.621817,3148 6.955774,44.621815,3148 6.955802,44.621813,3147 6.955839,44.621825,3146 6.955847,44.621826,3145 6.955861,44.621859,3144 6.955878,44.621869,3143 6.955901,44.621880,3143 6.955903,44.621869,3143 6.955929,44.621879,3142 6.955964,44.621881,3141 6.955978,44.621871,3141 6.956029,44.621885,3140 6.956046,44.621898,3138 6.956073,44.621903,3138 6.956090,44.621909,3137 6.956088,44.621908,3137 6.956120,44.621908,3136 6.956168,44.621926,3135 6.956154,44.621962,3134 6.956193,44.621952,3133 6.956257,44.622003,3133 6.956156,44.621945,3133 6.956163,44.621931,3134 6.956182,44.621929,3134 6.956195,44.621932,3134 6.956217,44.621940,3135 6.956195,44.621968,3136 6.956199,44.621965,3136 6.956191,44.622004,3136 6.956224,44.622003,3134 6.956275,44.622014,3133 6.956261,44.622021,3132 6.956294,44.622035,3131 6.956334,44.622044,3131 6.956314,44.622055,3132 6.956301,44.622056,3132 6.956374,44.622034,3132 6.956422,44.622056,3131 6.956431,44.622056,3130 6.956450,44.622047,3129 6.956437,44.622064,3129 6.956436,44.622062,3128 6.956451,44.622036,3128 6.956459,44.622056,3129 6.956473,44.622063,3129 6.956501,44.622071,3129 6.956484,44.622055,3130 6.956487,44.622047,3130 6.956474,44.622059,3130 6.956448,44.622065,3130 6.956438,44.622044,3131 6.956438,44.622034,3131 6.956465,44.622067,3131 6.956468,44.622100,3131 6.956441,44.622124,3130 6.956436,44.622112,3131 6.956413,44.622113,3131 6.956463,44.622137,3131 6.956467,44.622118,3132 6.956464,44.622121,3132 6.956459,44.622139,3132 6.956459,44.622127,3133 6.956449,44.622124,3133 6.956476,44.622124,3133 6.956461,44.622111,3133 6.956445,44.622130,3133 6.956453,44.622127,3133 6.956452,44.622121,3134 6.956419,44.622097,3134 6.956380,44.622102,3134 6.956419,44.622104,3134 6.956431,44.622110,3134 6.956445,44.622139,3134 6.956477,44.622114,3134 6.956466,44.622113,3134 6.956461,44.622107,3134 6.956436,44.622124,3134 6.956422,44.622127,3134 6.956451,44.622113,3134 6.956470,44.622113,3134 6.956479,44.622107,3135 6.956450,44.622131,3135 6.956451,44.622135,3135 6.956485,44.622151,3135 6.956496,44.622147,3135 6.956444,44.622103,3135 6.956442,44.622107,3135 6.956488,44.622114,3135 6.956452,44.622112,3135 6.956469,44.622119,3135 6.956474,44.622123,3135 6.956488,44.622116,3134 6.956493,44.622120,3134 6.956465,44.622087,3134 6.956444,44.622094,3134 6.956432,44.622116,3135 6.956407,44.622106,3135 6.956454,44.622116,3134 6.956472,44.622116,3134 6.956413,44.622106,3135 6.956457,44.622102,3135 6.956457,44.622110,3135 6.956446,44.622119,3135 6.956464,44.622107,3134 6.956476,44.622113,3134 6.956448,44.622095,3134 6.956453,44.622122,3134 6.956412,44.622115,3134 6.956477,44.622112,3134 6.956476,44.622117,3134 6.956474,44.622112,3134 6.956477,44.622126,3134 6.956445,44.622111,3134 6.956412,44.622118,3133 6.956386,44.622102,3133 6.956405,44.622111,3133 6.956470,44.622117,3134 6.956467,44.622127,3134 6.956371,44.622116,3134 6.956382,44.622108,3134 6.956496,44.622108,3134 6.956370,44.622100,3135 6.956452,44.622099,3135 6.956459,44.622099,3135 6.956456,44.622115,3135 6.956436,44.622110,3135 6.956433,44.622093,3135 6.956448,44.622097,3135 6.956463,44.622110,3135 6.956443,44.622112,3135 6.956452,44.622103,3135 6.956454,44.622121,3135 6.956443,44.622105,3135 6.956397,44.622083,3135 6.956458,44.622090,3134 6.956441,44.622091,3135 6.956484,44.622112,3135 6.956456,44.622086,3135 6.956445,44.622104,3135 6.956478,44.622103,3135 6.956435,44.622081,3136 6.956444,44.622069,3136 6.956449,44.622084,3136 6.956415,44.622133,3135 6.956384,44.622144,3134 6.956375,44.622160,3133 6.956352,44.622181,3131 6.956331,44.622233,3129 6.956311,44.622278,3128 6.956283,44.622341,3127 6.956249,44.622334,3126 6.956244,44.622347,3126 6.956212,44.622374,3125 6.956179,44.622427,3123 6.956174,44.622483,3122 6.956111,44.622541,3120 6.956080,44.622564,3119 6.956033,44.622609,3117 6.955988,44.622637,3116 6.955900,44.622671,3113 6.955895,44.622716,3111 6.955866,44.622748,3109 6.955825,44.622759,3108 6.955786,44.622784,3106 6.955748,44.622811,3104 6.955711,44.622836,3103 6.955667,44.622867,3101 6.955637,44.622888,3099 6.955598,44.622922,3098 6.955572,44.622950,3096 6.955554,44.622970,3095 6.955569,44.623017,3093 6.955544,44.623042,3092 6.955529,44.623059,3091 6.955543,44.623102,3090 6.955558,44.623171,3088 6.955606,44.623226,3086 6.955617,44.623318,3085 6.955522,44.623393,3085 6.955368,44.623424,3084 6.955265,44.623420,3083 6.955196,44.623457,3081 6.955129,44.623462,3080 6.955063,44.623446,3078 6.954991,44.623449,3077 6.954877,44.623431,3076 6.954791,44.623424,3076 6.954626,44.623428,3074 6.954558,44.623434,3073 6.954453,44.623409,3072 6.954368,44.623405,3070 6.954220,44.623306,3068 6.954209,44.623286,3068 6.954037,44.623183,3066 6.953881,44.623209,3065 6.953789,44.623207,3064 6.953721,44.623164,3063 6.953612,44.623157,3061 6.953496,44.623148,3060 6.953421,44.623149,3059 6.953233,44.623164,3058 6.953114,44.623146,3056 6.953028,44.623144,3055 6.952981,44.623146,3054 6.952958,44.623140,3053 6.952926,44.623130,3052 6.952870,44.623137,3051 6.952710,44.623138,3048 6.952631,44.623142,3047 6.952517,44.623134,3046 6.952441,44.623102,3045 6.952370,44.623119,3043 6.952267,44.623131,3041 6.952155,44.623124,3040 6.952057,44.623123,3039 6.951894,44.623055,3037 6.951830,44.623042,3036 6.951766,44.623044,3033 6.951707,44.623033,3032 6.951653,44.623030,3030 6.951617,44.623026,3029 6.951526,44.623025,3028 6.951473,44.623050,3026 6.951444,44.623071,3025 6.951401,44.623089,3023 6.951356,44.623114,3021 6.951343,44.623133,3020 6.951352,44.623193,3018 6.951340,44.623212,3016 6.951312,44.623233,3014 6.951281,44.623227,3012 6.951250,44.623245,3010 6.951192,44.623299,3007 6.951155,44.623321,3006 6.951076,44.623344,3004 6.951039,44.623330,3002 6.951069,44.623322,3002 6.951112,44.623352,3001 6.951123,44.623397,2999 6.951027,44.623446,2997 6.951017,44.623460,2996 6.950968,44.623483,2994 6.950944,44.623505,2991 6.950937,44.623517,2990 6.950912,44.623554,2989 6.950905,44.623543,2988 6.950902,44.623589,2986 6.950881,44.623604,2984 6.950866,44.623610,2982 6.950843,44.623665,2981 6.950820,44.623644,2979 6.950812,44.623683,2978 6.950824,44.623719,2976 6.950821,44.623731,2975 6.950823,44.623752,2974 6.950799,44.623801,2972 6.950744,44.623791,2971 6.950713,44.623841,2969 6.950680,44.623862,2968 6.950671,44.623857,2967 6.950653,44.623862,2965 6.950641,44.623876,2964 6.950637,44.623929,2962 6.950642,44.623934,2962 6.950660,44.623976,2960 6.950666,44.624006,2958 6.950687,44.624030,2957 6.950728,44.624061,2956 6.950748,44.624092,2954 6.950760,44.624101,2953 6.950801,44.624138,2951 6.950853,44.624168,2950 6.950889,44.624233,2949 6.950860,44.624283,2947 6.950868,44.624311,2945 6.950910,44.624322,2945 6.950982,44.624375,2943 6.951004,44.624476,2942 6.951013,44.624562,2942 6.950979,44.624665,2941 6.950981,44.624742,2940 6.950974,44.624837,2938 6.950948,44.624870,2937 6.950936,44.624909,2935 6.950950,44.625015,2932 6.950924,44.625087,2931 6.950880,44.625129,2930 6.950779,44.625173,2927 6.950729,44.625215,2925 6.950702,44.625252,2923 6.950653,44.625286,2921 6.950604,44.625316,2918 6.950528,44.625311,2916 6.950492,44.625323,2914 6.950466,44.625357,2913 6.950444,44.625419,2912 6.950383,44.625411,2910 6.950347,44.625422,2909 6.950275,44.625446,2908 6.950231,44.625477,2906 6.950176,44.625511,2904 6.950114,44.625511,2903 6.950106,44.625502,2902 6.950085,44.625505,2901 6.950071,44.625555,2900 6.950042,44.625573,2898 6.950041,44.625582,2897 6.950025,44.625667,2896 6.950063,44.625660,2894 6.950082,44.625697,2893 6.950080,44.625744,2892 6.950081,44.625769,2890 6.950066,44.625793,2888 6.950087,44.625772,2887 6.950143,44.625796,2886 6.950138,44.625820,2885 6.950133,44.625846,2884 6.950112,44.625893,2883 6.950080,44.625955,2881 6.950087,44.625963,2879 6.950081,44.625957,2878 6.950063,44.626004,2877 6.950064,44.626048,2876 6.950062,44.626071,2875 6.950051,44.626087,2874 6.950053,44.626066,2873 6.950056,44.626067,2871 6.950095,44.626074,2870 6.950126,44.626075,2868 6.950155,44.626077,2867 6.950169,44.626083,2866 6.950180,44.626114,2865 6.950150,44.626137,2864 6.950128,44.626195,2863 6.950073,44.626309,2863 6.949993,44.626338,2865 6.949945,44.626388,2866 6.949874,44.626439,2865 6.949924,44.626417,2864 6.949956,44.626401,2863 6.949933,44.626421,2863 6.949932,44.626460,2863 6.949910,44.626535,2862 6.949860,44.626549,2862 6.949828,44.626547,2863 6.949841,44.626586,2863 6.949850,44.626545,2862 6.949911,44.626541,2861 6.949943,44.626543,2860 6.949976,44.626520,2859 6.950000,44.626543,2858 6.950048,44.626561,2856 6.950154,44.626609,2855 6.950161,44.626609,2853 6.950131,44.626607,2853 6.950128,44.626619,2853 6.950112,44.626648,2851 6.950109,44.626681,2850 6.950131,44.626674,2849 6.950142,44.626713,2848 6.950168,44.626774,2847 6.950236,44.626762,2847 6.950198,44.626802,2849 6.950152,44.626918,2849 6.950113,44.626987,2848 6.950095,44.627018,2847 6.950086,44.627002,2846 6.950076,44.626988,2844 6.950093,44.627029,2845 6.950108,44.627075,2845 6.950101,44.627079,2845 6.950069,44.627116,2846 6.950009,44.627117,2846 6.949993,44.627085,2845 6.950000,44.627125,2843 6.949943,44.627232,2843 6.949951,44.627191,2842 6.949976,44.627157,2842 6.950000,44.627140,2841 6.950016,44.627150,2840 6.950042,44.627169,2837 6.950050,44.627223,2837 6.949959,44.627287,2838 6.949901,44.627312,2838 6.949878,44.627364,2837 6.949893,44.627432,2836 6.949922,44.627442,2835 6.949961,44.627448,2835 6.949983,44.627468,2833 6.950008,44.627478,2832 6.950011,44.627461,2831 6.950033,44.627437,2829 6.950048,44.627440,2828 6.950050,44.627461,2827 6.950046,44.627492,2825 6.950088,44.627521,2823 6.950151,44.627536,2821 6.950241,44.627625,2820 6.950245,44.627655,2819 6.950228,44.627667,2818 6.950251,44.627740,2816 6.950258,44.627826,2814 6.950300,44.627851,2813 6.950353,44.627860,2812 6.950380,44.627883,2811 6.950378,44.627918,2809 6.950417,44.628038,2807 6.950427,44.628028,2806 6.950421,44.628091,2805 6.950458,44.628186,2804 6.950409,44.628346,2803 6.950335,44.628464,2802 6.950306,44.628505,2801 6.950304,44.628524,2800 6.950289,44.628580,2799 6.950269,44.628660,2798 6.950217,44.628730,2797 6.950192,44.628775,2795 6.950107,44.628845,2794 6.950081,44.628893,2792 6.950087,44.628924,2790 6.950107,44.628979,2788 6.950111,44.629027,2787 6.950072,44.629148,2786 6.949993,44.629198,2785 6.949918,44.629217,2784 6.949921,44.629238,2784 6.949867,44.629270,2784 6.949802,44.629275,2783 6.949698,44.629302,2782 6.949683,44.629458,2781 6.949659,44.629496,2780 6.949635,44.629557,2780 6.949607,44.629610,2779 6.949536,44.629647,2779 6.949461,44.629731,2778 6.949424,44.629815,2777 6.949388,44.629810,2777 6.949321,44.629820,2776 6.949308,44.629858,2776 6.949303,44.629875,2776 6.949296,44.629901,2776 6.949307,44.629951,2776 6.949416,44.629961,2777 6.949430,44.630068,2777 6.949432,44.630086,2777 6.949446,44.630118,2777 6.949463,44.630139,2777 6.949513,44.630199,2778 6.949500,44.630234,2778 6.949450,44.630336,2778 6.949474,44.630450,2778 6.949486,44.630514,2779 6.949464,44.630557,2780 6.949489,44.630613,2780 6.949467,44.630649,2779 6.949444,44.630689,2779 6.949462,44.630721,2780 6.949472,44.630722,2781 6.949457,44.630718,2782 6.949443,44.630771,2784 6.949377,44.630816,2785 6.949271,44.630814,2785 6.949315,44.630819,2785 6.949221,44.630732,2785 6.949257,44.630772,2785 6.949299,44.630753,2785 6.949321,44.630744,2785 6.949315,44.630723,2785 6.949293,44.630675,2785 6.949265,44.630617,2786 6.949237,44.630615,2786 6.949221,44.630689,2786 6.949272,44.630733,2787 6.949310,44.630765,2789 6.949276,44.630790,2790 6.949280,44.630769,2791 6.949337,44.630749,2792 6.949389,44.630741,2793 6.949419,44.630766,2795 6.949414,44.630831,2796 6.949384,44.630908,2797 6.949391,44.630876,2798 6.949406,44.630879,2799 6.949400,44.630883,2800 6.949395,44.630902,2801 6.949388,44.630952,2802 6.949351,44.630966,2803 6.949328,44.631001,2804 6.949316,44.631021,2805 6.949250,44.630998,2807 6.949248,44.631005,2807 6.949240,44.631003,2808 6.949269,44.631008,2808 6.949318,44.630981,2810 6.949329,44.630950,2812 6.949366,44.630941,2813 6.949400,44.630955,2814 6.949385,44.631021,2816 6.949379,44.631106,2817 6.949410,44.631079,2818 6.949404,44.631116,2818 6.949406,44.631110,2819 6.949416,44.631146,2821 6.949419,44.631229,2821 6.949389,44.631214,2822 6.949384,44.631205,2822 6.949391,44.631197,2822 6.949348,44.631221,2823 6.949368,44.631182,2824 6.949364,44.631199,2824 6.949378,44.631199,2825 6.949405,44.631199,2826 6.949412,44.631224,2827 6.949427,44.631232,2828 6.949452,44.631219,2829 6.949489,44.631219,2829 6.949469,44.631228,2830 6.949490,44.631314,2830 6.949446,44.631427,2831 6.949455,44.631371,2832 6.949526,44.631344,2832 6.949527,44.631397,2833 6.949550,44.631429,2833 6.949598,44.631427,2835 6.949588,44.631499,2836 6.949548,44.631547,2837 6.949515,44.631553,2837 6.949526,44.631601,2838 6.949569,44.631650,2840 6.949586,44.631697,2841 6.949610,44.631764,2843 6.949770,44.631756,2843 6.949908,44.631766,2844 6.950094,44.631846,2842 6.950177,44.631963,2841 6.950187,44.632112,2841 6.950219,44.632246,2840 6.950262,44.632276,2839 6.950319,44.632341,2838 6.950356,44.632562,2837 6.950388,44.632543,2836 6.950397,44.632535,2836 6.950407,44.632546,2836 6.950433,44.632583,2835 6.950440,44.632625,2833 6.950455,44.632689,2832 6.950506,44.632702,2831 6.950545,44.632723,2830 6.950602,44.632778,2827 6.950598,44.632772,2827 6.950614,44.632751,2825 6.950643,44.632742,2824 6.950663,44.632768,2823 6.950727,44.632812,2823 6.950801,44.632848,2821 6.950852,44.632915,2820 6.950882,44.632946,2818 6.950912,44.632964,2819 6.950921,44.633024,2817 6.950941,44.633130,2815 6.950994,44.633196,2813 6.951010,44.633232,2812 6.951017,44.633246,2810 6.951012,44.633300,2808 6.951008,44.633327,2807 6.951010,44.633383,2806 6.951042,44.633445,2805 6.951079,44.633439,2803 6.951089,44.633422,2802 6.951095,44.633443,2801 6.951079,44.633484,2800 6.951066,44.633515,2799 6.951100,44.633537,2797 6.951099,44.633568,2796 6.951099,44.633532,2795 6.951121,44.633531,2794 6.951151,44.633574,2792 6.951158,44.633612,2791 6.951138,44.633576,2790 6.951162,44.633597,2790 6.951121,44.633660,2788 6.951112,44.633667,2787 6.951133,44.633675,2786 6.951184,44.633681,2784 6.951198,44.633720,2783 6.951218,44.633713,2782 6.951174,44.633765,2781 6.951188,44.633765,2781 6.951191,44.633795,2780 6.951218,44.633796,2778 6.951201,44.633831,2777 6.951188,44.633782,2775 6.951164,44.633844,2775 6.951153,44.633876,2774 6.951146,44.633864,2772 6.951112,44.633893,2772 6.951121,44.633886,2771 6.951121,44.633920,2769 6.951121,44.634011,2767 6.951127,44.634065,2766 6.951125,44.634085,2766 6.951111,44.634129,2765 6.951078,44.634185,2764 6.951062,44.634160,2763 6.951058,44.634150,2763 6.951141,44.634186,2762 6.951001,44.634139,2761 6.951035,44.634159,2761 6.951113,44.634198,2761 6.951077,44.634162,2761 6.951136,44.634187,2761 6.951121,44.634175,2761 6.951135,44.634184,2761 6.951193,44.634207,2760 6.951263,44.634206,2758 6.951296,44.634195,2757 6.951341,44.634182,2755 6.951402,44.634149,2754 6.951417,44.634146,2753 6.951422,44.634192,2753 6.951414,44.634248,2751 6.951410,44.634280,2750 6.951435,44.634260,2748 6.951465,44.634275,2747 6.951469,44.634305,2746 6.951452,44.634357,2744 6.951479,44.634370,2743 6.951507,44.634381,2742 6.951513,44.634390,2741 6.951554,44.634417,2739 6.951585,44.634456,2737 6.951574,44.634513,2735 6.951581,44.634535,2734 6.951596,44.634571,2732 6.951623,44.634613,2731 6.951662,44.634618,2730 6.951699,44.634646,2728 6.951753,44.634657,2727 6.951822,44.634656,2726 6.951878,44.634666,2725 6.951955,44.634687,2724 6.951982,44.634728,2723 6.952014,44.634794,2722 6.952049,44.634854,2720 6.952070,44.634842,2719 6.952088,44.634857,2717 6.952115,44.634886,2717 6.952150,44.634896,2717 6.952201,44.634929,2717 6.952292,44.634951,2717 6.952367,44.634971,2717 6.952451,44.635042,2717 6.952470,44.635073,2716 6.952477,44.635207,2715 6.952487,44.635281,2715 6.952456,44.635315,2714 6.952426,44.635414,2713 6.952440,44.635548,2714 6.952492,44.635711,2713 6.952544,44.635818,2713 6.952553,44.635927,2712 6.952540,44.636097,2712 6.952571,44.636224,2713 6.952659,44.636410,2714 6.952711,44.636591,2714 6.952702,44.636700,2713 6.952700,44.636854,2711 6.952723,44.636934,2710 6.952741,44.637008,2709 6.952736,44.637078,2708 6.952744,44.637167,2706 6.952741,44.637226,2705 6.952748,44.637298,2703 6.952735,44.637377,2703 6.952768,44.637496,2702 6.952773,44.637654,2701 6.952745,44.637751,2700 6.952779,44.637837,2699 6.952834,44.637898,2698 6.952906,44.638015,2697 6.952938,44.638122,2697 6.952956,44.638228,2696 6.952982,44.638334,2695 6.953032,44.638465,2693 6.953058,44.638562,2692 6.953069,44.638661,2690 6.953085,44.638725,2688 6.953109,44.638742,2686 6.953171,44.638766,2685 6.953281,44.638810,2684 6.953309,44.638840,2682 6.953327,44.638914,2681 6.953340,44.638895,2680 6.953354,44.638838,2680 6.953326,44.638759,2679 6.953319,44.638751,2678 6.953326,44.638742,2678 6.953350,44.638756,2677 6.953326,44.638833,2679 6.953342,44.638845,2679 6.953328,44.638898,2680 6.953287,44.638963,2681 6.953263,44.639017,2681 6.953258,44.639085,2680 6.953262,44.639104,2680 6.953303,44.639020,2680 6.953338,44.639043,2680 6.953306,44.639130,2680 6.953342,44.639210,2678 6.953380,44.639193,2677 6.953365,44.639171,2677 6.953311,44.639177,2678 6.953244,44.639157,2679 6.953249,44.639074,2680 6.953296,44.638998,2679 6.953365,44.638984,2677 6.953317,44.639053,2675 6.953311,44.639054,2674 6.953308,44.639026,2673 6.953350,44.639006,2672 6.953355,44.638996,2671 6.953389,44.639030,2670 6.953419,44.639105,2668 6.953455,44.639137,2667 6.953472,44.639235,2667 6.953500,44.639298,2666 6.953601,44.639320,2665 6.953624,44.639338,2665 6.953629,44.639403,2665 6.953785,44.639419,2665 6.953922,44.639494,2664 6.953916,44.639511,2664 6.953917,44.639502,2663 6.953948,44.639489,2662 6.954131,44.639493,2661 6.954198,44.639516,2662 6.954381,44.639526,2662 6.954517,44.639545,2661 6.954597,44.639565,2659 6.954698,44.639603,2659 6.954713,44.639663,2658 6.954818,44.639709,2657 6.954911,44.639732,2656 6.954979,44.639791,2657 6.954940,44.639912,2656 6.954898,44.640002,2655 6.954814,44.640132,2654 6.954824,44.640168,2653 6.954860,44.640265,2652 6.954811,44.640392,2652 6.954780,44.640624,2652 6.954809,44.640745,2651 6.954801,44.640850,2652 6.954928,44.640890,2651 6.955066,44.640866,2650 6.955132,44.640839,2650 6.955126,44.640846,2650 6.955178,44.640929,2650 6.955269,44.640998,2651 6.955335,44.641066,2652 6.955347,44.641107,2652 6.955363,44.641134,2653 6.955378,44.641159,2654 6.955415,44.641217,2654 6.955400,44.641273,2653 6.955372,44.641360,2652 6.955363,44.641436,2651 6.955299,44.641612,2651 6.955272,44.641659,2652 6.955222,44.641706,2653 6.955241,44.641737,2654 6.955196,44.641791,2654 6.955219,44.641746,2654 6.955348,44.641711,2654 6.955506,44.641772,2656 6.955584,44.641870,2656 6.955658,44.641938,2656 6.955828,44.642066,2657 6.955812,44.642138,2658 6.955794,44.642220,2658 6.955806,44.642269,2659 6.955985,44.642344,2660 6.956033,44.642363,2660 6.956110,44.642434,2659 6.956115,44.642473,2658 6.956135,44.642447,2656 6.956193,44.642425,2655 6.956207,44.642351,2654 6.956234,44.642357,2654 6.956233,44.642342,2652 6.956240,44.642359,2651 6.956248,44.642346,2650 6.956244,44.642387,2649 6.956254,44.642428,2648 6.956276,44.642532,2647 6.956272,44.642510,2647 6.956267,44.642544,2647 6.956281,44.642521,2647 6.956285,44.642477,2647 6.956435,44.642564,2648 6.956493,44.642573,2649 6.956507,44.642561,2651 6.956532,44.642556,2652 6.956509,44.642591,2652 6.956544,44.642591,2652 6.956515,44.642615,2654 6.956465,44.642607,2655 6.956476,44.642612,2656 6.956494,44.642632,2657 6.956516,44.642662,2657 6.956575,44.642654,2658 6.956645,44.642683,2658 6.956713,44.642691,2659 6.956763,44.642767,2659 6.956769,44.642766,2659 6.956821,44.642856,2660 6.956853,44.642977,2660 6.956847,44.642987,2661 6.956852,44.642984,2661 6.956880,44.643110,2661 6.956908,44.643105,2662 6.956981,44.643133,2662 6.957070,44.643192,2662 6.957169,44.643245,2661 6.957212,44.643251,2661 6.957217,44.643248,2661 6.957273,44.643322,2660 6.957405,44.643364,2660 6.957480,44.643381,2659 6.957509,44.643400,2658 6.957530,44.643396,2657 6.957583,44.643404,2654 6.957617,44.643414,2653 6.957664,44.643421,2652 6.957638,44.643420,2652 6.957638,44.643418,2652 6.957607,44.643420,2652 6.957595,44.643428,2653 6.957607,44.643421,2653 6.957572,44.643431,2654 6.957525,44.643424,2656 6.957471,44.643405,2658 6.957442,44.643405,2659 6.957383,44.643411,2660 6.957272,44.643352,2661 6.957189,44.643298,2661 6.957157,44.643275,2662 6.957132,44.643268,2662 6.957130,44.643262,2663 6.957132,44.643259,2664 6.957149,44.643262,2664 6.957148,44.643240,2664 6.957148,44.643260,2663 6.957143,44.643259,2663 6.957133,44.643269,2662 6.957133,44.643271,2662 6.957137,44.643269,2662 6.957135,44.643254,2662 6.957146,44.643255,2661 6.957154,44.643258,2661 6.957164,44.643250,2661 6.957162,44.643242,2661 6.957096,44.643246,2661 6.957106,44.643274,2661 6.957140,44.643268,2661 6.957129,44.643258,2661 6.957139,44.643280,2662 6.957130,44.643273,2662 6.957118,44.643261,2662 6.957131,44.643251,2663 6.957138,44.643308,2663 6.957145,44.643380,2664 6.957150,44.643408,2666 6.957173,44.643427,2667 6.957202,44.643514,2669 6.957226,44.643556,2670 6.957228,44.643573,2671 6.957231,44.643630,2672 6.957222,44.643653,2673 6.957272,44.643691,2674 6.957333,44.643771,2675 6.957321,44.643776,2675 6.957249,44.643812,2676 6.957274,44.643815,2676 6.957278,44.643813,2676 6.957276,44.643812,2676 6.957262,44.643817,2676 6.957270,44.643796,2676 6.957249,44.643811,2676 6.957237,44.643822,2676 6.957154,44.643903,2677 6.957034,44.644037,2678 6.956978,44.644069,2679 6.956923,44.644084,2680 6.956911,44.644091,2681 6.956881,44.644134,2683 6.956764,44.644172,2681 6.956643,44.644198,2680 6.956397,44.644309,2681 6.956267,44.644393,2683 6.956163,44.644430,2685 6.956099,44.644449,2686 6.956070,44.644449,2687 6.956043,44.644467,2688 6.956019,44.644489,2689 6.955819,44.644624,2689 6.955748,44.644713,2688 6.955631,44.644781,2689 6.955601,44.644815,2690 6.955596,44.644827,2690 6.955560,44.644834,2691 6.955502,44.644832,2692 6.955400,44.644812,2693 6.955265,44.644775,2694 6.955063,44.644751,2695 6.954955,44.644648,2695 6.954960,44.644696,2695 6.955089,44.644755,2695 6.955111,44.644746,2695 6.955093,44.644738,2695 6.954921,44.644552,2695 6.954811,44.644444,2695 6.954785,44.644423,2695 6.954788,44.644482,2696 6.954796,44.644499,2696 6.954806,44.644496,2697 6.954811,44.644554,2700 6.954827,44.644591,2702 6.954841,44.644616,2703 6.954844,44.644622,2703 6.954837,44.644685,2704 6.954823,44.644681,2704 6.954745,44.644671,2704 6.954715,44.644673,2703 6.954638,44.644687,2703 6.954556,44.644671,2704 6.954550,44.644686,2704 6.954563,44.644732,2705 6.954572,44.644756,2706 6.954577,44.644792,2706 6.954533,44.644812,2708 6.954493,44.644811,2709 6.954450,44.644792,2711 6.954454,44.644896,2712 6.954454,44.644928,2713 6.954441,44.644928,2715 6.954448,44.644929,2715 6.954455,44.644946,2717 6.954456,44.645008,2718 6.954546,44.645036,2719 6.954550,44.645085,2720 6.954463,44.645119,2722 6.954430,44.645156,2723 6.954434,44.645221,2725 6.954446,44.645244,2726 6.954457,44.645316,2727 6.954438,44.645355,2727 6.954293,44.645430,2727 6.954253,44.645540,2728 6.954304,44.645613,2727 6.954329,44.645670,2727 6.954298,44.645805,2728 6.954265,44.645872,2727 6.954219,44.645926,2725 6.954161,44.646024,2724 6.954079,44.646143,2723 6.953969,44.646291,2722 6.953899,44.646426,2722 6.953771,44.646550,2721 6.953701,44.646645,2722 6.953701,44.646685,2723 6.953706,44.646722,2725 6.953722,44.646773,2726 6.953719,44.646791,2726 6.953672,44.646943,2726 6.953686,44.647030,2724 6.953681,44.647215,2724 6.953727,44.647280,2723 6.953757,44.647309,2722 6.953766,44.647375,2721 6.953805,44.647451,2720 6.953860,44.647498,2718 6.953870,44.647542,2717 6.953840,44.647611,2716 6.953803,44.647758,2715 6.953811,44.647875,2714 6.953811,44.647960,2712 6.953901,44.648070,2711 6.953963,44.648133,2710 6.953986,44.648196,2709 6.953954,44.648291,2708 6.953917,44.648360,2707 6.953892,44.648411,2707 6.953892,44.648390,2708 6.954005,44.648466,2707 6.953942,44.648439,2707 6.953830,44.648425,2708 6.953871,44.648502,2707 6.953940,44.648709,2707 6.953950,44.648819,2707 6.953955,44.648916,2707 6.953990,44.649036,2707 6.954022,44.649067,2706 6.954026,44.649137,2706 6.954059,44.649296,2706 6.954087,44.649340,2706 6.954123,44.649420,2705 6.954152,44.649474,2704 6.954166,44.649519,2704 6.954212,44.649620,2703 6.954226,44.649664,2701 6.954242,44.649809,2699 6.954233,44.649845,2698 6.954223,44.649949,2697 6.954232,44.650028,2697 6.954157,44.650137,2697 6.954164,44.650214,2698 6.954142,44.650281,2700 6.954044,44.650405,2700 6.954049,44.650403,2700 6.954083,44.650381,2700 6.954100,44.650471,2698 6.954175,44.650559,2696 6.954267,44.650636,2696 6.954304,44.650764,2698 6.954316,44.650800,2699 6.954310,44.650806,2700 6.954349,44.650890,2700 6.954394,44.650973,2700 6.954410,44.651096,2700 6.954432,44.651140,2701 6.954508,44.651182,2703 6.954553,44.651212,2703 6.954654,44.651270,2705 6.954715,44.651318,2706 6.954717,44.651349,2707 6.954685,44.651353,2708 6.954654,44.651478,2709 6.954620,44.651525,2710 6.954606,44.651552,2711 6.954558,44.651586,2713 6.954540,44.651600,2714 6.954526,44.651664,2714 6.954505,44.651713,2715 6.954463,44.651752,2717 6.954409,44.651822,2717 6.954387,44.651918,2719 6.954409,44.651960,2720 6.954470,44.652029,2721 6.954557,44.652100,2723 6.954601,44.652133,2724 6.954636,44.652178,2725 6.954632,44.652213,2727 6.954618,44.652269,2728 6.954594,44.652321,2729 6.954597,44.652387,2730 6.954625,44.652420,2732 6.954635,44.652453,2733 6.954630,44.652483,2734 6.954582,44.652547,2735 6.954556,44.652565,2736 6.954518,44.652604,2738 6.954498,44.652669,2738 6.954491,44.652698,2739 6.954497,44.652746,2740 6.954520,44.652837,2741 6.954478,44.652871,2742 6.954455,44.652916,2743 6.954430,44.652988,2744 6.954360,44.653043,2745 6.954295,44.653109,2747 6.954299,44.653176,2748 6.954309,44.653171,2748 6.954335,44.653291,2747 6.954408,44.653351,2746 6.954503,44.653378,2746 6.954619,44.653441,2746 6.954666,44.653462,2745 6.954646,44.653418,2746 6.954774,44.653304,2745 6.954986,44.653269,2745 6.955115,44.653200,2746 6.955318,44.653235,2745 6.955420,44.653280,2746 6.955403,44.653338,2745 6.955430,44.653415,2745 6.955496,44.653471,2745 6.955461,44.653439,2745 6.955440,44.653424,2745 6.955464,44.653462,2745 6.955523,44.653543,2746 6.955483,44.653588,2747 6.955446,44.653665,2747 6.955461,44.653761,2748 6.955558,44.653807,2749 6.955654,44.653897,2750 6.955644,44.653986,2750 6.955554,44.654075,2751 6.955468,44.654112,2752 6.955401,44.654126,2753 6.955208,44.654177,2755 6.955110,44.654223,2756 6.955049,44.654300,2757 6.955047,44.654362,2759 6.954988,44.654411,2760 6.954939,44.654473,2762 6.954909,44.654526,2763 6.954902,44.654570,2764 6.954905,44.654614,2765 6.954920,44.654692,2767 6.954937,44.654721,2767 6.954895,44.654796,2769 6.954853,44.654858,2770 6.954850,44.654931,2771 6.954818,44.654976,2772 6.954806,44.655028,2773 6.954817,44.655070,2774 6.954827,44.655117,2774 6.954793,44.655201,2776 6.954739,44.655245,2777 6.954697,44.655288,2778 6.954679,44.655379,2779 6.954669,44.655450,2780 6.954631,44.655507,2781 6.954614,44.655529,2782 6.954594,44.655565,2782 6.954519,44.655590,2783 6.954408,44.655683,2784 6.954296,44.655741,2785 6.954215,44.655786,2786 6.954135,44.655814,2788 6.954032,44.655813,2789 6.953956,44.655822,2790 6.953906,44.655839,2791 6.953826,44.655909,2792 6.953750,44.655990,2793 6.953692,44.656086,2792 6.953575,44.656247,2793 6.953557,44.656300,2794 6.953556,44.656313,2794 6.953514,44.656332,2793 6.953559,44.656296,2792 6.953555,44.656286,2792 6.953522,44.656291,2792 6.953553,44.656300,2793 6.953550,44.656297,2794 6.953540,44.656324,2794 6.953565,44.656308,2795 6.953561,44.656310,2795 6.953524,44.656301,2795 6.953536,44.656295,2796 6.953547,44.656301,2796 6.953553,44.656303,2796 6.953546,44.656292,2796 6.953495,44.656335,2796 6.953525,44.656308,2796 6.953551,44.656324,2796 6.953545,44.656324,2797 6.953566,44.656349,2797 6.953611,44.656460,2798 6.953653,44.656548,2798 6.953664,44.656576,2799 6.953684,44.656604,2800 6.953730,44.656665,2801 6.953694,44.656662,2802 6.953613,44.656693,2803 6.953571,44.656712,2804 6.953575,44.656740,2806 6.953547,44.656801,2807 6.953512,44.656845,2808 6.953483,44.656866,2809 6.953458,44.656874,2810 6.953432,44.656876,2811 6.953397,44.656906,2812 6.953382,44.656927,2813 6.953323,44.656957,2814 6.953294,44.656978,2815 6.953279,44.656985,2816 6.953238,44.656992,2817 6.953168,44.656993,2819 6.953112,44.656992,2820 6.953102,44.657037,2821 6.953096,44.657060,2821 6.953095,44.657068,2822 6.953097,44.657091,2822 6.953078,44.657117,2824 6.953076,44.657134,2824 6.953069,44.657156,2825 6.953050,44.657188,2826 6.953082,44.657232,2828 6.953145,44.657264,2829 6.953170,44.657277,2831 6.953213,44.657311,2832 6.953237,44.657343,2833 6.953267,44.657382,2834 6.953297,44.657415,2837 6.953289,44.657458,2837 6.953269,44.657496,2838 6.953290,44.657535,2839 6.953323,44.657568,2840 6.953351,44.657606,2841 6.953341,44.657640,2842 6.953325,44.657672,2844 6.953328,44.657681,2845 6.953350,44.657725,2846 6.953371,44.657758,2847 6.953394,44.657774,2848 6.953404,44.657776,2849 6.953401,44.657802,2851 6.953396,44.657838,2852 6.953399,44.657853,2854 6.953412,44.657873,2855 6.953428,44.657901,2857 6.953434,44.657928,2858 6.953412,44.657937,2859 6.953402,44.657970,2860 6.953400,44.657986,2862 6.953400,44.657985,2863 6.953377,44.657998,2864 6.953342,44.658015,2866 6.953303,44.658033,2867 6.953288,44.658065,2868 6.953284,44.658101,2869 6.953288,44.658127,2871 6.953324,44.658221,2872 6.953356,44.658256,2872 6.953420,44.658272,2873 6.953464,44.658318,2874 6.953525,44.658360,2876 6.953539,44.658374,2877 6.953568,44.658394,2878 6.953637,44.658442,2879 6.953687,44.658480,2880 6.953774,44.658539,2880 6.953771,44.658552,2880 6.953761,44.658540,2880 6.953758,44.658557,2880 6.953760,44.658554,2880 6.953766,44.658567,2879 6.953782,44.658650,2879 6.953833,44.658847,2880 6.953968,44.658955,2880 6.954057,44.659006,2881 6.954088,44.659097,2882 6.954137,44.659127,2883 6.954171,44.659123,2883 6.954082,44.659125,2883 6.954118,44.659199,2884 6.954132,44.659306,2886 6.954166,44.659341,2887 6.954154,44.659427,2890 6.954161,44.659459,2890 6.954191,44.659509,2890 6.954200,44.659604,2891 6.954193,44.659647,2892 6.954178,44.659686,2893 6.954197,44.659767,2894 6.954276,44.659951,2895 6.954347,44.660021,2896 6.954360,44.660055,2897 6.954367,44.660112,2899 6.954377,44.660160,2900 6.954322,44.660205,2901 6.954328,44.660239,2903 6.954316,44.660239,2903 6.954316,44.660250,2903 6.954327,44.660249,2903 6.954352,44.660240,2903 6.954358,44.660240,2903 6.954358,44.660247,2903 6.954350,44.660247,2903 6.954381,44.660238,2903 6.954338,44.660261,2903 6.954339,44.660270,2903 6.954377,44.660273,2903 6.954394,44.660289,2904 6.954392,44.660281,2903 6.954385,44.660277,2903 6.954393,44.660287,2903 6.954422,44.660261,2902 6.954436,44.660270,2902 6.954427,44.660273,2901 6.954456,44.660261,2901 6.954460,44.660277,2901 6.954423,44.660278,2901 6.954415,44.660271,2900 6.954432,44.660268,2900 6.954435,44.660276,2900 6.954445,44.660260,2900 6.954457,44.660254,2900 6.954449,44.660274,2900 6.954374,44.660287,2899 6.954394,44.660278,2899 6.954435,44.660261,2898 6.954397,44.660295,2898 6.954420,44.660314,2897 6.954425,44.660261,2897 6.954445,44.660269,2896 6.954426,44.660281,2898 6.954434,44.660272,2898 6.954378,44.660285,2897 6.954384,44.660288,2897 6.954444,44.660269,2897 6.954435,44.660306,2897 6.954433,44.660281,2897 6.954395,44.660286,2897 6.954441,44.660278,2897 6.954419,44.660291,2897 6.954428,44.660288,2897 6.954389,44.660262,2897 6.954413,44.660307,2897 6.954425,44.660319,2897 6.954379,44.660293,2897 6.954417,44.660312,2897 6.954396,44.660307,2897 6.954379,44.660311,2897 6.954357,44.660307,2897 6.954390,44.660294,2897 6.954385,44.660307,2897 6.954361,44.660313,2897 6.954389,44.660320,2896 6.954378,44.660319,2896 6.954389,44.660297,2896 6.954396,44.660277,2897 6.954388,44.660263,2896 6.954388,44.660286,2896 6.954396,44.660288,2896 6.954402,44.660276,2897 6.954425,44.660270,2897 6.954420,44.660289,2896 6.954443,44.660270,2897 6.954392,44.660285,2896 6.954358,44.660284,2896 6.954369,44.660265,2896 6.954396,44.660288,2897 6.954389,44.660288,2897 6.954389,44.660267,2897 6.954381,44.660273,2897 6.954386,44.660261,2897 6.954389,44.660276,2897 6.954386,44.660278,2897 6.954387,44.660259,2897 6.954473,44.660291,2898 6.954522,44.660314,2899 6.954562,44.660331,2900 6.954597,44.660357,2901 6.954605,44.660388,2902 6.954674,44.660430,2903 6.954724,44.660451,2904 6.954762,44.660490,2905 6.954852,44.660528,2906 6.954875,44.660536,2908 6.954933,44.660556,2909 6.954970,44.660578,2910 6.954980,44.660592,2911 6.955016,44.660626,2912 6.955055,44.660649,2913 6.955083,44.660671,2914 6.955150,44.660710,2915 6.955200,44.660747,2916 6.955235,44.660773,2918 6.955276,44.660819,2919 6.955327,44.660875,2920 6.955351,44.660889,2921 6.955380,44.660933,2922 6.955451,44.660981,2923 6.955499,44.661026,2924 6.955532,44.661039,2926 6.955523,44.661105,2926 6.955523,44.661175,2927 6.955541,44.661209,2927 6.955577,44.661245,2928 6.955616,44.661250,2929 6.955645,44.661262,2931 6.955695,44.661273,2933 6.955709,44.661278,2934 6.955735,44.661333,2935 6.955744,44.661343,2935 6.955801,44.661362,2936 6.955911,44.661400,2937 6.955952,44.661413,2938 6.955955,44.661409,2938 6.955996,44.661428,2939 6.956068,44.661459,2940 6.956113,44.661512,2941 6.956158,44.661576,2942 6.956159,44.661621,2942 6.956208,44.661663,2944 6.956254,44.661722,2945 6.956275,44.661785,2946 6.956327,44.661816,2947 6.956351,44.661835,2949 6.956404,44.661865,2950 6.956412,44.661871,2950 6.956449,44.661902,2951 6.956498,44.661906,2953 6.956548,44.661921,2954 6.956579,44.661948,2955 6.956615,44.661972,2956 6.956651,44.662002,2958 6.956663,44.662044,2959 6.956723,44.662079,2960 6.956752,44.662103,2961 6.956749,44.662165,2962 6.956774,44.662170,2963 6.956809,44.662188,2963 6.956863,44.662225,2964 6.956912,44.662269,2965 6.956968,44.662285,2966 6.956960,44.662274,2966 6.956972,44.662299,2966 6.956963,44.662287,2966 6.956953,44.662311,2966 6.956987,44.662316,2966 6.957033,44.662348,2967 6.957070,44.662337,2967 6.957055,44.662319,2967 6.957047,44.662380,2967 6.957090,44.662417,2967 6.957182,44.662478,2969 6.957205,44.662502,2970 6.957290,44.662585,2970 6.957318,44.662591,2971 6.957340,44.662641,2972 6.957357,44.662711,2973 6.957376,44.662804,2974 6.957396,44.662883,2975 6.957469,44.662912,2976 6.957644,44.662995,2977 6.957761,44.663032,2978 6.957982,44.663046,2978 6.958109,44.663096,2978 6.958195,44.663110,2979 6.958225,44.663113,2981 6.958260,44.663115,2982 6.958269,44.663114,2983 6.958288,44.663120,2984 6.958356,44.663146,2986 6.958399,44.663174,2987 6.958427,44.663196,2989 6.958444,44.663208,2990 6.958515,44.663241,2991 6.958544,44.663240,2993 6.958556,44.663247,2993 6.958575,44.663258,2994 6.958604,44.663291,2995 6.958630,44.663301,2996 6.958686,44.663319,2998 6.958685,44.663349,2999 6.958696,44.663371,2999 6.958744,44.663427,3001 6.958738,44.663442,3002 6.958790,44.663501,3003 6.958868,44.663553,3006 6.958913,44.663598,3007 6.958899,44.663628,3007 6.958876,44.663689,3006 6.958862,44.663692,3005 6.958799,44.663726,3004 6.958756,44.663766,3003 6.958736,44.663791,3002 6.958712,44.663848,3002 6.958719,44.663871,3002 6.958739,44.663906,3003 6.958750,44.663891,3004 6.958781,44.663909,3005 6.958794,44.663915,3006 6.958767,44.663951,3007 6.958817,44.663948,3008 6.958818,44.663948,3008 6.958837,44.663948,3010 6.958848,44.663937,3011 6.958873,44.663975,3012 6.958895,44.663983,3013 6.958923,44.663953,3014 6.958918,44.663984,3014 6.958942,44.664001,3015 6.958936,44.664003,3015 6.958921,44.664058,3016 6.958904,44.664092,3015 6.958888,44.664124,3014 6.958874,44.664150,3013 6.958883,44.664140,3013 6.958885,44.664130,3012 6.958841,44.664120,3011 6.958835,44.664129,3011 6.958901,44.664120,3012 6.958931,44.664138,3011 6.958900,44.664169,3011 6.958887,44.664162,3010 6.958876,44.664152,3010 6.958846,44.664153,3010 6.958892,44.664106,3010 6.958857,44.664121,3010 6.958867,44.664116,3009 6.958873,44.664121,3008 6.958857,44.664127,3008 6.958847,44.664106,3008 6.958863,44.664121,3008 6.958868,44.664119,3007 6.958851,44.664118,3007 6.958857,44.664106,3006 6.958881,44.664098,3006 6.958892,44.664118,3006 6.958861,44.664113,3006 6.958853,44.664148,3006 6.958914,44.664138,3005 6.958876,44.664159,3005 6.958842,44.664125,3006 6.958861,44.664133,3005 6.958834,44.664112,3005 6.958836,44.664138,3005 6.958866,44.664129,3005 6.958882,44.664130,3005 6.958856,44.664124,3005 6.958856,44.664134,3004 6.958847,44.664154,3004 6.958839,44.664166,3004 6.958877,44.664127,3004 6.958899,44.664128,3004 6.958909,44.664161,3004 6.958874,44.664132,3003 6.958897,44.664129,3003 6.958877,44.664138,3003 6.958876,44.664135,3003 6.958878,44.664153,3003 6.958859,44.664134,3003 6.958868,44.664123,3002 6.958874,44.664115,3002 6.958866,44.664111,3002 6.958904,44.664139,3002 6.958870,44.664127,3001 6.958877,44.664132,3001 6.958862,44.664115,3001 6.958859,44.664102,3001 6.958857,44.664104,3001 6.958875,44.664130,3001 6.958882,44.664118,3000 6.958885,44.664127,3000 6.958874,44.664116,3000 6.958862,44.664124,3000 6.958908,44.664147,2999 6.958890,44.664140,2999 6.958856,44.664137,2998 6.958861,44.664136,2998 6.958872,44.664131,2998 6.958879,44.664129,2998 6.958876,44.664124,2998 6.958886,44.664132,2998 6.958890,44.664134,2998 6.958887,44.664139,2998 6.958876,44.664116,2998 6.958886,44.664119,2998 6.958863,44.664148,2998 6.958874,44.664139,2998 6.958874,44.664120,2998 6.958878,44.664128,2998 6.958906,44.664176,2999 6.958907,44.664155,2999 6.958904,44.664158,2999 6.958897,44.664142,2999 6.958878,44.664158,2999 6.958880,44.664155,2999 6.958893,44.664164,2999 6.958884,44.664216,2997 6.958868,44.664257,2996 6.958882,44.664305,2996 6.958856,44.664339,2995 6.958855,44.664348,2994 6.958863,44.664458,2995 6.958882,44.664540,2996 6.958872,44.664595,2998 6.958850,44.664645,2999 6.958849,44.664667,2999 6.958897,44.664681,3001 6.958945,44.664704,3002 6.958991,44.664724,3003 6.958996,44.664752,3004 6.958978,44.664767,3005 6.958994,44.664795,3006 6.959025,44.664789,3007 6.959040,44.664809,3008 6.959093,44.664850,3009 6.959114,44.664890,3010 6.959208,44.664881,3011 6.959224,44.664905,3012 6.959256,44.664909,3013 6.959293,44.664887,3014 6.959293,44.664886,3015 6.959328,44.664872,3016 6.959332,44.664855,3017 6.959295,44.664818,3019 6.959261,44.664806,3020 6.959255,44.664775,3021 6.959140,44.664643,3020 6.959147,44.664617,3022 6.959180,44.664675,3021 6.959218,44.664700,3023 6.959249,44.664707,3024 6.959261,44.664701,3024 6.959291,44.664704,3025 6.959367,44.664750,3026 6.959391,44.664745,3027 6.959472,44.664813,3028 6.959480,44.664812,3029 6.959499,44.664812,3029 6.959522,44.664796,3031 6.959511,44.664731,3032 6.959491,44.664709,3033 6.959497,44.664736,3033 6.959473,44.664741,3033 6.959488,44.664734,3033 6.959480,44.664726,3034 6.959479,44.664734,3033 6.959481,44.664751,3033 6.959496,44.664734,3034 6.959484,44.664745,3033 6.959470,44.664738,3034 6.959489,44.664737,3034 6.959479,44.664764,3034 6.959506,44.664792,3033 6.959487,44.664781,3032 6.959469,44.664808,3031 6.959410,44.664778,3030 6.959353,44.664781,3030 6.959331,44.664723,3029 6.959325,44.664694,3028 6.959305,44.664696,3028 6.959313,44.664714,3028 6.959318,44.664696,3027 6.959311,44.664708,3027 6.959286,44.664709,3026 6.959293,44.664717,3025 6.959169,44.664742,3022 6.959142,44.664742,3021 6.959175,44.664716,3020 6.959269,44.664819,3018 6.959284,44.664835,3018 6.959311,44.664857,3016 6.959315,44.664862,3015 6.959333,44.664877,3014 6.959408,44.664859,3014 6.959365,44.664881,3014 6.959360,44.664865,3013 6.959315,44.664862,3012 6.959288,44.664857,3011 6.959265,44.664870,3009 6.959252,44.664890,3008 6.959238,44.664901,3007 6.959222,44.664854,3006 6.959169,44.664858,3005 6.959162,44.664962,3006 6.959190,44.665018,3007 6.959263,44.665041,3008 6.959277,44.665117,3006 6.959277,44.665157,3005 6.959272,44.665195,3004 6.959312,44.665234,3002 6.959348,44.665266,3001 6.959366,44.665302,3000 6.959420,44.665379,3000 6.959499,44.665411,2999 6.959577,44.665475,2999 6.959704,44.665499,2999 6.959674,44.665508,2998 6.959639,44.665502,2996 6.959632,44.665508,2996 6.959626,44.665548,2995 6.959617,44.665546,2994 6.959594,44.665565,2992 6.959613,44.665546,2992 6.959625,44.665570,2991 6.959627,44.665623,2990 6.959599,44.665585,2989 6.959642,44.665574,2988 6.959632,44.665576,2987 6.959588,44.665564,2986 6.959590,44.665591,2985 6.959620,44.665609,2984 6.959631,44.665640,2984 6.959659,44.665656,2983 6.959767,44.665680,2983 6.959836,44.665701,2982 6.959888,44.665739,2982 6.959909,44.665758,2980 6.959884,44.665817,2981 6.959802,44.665811,2978 6.959756,44.665804,2977 6.959697,44.665811,2976 6.959666,44.665797,2974 6.959620,44.665788,2973 6.959555,44.665779,2971 6.959523,44.665776,2970 6.959456,44.665761,2968 6.959397,44.665766,2966 6.959388,44.665747,2965 6.959357,44.665746,2964 6.959352,44.665721,2962 6.959316,44.665724,2961 6.959200,44.665714,2959 6.959141,44.665709,2960 6.959079,44.665685,2963 6.959050,44.665670,2964 6.959026,44.665662,2966 6.958966,44.665625,2966 6.958949,44.665601,2965 6.958942,44.665596,2964 6.958951,44.665559,2965 6.958916,44.665566,2965 6.958897,44.665582,2965 6.958906,44.665584,2964 6.958906,44.665579,2964 6.958890,44.665604,2963 6.958873,44.665569,2962 6.958808,44.665562,2961 6.958822,44.665557,2960 6.958848,44.665545,2961 6.958853,44.665540,2960 6.958781,44.665595,2960 6.958802,44.665559,2960 6.958815,44.665564,2960 6.958780,44.665565,2960 6.958771,44.665563,2959 6.958764,44.665567,2958 6.958734,44.665565,2957 6.958736,44.665559,2956 6.958718,44.665519,2955 6.958690,44.665541,2953 6.958669,44.665586,2953 6.958671,44.665608,2953 6.958669,44.665597,2953 6.958669,44.665597,2953 6.958669,44.665597,2953 6.958652,44.665602,2953 6.958684,44.665567,2953 6.958697,44.665575,2953 6.958661,44.665596,2952 6.958690,44.665597,2953 6.958679,44.665589,2952 6.958683,44.665584,2952 6.958645,44.665630,2952 6.958671,44.665604,2951 6.958656,44.665634,2951 6.958666,44.665673,2950 6.958707,44.665685,2949 6.958768,44.665704,2948 6.958802,44.665715,2947 6.958836,44.665749,2945 6.958864,44.665781,2945 6.958873,44.665809,2946 6.958867,44.665812,2945 6.958883,44.665832,2944 6.958860,44.665815,2943 6.958797,44.665758,2943 6.958750,44.665826,2941 6.958710,44.665891,2941 6.958720,44.665935,2940 6.958769,44.665999,2939 6.958765,44.666015,2938 6.958742,44.666031,2937 6.958732,44.666074,2934 6.958804,44.666207,2934 6.958834,44.666264,2933 6.958858,44.666312,2932 6.958833,44.666421,2933 6.958803,44.666453,2934 6.958804,44.666477,2934 6.958805,44.666519,2933 6.958731,44.666598,2932 6.958700,44.666648,2931 6.958652,44.666730,2930 6.958497,44.666889,2928 6.958500,44.666943,2930 6.958476,44.667022,2932 6.958401,44.667085,2933 6.958382,44.667096,2934 6.958380,44.667124,2935 6.958354,44.667161,2937 6.958323,44.667171,2938 6.958264,44.667277,2939 6.958229,44.667323,2940 6.958219,44.667359,2941 6.958209,44.667383,2943 6.958232,44.667442,2944 6.958258,44.667562,2942 6.958233,44.667593,2941 6.958218,44.667596,2940 6.958239,44.667599,2940 6.958259,44.667629,2939 6.958254,44.667659,2937 6.958182,44.667724,2936 6.958183,44.667751,2934 6.958250,44.667779,2933 6.958236,44.667818,2932 6.958191,44.667831,2930 6.958146,44.667859,2929 6.958181,44.667868,2927 6.958257,44.667901,2925 6.958285,44.667939,2924 6.958313,44.667960,2923 6.958346,44.667964,2921 6.958366,44.667999,2919 6.958396,44.668026,2918 6.958410,44.668038,2917 6.958417,44.668070,2916 6.958490,44.668072,2915 6.958524,44.668122,2913 6.958530,44.668133,2911 6.958549,44.668159,2910 6.958614,44.668218,2908 6.958656,44.668215,2907 6.958734,44.668228,2906 6.958709,44.668261,2905 6.958727,44.668305,2904 6.958713,44.668353,2902 6.958654,44.668375,2901 6.958634,44.668388,2900 6.958642,44.668412,2898 6.958626,44.668458,2896 6.958554,44.668498,2894 6.958519,44.668514,2893 6.958540,44.668545,2892 6.958489,44.668603,2889 6.958414,44.668691,2887 6.958340,44.668694,2886 6.958306,44.668687,2885 6.958279,44.668718,2884 6.958296,44.668751,2883 6.958272,44.668798,2881 6.958217,44.668858,2879 6.958134,44.668985,2878 6.958063,44.669011,2877 6.958013,44.669011,2876 6.957982,44.669038,2875 6.957929,44.669084,2874 6.957923,44.669163,2874 6.957890,44.669289,2873 6.957813,44.669402,2871 6.957760,44.669451,2870 6.957764,44.669507,2869 6.957759,44.669569,2868 6.957727,44.669575,2867 6.957751,44.669644,2867 6.957726,44.669710,2867 6.957715,44.669804,2866 6.957780,44.669790,2865 6.957819,44.669793,2864 6.957830,44.669813,2862 6.957855,44.669890,2861 6.957865,44.669957,2859 6.957913,44.670060,2858 6.957899,44.670149,2857 6.957874,44.670272,2856 6.957917,44.670338,2855 6.957923,44.670383,2853 6.957897,44.670507,2852 6.957985,44.670623,2852 6.958023,44.670718,2852 6.958061,44.670806,2851 6.958052,44.670905,2850 6.958049,44.670985,2848 6.958047,44.671019,2847 6.958038,44.671067,2845 6.957993,44.671163,2845 6.958008,44.671306,2842 6.957985,44.671387,2841 6.957958,44.671472,2840 6.957936,44.671637,2839 6.957994,44.671694,2838 6.957995,44.671844,2837 6.958057,44.671927,2838 6.958127,44.672030,2838 6.958191,44.672188,2837 6.958179,44.672318,2837 6.958165,44.672360,2837 6.958105,44.672453,2836 6.958124,44.672411,2837 6.958108,44.672449,2837 6.958133,44.672411,2837 6.958126,44.672427,2837 6.958168,44.672417,2838 6.958210,44.672415,2838 6.958337,44.672517,2838 6.958378,44.672606,2838 6.958401,44.672654,2839 6.958448,44.672691,2840 6.958482,44.672706,2840 6.958518,44.672744,2842 6.958534,44.672761,2843 6.958552,44.672825,2844 6.958607,44.672974,2844 6.958707,44.673041,2846 6.958770,44.673082,2847 6.958783,44.673134,2848 6.958822,44.673203,2849 6.958847,44.673260,2850 6.958832,44.673408,2850 6.958814,44.673499,2852 6.958772,44.673628,2851 6.958721,44.673763,2851 6.958611,44.673927,2850 6.958521,44.674063,2849 6.958469,44.674168,2847 6.958436,44.674238,2846 6.958384,44.674335,2845 6.958368,44.674337,2844 6.958348,44.674415,2843 6.958307,44.674511,2842 6.958247,44.674623,2841 6.958093,44.674768,2841 6.958056,44.674800,2842 6.958026,44.674800,2843 6.958009,44.674846,2844 6.957974,44.674944,2845 6.957947,44.675022,2845 6.957939,44.675131,2846 6.957873,44.675263,2845 6.957833,44.675344,2845 6.957787,44.675509,2844 6.957823,44.675611,2847 6.957858,44.675717,2848 6.957828,44.675769,2849 6.957783,44.675858,2850 6.957807,44.675925,2851 6.957810,44.675963,2852 6.957787,44.676025,2852 6.957802,44.676058,2854 6.957807,44.676119,2855 6.957779,44.676213,2856 6.957751,44.676263,2856 6.957689,44.676280,2856 6.957702,44.676304,2857 6.957699,44.676340,2858 6.957674,44.676432,2859 6.957596,44.676617,2860 6.957594,44.676688,2860 6.957567,44.676757,2862 6.957530,44.676826,2862 6.957400,44.677031,2862 6.957367,44.677172,2863 6.957359,44.677230,2862 6.957383,44.677307,2861 6.957315,44.677363,2859 6.957292,44.677443,2858 6.957258,44.677546,2857 6.957214,44.677671,2856 6.957298,44.677853,2855 6.957337,44.677911,2856 6.957371,44.678051,2857 6.957416,44.678161,2857 6.957489,44.678237,2857 6.957536,44.678289,2858 6.957603,44.678382,2859 6.957625,44.678446,2859 6.957645,44.678492,2860 6.957677,44.678520,2861 6.957750,44.678656,2862 6.957728,44.678753,2862 6.957754,44.678963,2863 6.957733,44.679085,2864 6.957762,44.679097,2865 6.957790,44.679133,2866 6.957835,44.679178,2867 6.957829,44.679224,2868 6.957793,44.679312,2866 6.957814,44.679391,2867 6.957807,44.679582,2865 6.957854,44.679697,2865 6.957905,44.679816,2866 6.957940,44.679893,2867 6.957973,44.679950,2868 6.957963,44.680042,2868 6.958002,44.680117,2869 6.958019,44.680184,2870 6.958090,44.680317,2871 6.958127,44.680384,2873 6.958146,44.680428,2874 6.958172,44.680493,2876 6.958232,44.680582,2877 6.958303,44.680636,2878 6.958335,44.680654,2878 6.958416,44.680815,2879 6.958484,44.680878,2880 6.958543,44.680930,2881 6.958561,44.680948,2881 6.958669,44.681104,2882 6.958768,44.681211,2882 6.958806,44.681267,2883 6.958896,44.681335,2883 6.959004,44.681430,2884 6.959038,44.681515,2885 6.959008,44.681550,2886 6.959042,44.681538,2886 6.959051,44.681544,2887 6.959051,44.681546,2887 6.959143,44.681590,2885 6.959231,44.681586,2883 6.959377,44.681581,2881 6.959488,44.681576,2880 6.959598,44.681593,2879 6.959704,44.681611,2878 6.959808,44.681584,2877 6.959897,44.681619,2877 6.959880,44.681638,2877 6.959902,44.681633,2877 6.959885,44.681642,2877 6.959894,44.681650,2877 6.959895,44.681677,2877 6.959878,44.681629,2876 6.959883,44.681629,2876 6.959913,44.681664,2876 6.959872,44.681653,2876 6.959862,44.681669,2876 6.959860,44.681654,2877 6.959818,44.681659,2877 6.959834,44.681638,2877 6.959837,44.681642,2876 6.959806,44.681645,2877 6.959812,44.681645,2876 6.959825,44.681643,2877 6.959836,44.681667,2877 6.959816,44.681667,2876 6.959819,44.681625,2876 6.959828,44.681641,2876 6.959885,44.681663,2877 6.959819,44.681666,2876 6.959834,44.681649,2876 6.959871,44.681656,2876 6.959862,44.681651,2876 6.959829,44.681658,2877 6.959831,44.681654,2877 6.959822,44.681677,2877 6.959859,44.681691,2876 6.959861,44.681690,2877 6.959880,44.681644,2877 6.959868,44.681673,2877 6.959836,44.681684,2876 6.959844,44.681689,2876 6.959836,44.681680,2876 6.959875,44.681694,2877 6.959858,44.681677,2877 6.959860,44.681674,2876 6.959860,44.681683,2876 6.959888,44.681687,2876 6.959881,44.681682,2877 6.959877,44.681675,2877 6.959916,44.681657,2877 6.959880,44.681653,2877</coordinates></LineString></Placemark></Document></kml>