<?xml version="1.0" encoding="UTF-8"?>
<kml xmlns="http://www.opengis.net/kml/2.2"><Document><name>Alta Linea Continua – Stage 11: Colle Longue to Lac Chaffour</name><Style id="l"><LineStyle><color>ff2b30c4</color><width>4</width></LineStyle></Style><Placemark><name>Alta Linea Continua – Stage 11: Colle Longue to Lac Chaffour</name><styleUrl>#l</styleUrl><LineString><tessellate>1</tessellate><altitudeMode>clampToGround</altitudeMode><coordinates>7.032361,44.225487,2417 7.032348,44.225499,2418 7.032330,44.225559,2419 7.032328,44.225593,2420 7.032334,44.225648,2421 7.032327,44.225692,2422 7.032313,44.225745,2423 7.032302,44.225748,2423 7.032263,44.225805,2424 7.032220,44.225882,2426 7.032209,44.225906,2427 7.032226,44.225934,2428 7.032223,44.225980,2429 7.032212,44.226002,2430 7.032217,44.226026,2431 7.032222,44.226053,2432 7.032236,44.226090,2433 7.032146,44.226185,2434 7.031955,44.226321,2434 7.031828,44.226460,2435 7.031659,44.226623,2435 7.031563,44.226680,2435 7.031394,44.226789,2435 7.031296,44.226925,2436 7.031259,44.227041,2436 7.031249,44.227063,2436 7.031168,44.227162,2437 7.031122,44.227195,2438 7.031082,44.227241,2438 7.031066,44.227366,2439 7.030943,44.227519,2439 7.030895,44.227583,2440 7.030848,44.227639,2441 7.030779,44.227710,2442 7.030714,44.227743,2443 7.030678,44.227836,2443 7.030692,44.227990,2443 7.030769,44.228082,2444 7.030746,44.228176,2445 7.030752,44.228227,2446 7.030774,44.228236,2447 7.030817,44.228247,2448 7.030831,44.228272,2450 7.030815,44.228296,2450 7.030839,44.228290,2450 7.030921,44.228308,2451 7.030988,44.228320,2452 7.031021,44.228298,2453 7.031112,44.228277,2454 7.031137,44.228333,2455 7.031160,44.228374,2456 7.031132,44.228404,2458 7.031082,44.228445,2459 7.031051,44.228489,2460 7.031058,44.228525,2461 7.031071,44.228558,2462 7.031070,44.228573,2464 7.031073,44.228583,2465 7.031065,44.228632,2466 7.031090,44.228637,2467 7.031073,44.228638,2469 7.031064,44.228652,2470 7.031062,44.228669,2470 7.031101,44.228632,2469 7.031045,44.228648,2469 7.031007,44.228677,2469 7.031048,44.228661,2469 7.031052,44.228664,2469 7.031075,44.228712,2470 7.031049,44.228747,2472 7.031027,44.228762,2473 7.031009,44.228790,2475 7.031020,44.228812,2476 7.031032,44.228836,2477 7.031054,44.228852,2479 7.031046,44.228868,2480 7.031036,44.228910,2482 7.031020,44.228938,2483 7.031019,44.228965,2484 7.030997,44.228988,2485 7.030985,44.229020,2487 7.030980,44.229049,2488 7.030983,44.229081,2489 7.030975,44.229118,2490 7.030979,44.229168,2492 7.030971,44.229204,2493 7.030968,44.229215,2494 7.030976,44.229220,2495 7.030959,44.229260,2496 7.030968,44.229280,2497 7.030963,44.229328,2498 7.030962,44.229353,2499 7.030917,44.229409,2500 7.030923,44.229424,2501 7.030936,44.229431,2502 7.030902,44.229427,2503 7.030888,44.229429,2504 7.030889,44.229453,2505 7.030936,44.229458,2506 7.030930,44.229483,2508 7.030911,44.229532,2509 7.030877,44.229548,2510 7.030843,44.229578,2512 7.030811,44.229620,2513 7.030799,44.229642,2513 7.030800,44.229651,2514 7.030798,44.229667,2515 7.030808,44.229655,2517 7.030789,44.229746,2517 7.030786,44.229782,2518 7.030771,44.229816,2519 7.030769,44.229847,2520 7.030734,44.229867,2521 7.030722,44.229886,2522 7.030686,44.229902,2523 7.030652,44.229927,2524 7.030632,44.229980,2526 7.030611,44.230005,2528 7.030592,44.230033,2528 7.030583,44.230037,2529 7.030554,44.230054,2530 7.030529,44.230078,2531 7.030522,44.230097,2532 7.030497,44.230123,2533 7.030445,44.230172,2535 7.030394,44.230205,2536 7.030360,44.230236,2537 7.030243,44.230322,2539 7.030211,44.230374,2540 7.030170,44.230413,2541 7.030125,44.230444,2542 7.030037,44.230493,2543 7.029848,44.230624,2543 7.029709,44.230740,2543 7.029591,44.230811,2544 7.029577,44.230822,2544 7.029476,44.230877,2546 7.029339,44.230926,2546 7.029264,44.230956,2547 7.029129,44.230970,2547 7.028988,44.230955,2546 7.028908,44.230974,2545 7.028795,44.230989,2545 7.028608,44.231074,2545 7.028442,44.231112,2547 7.028384,44.231120,2548 7.028353,44.231125,2549 7.028309,44.231147,2550 7.028292,44.231171,2551 7.028268,44.231182,2552 7.028268,44.231182,2553 7.028177,44.231179,2553 7.028035,44.231205,2552 7.027893,44.231209,2553 7.027763,44.231190,2554 7.027696,44.231204,2555 7.027589,44.231225,2555 7.027474,44.231181,2556 7.027407,44.231168,2557 7.027347,44.231167,2559 7.027313,44.231154,2560 7.027270,44.231128,2561 7.027316,44.231096,2563 7.027337,44.231084,2564 7.027320,44.231030,2565 7.027275,44.231025,2566 7.027201,44.230991,2567 7.027168,44.230944,2567 7.027052,44.230884,2568 7.027007,44.230873,2568 7.026902,44.230804,2568 7.026788,44.230799,2569 7.026610,44.230843,2570 7.026615,44.230857,2570 7.026604,44.230811,2570 7.026656,44.230854,2569 7.026801,44.230822,2569 7.027007,44.230789,2568 7.027014,44.230750,2567 7.027009,44.230727,2567 7.027021,44.230727,2566 7.027018,44.230735,2567 7.027022,44.230725,2567 7.027015,44.230734,2568 7.027010,44.230724,2568 7.027005,44.230733,2568 7.027030,44.230710,2569 7.027031,44.230713,2568 7.027016,44.230739,2568 7.027017,44.230766,2568 7.026834,44.230816,2569 7.026650,44.230813,2570 7.026608,44.230850,2570 7.026617,44.230860,2570 7.026618,44.230835,2569 7.026613,44.230845,2569 7.026617,44.230845,2569 7.026625,44.230885,2569 7.026625,44.230833,2569 7.026601,44.230848,2570 7.026593,44.230852,2570 7.026611,44.230849,2569 7.026605,44.230861,2569 7.026608,44.230861,2568 7.026611,44.230874,2568 7.026620,44.230853,2568 7.026621,44.230838,2568 7.026585,44.230862,2568 7.026602,44.230858,2568 7.026598,44.230868,2569 7.026612,44.230873,2569 7.026609,44.230882,2570 7.026593,44.230848,2569 7.026603,44.230860,2569 7.026616,44.230861,2570 7.026613,44.230866,2570 7.026608,44.230872,2570 7.026619,44.230874,2570 7.026601,44.230881,2571 7.026581,44.230869,2571 7.026608,44.230850,2572 7.026583,44.230824,2572 7.026622,44.230826,2572 7.026609,44.230860,2572 7.026602,44.230842,2572 7.026620,44.230878,2571 7.026605,44.230860,2572 7.026589,44.230843,2571 7.026576,44.230896,2571 7.026579,44.230897,2571 7.026604,44.230865,2572 7.026615,44.230848,2572 7.026611,44.230827,2572 7.026599,44.230887,2572 7.026599,44.230872,2572 7.026644,44.230834,2572 7.026585,44.230876,2572 7.026591,44.230825,2572 7.026603,44.230821,2572 7.026607,44.230859,2571 7.026604,44.230862,2572 7.026619,44.230850,2572 7.026454,44.230857,2571 7.026379,44.230859,2572 7.026393,44.230843,2572 7.026381,44.230846,2572 7.026380,44.230873,2573 7.026186,44.230839,2574 7.026123,44.230830,2575 7.026056,44.230821,2576 7.025980,44.230809,2576 7.025808,44.230805,2577 7.025739,44.230815,2578 7.025722,44.230825,2578 7.025781,44.230799,2578 7.025872,44.230778,2577 7.026046,44.230807,2577 7.026149,44.230832,2576 7.026221,44.230848,2575 7.026277,44.230912,2576 7.026260,44.230927,2576 7.026233,44.230940,2578 7.026216,44.230963,2579 7.026192,44.230985,2580 7.026149,44.231036,2581 7.026101,44.231052,2582 7.026042,44.231072,2584 7.026006,44.231123,2584 7.025897,44.231198,2587 7.025813,44.231261,2588 7.025755,44.231306,2589 7.025605,44.231366,2590 7.025596,44.231380,2590 7.025558,44.231428,2591 7.025514,44.231478,2592 7.025473,44.231515,2594 7.025403,44.231544,2595 7.025381,44.231578,2596 7.025332,44.231624,2597 7.025276,44.231676,2598 7.025231,44.231712,2600 7.025167,44.231728,2601 7.025125,44.231774,2602 7.025112,44.231829,2603 7.025074,44.231853,2604 7.025005,44.231898,2606 7.024997,44.231922,2607 7.024957,44.231968,2608 7.024941,44.232007,2610 7.024901,44.232048,2612 7.024889,44.232071,2613 7.024877,44.232079,2613 7.024877,44.232079,2613 7.024868,44.232088,2614 7.024862,44.232088,2614 7.024853,44.232085,2614 7.024854,44.232084,2614 7.024866,44.232076,2614 7.024880,44.232096,2614 7.024860,44.232087,2614 7.024863,44.232101,2614 7.024873,44.232093,2614 7.024873,44.232090,2614 7.024863,44.232067,2614 7.024862,44.232083,2614 7.024888,44.232068,2614 7.024855,44.232103,2614 7.024848,44.232097,2614 7.024852,44.232126,2615 7.024838,44.232135,2616 7.024796,44.232144,2617 7.024788,44.232174,2618 7.024770,44.232219,2620 7.024736,44.232249,2622 7.024713,44.232272,2623 7.024687,44.232291,2624 7.024671,44.232317,2624 7.024668,44.232363,2626 7.024640,44.232431,2627 7.024609,44.232461,2628 7.024598,44.232518,2630 7.024587,44.232592,2631 7.024525,44.232755,2632 7.024496,44.232839,2632 7.024461,44.232910,2634 7.024412,44.232975,2635 7.024393,44.233016,2636 7.024379,44.233068,2637 7.024323,44.233118,2638 7.024302,44.233257,2639 7.024285,44.233358,2639 7.024244,44.233465,2640 7.024215,44.233515,2641 7.024212,44.233553,2643 7.024221,44.233592,2644 7.024206,44.233668,2645 7.024198,44.233703,2646 7.024174,44.233744,2647 7.024171,44.233766,2648 7.024178,44.233798,2649 7.024180,44.233864,2651 7.024168,44.233879,2652 7.024171,44.233916,2654 7.024185,44.233939,2655 7.024214,44.233960,2656 7.024216,44.234060,2658 7.024216,44.234092,2659 7.024233,44.234108,2660 7.024268,44.234140,2661 7.024284,44.234200,2663 7.024251,44.234212,2664 7.024205,44.234172,2665 7.024166,44.234148,2666 7.024120,44.234133,2667 7.024100,44.234098,2668 7.024064,44.234114,2670 7.024079,44.234175,2672 7.024083,44.234208,2673 7.024077,44.234226,2674 7.024065,44.234234,2675 7.024037,44.234218,2677 7.023973,44.234196,2679 7.023962,44.234244,2680 7.023969,44.234298,2682 7.023948,44.234308,2683 7.023870,44.234310,2684 7.023817,44.234334,2685 7.023765,44.234354,2687 7.023740,44.234380,2688 7.023694,44.234411,2689 7.023619,44.234423,2691 7.023531,44.234462,2692 7.023453,44.234499,2694 7.023377,44.234503,2694 7.023268,44.234579,2694 7.023190,44.234630,2693 7.023213,44.234629,2693 7.023207,44.234635,2693 7.023190,44.234616,2693 7.023201,44.234606,2694 7.023163,44.234625,2694 7.023108,44.234641,2695 7.023063,44.234658,2696 7.023006,44.234671,2698 7.022955,44.234695,2699 7.022938,44.234706,2700 7.022899,44.234688,2702 7.022870,44.234644,2703 7.022846,44.234609,2704 7.022845,44.234593,2705 7.022821,44.234579,2706 7.022793,44.234566,2707 7.022740,44.234539,2709 7.022688,44.234515,2709 7.022663,44.234474,2710 7.022599,44.234398,2711 7.022498,44.234317,2712 7.022475,44.234258,2713 7.022359,44.234174,2713 7.022314,44.234160,2713 7.022147,44.234072,2714 7.022066,44.234031,2715 7.021938,44.234003,2716 7.021825,44.233878,2716 7.021723,44.233813,2717 7.021586,44.233695,2716 7.021475,44.233576,2716 7.021386,44.233527,2716 7.021248,44.233406,2716 7.021236,44.233393,2715 7.021175,44.233286,2714 7.021013,44.233265,2712 7.020902,44.233243,2711 7.020836,44.233234,2711 7.020812,44.233186,2712 7.020777,44.233154,2714 7.020752,44.233164,2715 7.020720,44.233149,2716 7.020673,44.233177,2717 7.020625,44.233205,2719 7.020630,44.233172,2720 7.020660,44.233114,2721 7.020632,44.233094,2721 7.020606,44.233097,2722 7.020566,44.233080,2723 7.020528,44.233084,2724 7.020526,44.233093,2725 7.020479,44.233078,2728 7.020455,44.233056,2729 7.020373,44.233009,2730 7.020348,44.232925,2730 7.020255,44.232837,2730 7.020225,44.232833,2730 7.020171,44.232816,2732 7.020146,44.232785,2733 7.020109,44.232751,2734 7.020043,44.232721,2735 7.020019,44.232721,2737 7.019950,44.232683,2738 7.019902,44.232615,2739 7.019811,44.232585,2741 7.019726,44.232543,2741 7.019660,44.232514,2742 7.019590,44.232484,2744 7.019546,44.232475,2745 7.019432,44.232490,2748 7.019394,44.232483,2749 7.019377,44.232447,2751 7.019309,44.232426,2752 7.019298,44.232405,2753 7.019242,44.232343,2753 7.019313,44.232339,2752 7.019273,44.232357,2753 7.019239,44.232343,2753 7.019193,44.232336,2753 7.019201,44.232335,2753 7.019193,44.232338,2754 7.019172,44.232336,2753 7.019175,44.232341,2754 7.019190,44.232355,2755 7.019190,44.232355,2755 7.019154,44.232326,2754 7.019167,44.232309,2753 7.019137,44.232308,2753 7.019148,44.232342,2752 7.019170,44.232318,2751 7.019196,44.232315,2751 7.019151,44.232329,2751 7.019146,44.232325,2751 7.019168,44.232261,2751 7.019136,44.232306,2750 7.019158,44.232312,2750 7.019189,44.232373,2749 7.019187,44.232418,2749 7.019167,44.232315,2749 7.019143,44.232298,2749 7.019128,44.232277,2749 7.019158,44.232332,2748 7.019139,44.232284,2748 7.019144,44.232312,2748 7.019143,44.232306,2748 7.019143,44.232308,2747 7.019152,44.232329,2747 7.019151,44.232316,2747 7.019168,44.232302,2747 7.019156,44.232305,2747 7.019164,44.232347,2747 7.019149,44.232320,2748 7.019163,44.232331,2748 7.019161,44.232328,2747 7.019147,44.232337,2747 7.019140,44.232328,2747 7.019149,44.232331,2746 7.019095,44.232362,2746 7.019030,44.232382,2745 7.019024,44.232401,2744 7.019018,44.232410,2743 7.018979,44.232430,2742 7.019024,44.232427,2743 7.019043,44.232391,2745 7.019071,44.232349,2746 7.019053,44.232288,2744 7.019036,44.232288,2744 7.018991,44.232265,2742 7.018951,44.232264,2740 7.018943,44.232245,2739 7.018962,44.232228,2738 7.018979,44.232216,2737 7.018973,44.232206,2736 7.018962,44.232194,2735 7.018921,44.232183,2733 7.018864,44.232182,2732 7.018837,44.232194,2731 7.018788,44.232202,2730 7.018775,44.232197,2730 7.018725,44.232217,2729 7.018680,44.232235,2729 7.018589,44.232260,2729 7.018518,44.232295,2729 7.018486,44.232300,2728 7.018421,44.232296,2726 7.018387,44.232287,2725 7.018350,44.232276,2724 7.018312,44.232245,2722 7.018314,44.232269,2722 7.018249,44.232237,2722 7.018184,44.232253,2721 7.018063,44.232308,2722 7.018017,44.232316,2723 7.017959,44.232278,2721 7.017862,44.232304,2721 7.017771,44.232299,2720 7.017758,44.232251,2718 7.017751,44.232224,2717 7.017704,44.232235,2716 7.017651,44.232238,2715 7.017605,44.232252,2714 7.017553,44.232249,2714 7.017517,44.232230,2713 7.017438,44.232236,2712 7.017385,44.232263,2712 7.017325,44.232296,2710 7.017299,44.232299,2709 7.017240,44.232280,2708 7.017227,44.232269,2708 7.017169,44.232248,2709 7.017119,44.232276,2707 7.017090,44.232278,2706 7.017071,44.232254,2706 7.017035,44.232235,2707 7.016916,44.232244,2705 7.016893,44.232240,2704 7.016863,44.232228,2703 7.016877,44.232211,2701 7.016812,44.232181,2700 7.016791,44.232150,2698 7.016760,44.232126,2696 7.016768,44.232114,2694 7.016778,44.232106,2693 7.016802,44.232064,2692 7.016821,44.232056,2691 7.016809,44.232060,2690 7.016707,44.232101,2693 7.016680,44.232112,2694 7.016655,44.232141,2695 7.016621,44.232157,2696 7.016574,44.232189,2696 7.016514,44.232223,2697 7.016458,44.232241,2698 7.016361,44.232259,2696 7.016316,44.232275,2695 7.016240,44.232284,2694 7.016207,44.232295,2692 7.016179,44.232313,2691 7.016131,44.232326,2693 7.016102,44.232344,2690 7.016066,44.232353,2689 7.016033,44.232370,2688 7.016007,44.232392,2688 7.015978,44.232409,2687 7.015943,44.232432,2686 7.015936,44.232444,2685 7.015898,44.232489,2684 7.015865,44.232497,2683 7.015830,44.232502,2681 7.015797,44.232551,2680 7.015768,44.232588,2679 7.015707,44.232616,2677 7.015678,44.232641,2676 7.015667,44.232684,2675 7.015630,44.232698,2674 7.015611,44.232686,2673 7.015553,44.232700,2671 7.015517,44.232715,2670 7.015466,44.232720,2669 7.015437,44.232737,2668 7.015355,44.232739,2667 7.015308,44.232768,2666 7.015271,44.232798,2665 7.015220,44.232831,2665 7.015161,44.232833,2663 7.015113,44.232861,2662 7.015064,44.232855,2661 7.015045,44.232859,2659 7.015001,44.232907,2658 7.014911,44.232957,2657 7.014834,44.233009,2657 7.014750,44.233057,2657 7.014765,44.233038,2657 7.014762,44.233060,2657 7.014769,44.233046,2658 7.014783,44.233050,2658 7.014757,44.233039,2660 7.014749,44.233033,2662 7.014763,44.233040,2659 7.014719,44.233065,2657 7.014666,44.233106,2659 7.014565,44.233186,2658 7.014496,44.233245,2657 7.014461,44.233306,2656 7.014471,44.233306,2655 7.014411,44.233384,2654 7.014464,44.233415,2655 7.014467,44.233385,2654 7.014408,44.233452,2654 7.014405,44.233474,2653 7.014385,44.233496,2653 7.014385,44.233519,2653 7.014313,44.233575,2652 7.014237,44.233641,2651 7.014231,44.233651,2651 7.014193,44.233698,2650 7.014154,44.233748,2651 7.014068,44.233779,2651 7.014042,44.233853,2653 7.014027,44.233884,2654 7.014013,44.233904,2655 7.013987,44.233924,2656 7.013957,44.233957,2657 7.013949,44.233956,2658 7.013893,44.233986,2660 7.013880,44.234011,2661 7.013872,44.234017,2661 7.013846,44.234037,2662 7.013805,44.234074,2663 7.013782,44.234095,2664 7.013754,44.234126,2665 7.013728,44.234153,2666 7.013696,44.234176,2667 7.013672,44.234201,2668 7.013656,44.234218,2670 7.013581,44.234264,2671 7.013560,44.234278,2671 7.013492,44.234339,2672 7.013298,44.234446,2672 7.013210,44.234513,2671 7.013138,44.234567,2670 7.013040,44.234612,2670 7.013027,44.234662,2670 7.012939,44.234769,2672 7.012841,44.234877,2673 7.012818,44.234925,2674 7.012784,44.234961,2674 7.012731,44.235010,2675 7.012690,44.235048,2675 7.012645,44.235084,2676 7.012537,44.235144,2677 7.012541,44.235148,2677 7.012474,44.235153,2676 7.012410,44.235176,2674 7.012352,44.235215,2675 7.012259,44.235240,2674 7.012216,44.235242,2672 7.012191,44.235246,2671 7.012087,44.235272,2669 7.011994,44.235306,2668 7.011917,44.235314,2667 7.011811,44.235356,2666 7.011712,44.235425,2665 7.011621,44.235432,2664 7.011578,44.235435,2662 7.011523,44.235474,2661 7.011459,44.235469,2660 7.011386,44.235487,2659 7.011359,44.235499,2658 7.011332,44.235497,2657 7.011285,44.235461,2656 7.011248,44.235442,2653 7.011208,44.235441,2652 7.011146,44.235426,2650 7.011067,44.235409,2649 7.011008,44.235376,2647 7.010953,44.235357,2644 7.010845,44.235371,2644 7.010798,44.235396,2644 7.010695,44.235433,2644 7.010564,44.235448,2644 7.010423,44.235444,2643 7.010398,44.235505,2645 7.010334,44.235535,2646 7.010185,44.235548,2646 7.010105,44.235539,2645 7.010015,44.235512,2644 7.009975,44.235522,2644 7.009844,44.235546,2644 7.009749,44.235518,2643 7.009658,44.235493,2644 7.009615,44.235482,2645 7.009558,44.235446,2647 7.009490,44.235408,2647 7.009485,44.235455,2648 7.009422,44.235431,2649 7.009322,44.235428,2650 7.009263,44.235416,2650 7.009231,44.235404,2650 7.009236,44.235380,2651 7.009117,44.235328,2651 7.008949,44.235317,2652 7.008912,44.235315,2653 7.008825,44.235277,2654 7.008799,44.235282,2655 7.008745,44.235271,2656 7.008685,44.235263,2657 7.008652,44.235259,2658 7.008663,44.235257,2660 7.008610,44.235250,2661 7.008542,44.235231,2661 7.008492,44.235215,2662 7.008454,44.235197,2662 7.008401,44.235184,2663 7.008368,44.235130,2662 7.008362,44.235074,2663 7.008360,44.235075,2663 7.008312,44.235069,2662 7.008332,44.235041,2662 7.008297,44.235058,2660 7.008273,44.235049,2661 7.008209,44.235021,2660 7.008167,44.235032,2661 7.008129,44.235026,2662 7.008042,44.234935,2661 7.007954,44.234916,2663 7.007961,44.234901,2664 7.007921,44.234891,2664 7.007926,44.234875,2663 7.007925,44.234889,2663 7.007933,44.234882,2663 7.007957,44.234923,2663 7.008049,44.234969,2662 7.008072,44.234987,2661 7.008098,44.235027,2660 7.008080,44.235029,2659 7.008184,44.234992,2659 7.008183,44.234992,2659 7.008167,44.234981,2657 7.008164,44.234973,2656 7.008161,44.234997,2656 7.008198,44.234965,2655 7.008211,44.234962,2655 7.008183,44.234963,2654 7.008149,44.234988,2654 7.008168,44.234986,2653 7.008174,44.234945,2653 7.008150,44.234974,2653 7.008138,44.234957,2652 7.008163,44.234936,2652 7.008144,44.234967,2651 7.008151,44.234948,2651 7.008160,44.234950,2651 7.008163,44.234924,2650 7.008164,44.234980,2650 7.008133,44.234992,2650 7.008157,44.234991,2650 7.008163,44.234977,2650 7.008182,44.234938,2650 7.008152,44.234997,2650 7.008145,44.234977,2649 7.008150,44.234952,2649 7.008129,44.234980,2649 7.008149,44.234988,2648 7.008148,44.234985,2648 7.008158,44.234982,2647 7.008140,44.234974,2647 7.008123,44.234983,2647 7.008118,44.234975,2646 7.008169,44.234967,2647 7.008134,44.234979,2647 7.008133,44.234982,2647 7.008116,44.234975,2647 7.008112,44.234962,2647 7.008149,44.234983,2647 7.008154,44.234989,2647 7.008167,44.234985,2648 7.008161,44.234972,2648 7.008119,44.234968,2648 7.008142,44.234967,2648 7.008152,44.234982,2648 7.008165,44.234986,2648 7.008176,44.234997,2649 7.008172,44.235012,2649 7.008187,44.235012,2649 7.008198,44.235006,2649 7.008175,44.235009,2649 7.008168,44.235001,2649 7.008205,44.235032,2649 7.008168,44.235016,2650 7.008200,44.234993,2650 7.008137,44.234999,2651 7.008073,44.235000,2652 7.008058,44.235034,2652 7.008049,44.235048,2651 7.008017,44.235064,2650 7.007978,44.235056,2649 7.007984,44.235061,2648 7.008008,44.235096,2647 7.008009,44.235131,2645 7.008018,44.235152,2644 7.008018,44.235153,2643 7.008010,44.235188,2642 7.008007,44.235183,2641 7.008013,44.235222,2639 7.008002,44.235223,2638 7.008029,44.235212,2637 7.008028,44.235234,2636 7.008076,44.235247,2635 7.008030,44.235286,2634 7.008081,44.235294,2633 7.008128,44.235341,2631 7.008113,44.235334,2630 7.008116,44.235345,2629 7.008125,44.235340,2628 7.008122,44.235389,2628 7.008098,44.235382,2627 7.008132,44.235384,2626 7.008094,44.235407,2625 7.008070,44.235411,2625 7.008114,44.235446,2624 7.008158,44.235474,2623 7.008166,44.235475,2622 7.008112,44.235516,2622 7.008116,44.235498,2621 7.008099,44.235507,2621 7.008106,44.235521,2620 7.008093,44.235533,2619 7.008048,44.235529,2618 7.008093,44.235544,2618 7.008045,44.235554,2617 7.008072,44.235591,2616 7.008053,44.235593,2615 7.008047,44.235612,2614 7.008051,44.235617,2614 7.008068,44.235635,2612 7.008065,44.235649,2611 7.008043,44.235668,2610 7.008032,44.235719,2608 7.008017,44.235750,2607 7.008009,44.235783,2605 7.008027,44.235814,2604 7.008003,44.235850,2602 7.007995,44.235895,2601 7.007988,44.235920,2599 7.007970,44.235902,2599 7.007984,44.235917,2598 7.007973,44.235949,2597 7.007900,44.235953,2596 7.007940,44.235979,2596 7.007956,44.235995,2596 7.007939,44.235997,2595 7.007924,44.236038,2594 7.007916,44.236024,2593 7.007853,44.236042,2592 7.007861,44.236027,2591 7.007821,44.236055,2589 7.007858,44.236119,2588 7.007835,44.236146,2587 7.007860,44.236150,2585 7.007854,44.236170,2584 7.007836,44.236192,2583 7.007820,44.236221,2581 7.007803,44.236253,2580 7.007797,44.236316,2578 7.007781,44.236352,2577 7.007768,44.236355,2577 7.007749,44.236390,2575 7.007713,44.236511,2574 7.007729,44.236590,2575 7.007722,44.236622,2576 7.007719,44.236658,2576 7.007728,44.236680,2578 7.007742,44.236678,2577 7.007744,44.236692,2576 7.007758,44.236719,2575 7.007713,44.236742,2575 7.007651,44.236759,2576 7.007535,44.236817,2576 7.007512,44.236847,2577 7.007452,44.236882,2580 7.007375,44.236923,2580 7.007328,44.236971,2581 7.007274,44.236980,2582 7.007226,44.236998,2584 7.007197,44.237022,2586 7.007171,44.237050,2587 7.007148,44.237059,2588 7.007111,44.237070,2589 7.007092,44.237087,2590 7.007073,44.237118,2591 7.007058,44.237189,2592 7.007051,44.237193,2592 7.007035,44.237191,2591 7.006979,44.237223,2591 7.006815,44.237290,2593 7.006698,44.237382,2594 7.006654,44.237411,2595 7.006595,44.237429,2596 7.006479,44.237443,2596 7.006417,44.237477,2597 7.006316,44.237524,2598 7.006278,44.237545,2599 7.006243,44.237576,2601 7.006190,44.237613,2602 7.006122,44.237669,2603 7.006078,44.237701,2605 7.006031,44.237731,2606 7.005979,44.237775,2606 7.005919,44.237826,2607 7.005881,44.237854,2608 7.005820,44.237886,2610 7.005793,44.237905,2611 7.005752,44.237929,2613 7.005730,44.237947,2614 7.005698,44.237977,2615 7.005640,44.238012,2616 7.005593,44.238053,2617 7.005564,44.238098,2618 7.005562,44.238177,2619 7.005510,44.238246,2621 7.005506,44.238269,2622 7.005496,44.238288,2623 7.005480,44.238327,2624 7.005449,44.238405,2625 7.005448,44.238452,2626 7.005404,44.238470,2627 7.005398,44.238479,2628 7.005405,44.238484,2629 7.005435,44.238510,2630 7.005427,44.238534,2631 7.005429,44.238557,2632 7.005432,44.238582,2633 7.005429,44.238629,2635 7.005438,44.238674,2636 7.005378,44.238776,2637 7.005393,44.238856,2637 7.005399,44.238891,2638 7.005406,44.238924,2639 7.005457,44.238947,2640 7.005477,44.238979,2642 7.005437,44.239093,2643 7.005454,44.239154,2644 7.005458,44.239188,2645 7.005467,44.239228,2646 7.005491,44.239265,2648 7.005461,44.239334,2648 7.005475,44.239369,2649 7.005460,44.239384,2650 7.005475,44.239398,2651 7.005509,44.239399,2652 7.005506,44.239419,2652 7.005511,44.239427,2653 7.005531,44.239439,2654 7.005545,44.239463,2656 7.005530,44.239495,2657 7.005531,44.239499,2657 7.005544,44.239507,2656 7.005527,44.239485,2655 7.005542,44.239478,2655 7.005555,44.239482,2654 7.005546,44.239493,2653 7.005541,44.239487,2654 7.005562,44.239480,2654 7.005551,44.239504,2653 7.005553,44.239488,2652 7.005549,44.239479,2652 7.005521,44.239509,2651 7.005498,44.239565,2651 7.005414,44.239597,2650 7.005328,44.239676,2651 7.005298,44.239725,2652 7.005266,44.239766,2651 7.005150,44.239788,2650 7.005155,44.239836,2648 7.005116,44.239855,2647 7.005071,44.239865,2646 7.005037,44.239881,2645 7.004995,44.239917,2644 7.004986,44.239916,2644 7.004966,44.239940,2641 7.004946,44.239958,2640 7.004930,44.239988,2639 7.004906,44.240012,2637 7.004874,44.240065,2636 7.004857,44.240130,2635 7.004847,44.240157,2634 7.004858,44.240216,2636 7.004835,44.240263,2636 7.004789,44.240331,2636 7.004664,44.240357,2637 7.004518,44.240454,2638 7.004438,44.240507,2637 7.004294,44.240561,2638 7.004291,44.240581,2638 7.004257,44.240660,2640 7.004207,44.240715,2641 7.004189,44.240743,2641 7.004109,44.240770,2641 7.004113,44.240770,2641 7.004101,44.240773,2641 7.004020,44.240777,2642 7.003914,44.240795,2642 7.003847,44.240812,2644 7.003786,44.240814,2645 7.003729,44.240824,2646 7.003673,44.240889,2648 7.003657,44.240912,2649 7.003642,44.240978,2650 7.003613,44.241023,2651 7.003573,44.241056,2652 7.003541,44.241078,2654 7.003493,44.241106,2655 7.003428,44.241131,2656 7.003349,44.241147,2657 7.003288,44.241178,2658 7.003211,44.241241,2660 7.003173,44.241276,2660 7.003057,44.241357,2661 7.002976,44.241384,2662 7.002946,44.241373,2663 7.002882,44.241406,2664 7.002851,44.241458,2665 7.002762,44.241528,2666 7.002691,44.241567,2667 7.002608,44.241602,2668 7.002558,44.241634,2669 7.002524,44.241652,2670 7.002439,44.241679,2672 7.002391,44.241703,2674 7.002368,44.241742,2675 7.002399,44.241765,2676 7.002402,44.241801,2677 7.002376,44.241843,2678 7.002306,44.241873,2679 7.002191,44.241913,2680 7.002070,44.241938,2681 7.002096,44.242009,2682 7.002090,44.242046,2683 7.002036,44.242064,2684 7.002026,44.242107,2684 7.002000,44.242136,2685 7.001957,44.242188,2687 7.001928,44.242228,2688 7.001880,44.242272,2689 7.001818,44.242308,2691 7.001791,44.242332,2692 7.001771,44.242335,2693 7.001739,44.242348,2693 7.001689,44.242382,2694 7.001650,44.242391,2696 7.001644,44.242423,2697 7.001646,44.242433,2697 7.001641,44.242465,2698 7.001610,44.242516,2700 7.001622,44.242567,2700 7.001686,44.242611,2701 7.001729,44.242672,2702 7.001769,44.242703,2703 7.001832,44.242729,2705 7.001859,44.242748,2706 7.001873,44.242769,2706 7.001889,44.242784,2708 7.001892,44.242789,2709 7.001902,44.242830,2710 7.001904,44.242860,2712 7.001906,44.242884,2713 7.001923,44.242927,2714 7.001942,44.242960,2714 7.001961,44.243005,2716 7.001967,44.243025,2717 7.001977,44.243043,2718 7.001984,44.243080,2719 7.001983,44.243125,2721 7.001996,44.243168,2722 7.001998,44.243185,2724 7.001992,44.243182,2723 7.001990,44.243196,2723 7.001990,44.243196,2722 7.001990,44.243196,2724 7.001990,44.243196,2725 7.001989,44.243195,2724 7.001948,44.243218,2723 7.001897,44.243261,2724 7.001847,44.243297,2725 7.001808,44.243310,2726 7.001775,44.243347,2727 7.001740,44.243401,2729 7.001691,44.243428,2729 7.001605,44.243451,2730 7.001542,44.243468,2732 7.001521,44.243526,2734 7.001491,44.243543,2735 7.001428,44.243556,2736 7.001426,44.243571,2737 7.001412,44.243594,2737 7.001336,44.243595,2737 7.001303,44.243620,2738 7.001313,44.243646,2739 7.001290,44.243639,2740 7.001240,44.243639,2741 7.001215,44.243622,2742 7.001194,44.243633,2743 7.001176,44.243639,2744 7.001148,44.243645,2745 7.001140,44.243676,2746 7.001092,44.243665,2747 7.001073,44.243702,2748 7.000999,44.243738,2749 7.000951,44.243743,2750 7.000918,44.243756,2751 7.000877,44.243759,2752 7.000887,44.243772,2753 7.000839,44.243793,2754 7.000786,44.243816,2755 7.000770,44.243838,2756 7.000749,44.243898,2757 7.000788,44.243908,2758 7.000804,44.243910,2758 7.000836,44.243876,2758 7.000799,44.243899,2757 7.000716,44.243889,2757 7.000728,44.243953,2757 7.000739,44.243917,2757 7.000774,44.243879,2757 7.000746,44.243888,2756 7.000750,44.243909,2757 7.000711,44.243942,2757 7.000765,44.243893,2757 7.000728,44.243942,2756 7.000734,44.243945,2756 7.000753,44.243916,2755 7.000739,44.243913,2756 7.000755,44.243963,2756 7.000703,44.243910,2757 7.000745,44.243921,2756 7.000761,44.243934,2756 7.000746,44.243919,2756 7.000745,44.243941,2756 7.000741,44.243950,2756 7.000780,44.243963,2756 7.000747,44.243962,2756 7.000745,44.243979,2755 7.000740,44.244020,2754 7.000727,44.244068,2752 7.000718,44.244141,2752 7.000704,44.244184,2750 7.000701,44.244198,2750 7.000683,44.244234,2749 7.000641,44.244282,2747 7.000645,44.244343,2746 7.000646,44.244418,2746 7.000635,44.244481,2747 7.000562,44.244593,2747 7.000599,44.244701,2747 7.000558,44.244804,2748 7.000596,44.244856,2750 7.000586,44.244857,2751 7.000573,44.244913,2752 7.000547,44.244958,2753 7.000517,44.244999,2752 7.000511,44.245046,2751 7.000459,44.245140,2752 7.000452,44.245194,2754 7.000466,44.245225,2755 7.000468,44.245272,2756 7.000480,44.245315,2757 7.000494,44.245339,2758 7.000454,44.245382,2758 7.000419,44.245422,2759 7.000421,44.245452,2761 7.000423,44.245473,2762 7.000419,44.245471,2762 7.000427,44.245481,2763 7.000432,44.245512,2763 7.000437,44.245526,2765 7.000427,44.245548,2766 7.000423,44.245556,2767 7.000396,44.245604,2768 7.000380,44.245703,2767 7.000404,44.245737,2768 7.000406,44.245782,2769 7.000431,44.245802,2770 7.000440,44.245810,2771 7.000440,44.245836,2772 7.000441,44.245848,2773 7.000450,44.245877,2774 7.000484,44.245911,2776 7.000506,44.245904,2777 7.000533,44.245916,2778 7.000528,44.245921,2778 7.000514,44.245934,2779 7.000501,44.245979,2780 7.000509,44.246011,2781 7.000530,44.246040,2783 7.000547,44.246040,2783 7.000558,44.246040,2783 7.000583,44.246033,2784 7.000611,44.246029,2785 7.000629,44.246030,2785 7.000644,44.246049,2785 7.000644,44.246039,2785 7.000615,44.246043,2786 7.000637,44.246042,2786 7.000634,44.246049,2787 7.000620,44.246086,2788 7.000631,44.246110,2789 7.000672,44.246119,2791 7.000676,44.246159,2793 7.000677,44.246176,2794 7.000676,44.246219,2794 7.000695,44.246219,2795 7.000706,44.246237,2796 7.000690,44.246257,2797 7.000701,44.246307,2799 7.000724,44.246347,2800 7.000743,44.246379,2801 7.000723,44.246379,2802 7.000720,44.246414,2803 7.000720,44.246431,2804 7.000722,44.246449,2805 7.000695,44.246491,2806 7.000685,44.246519,2807 7.000713,44.246540,2809 7.000725,44.246590,2810 7.000748,44.246628,2811 7.000720,44.246657,2811 7.000727,44.246706,2812 7.000757,44.246775,2812 7.000774,44.246776,2813 7.000764,44.246789,2814 7.000772,44.246809,2816 7.000778,44.246816,2816 7.000772,44.246815,2817 7.000721,44.246845,2818 7.000724,44.246878,2819 7.000747,44.246863,2819 7.000793,44.246881,2820 7.000858,44.246907,2821 7.000896,44.246912,2822 7.000905,44.246918,2823 7.000913,44.246923,2823 7.000905,44.246980,2824 7.000918,44.246991,2823 7.000923,44.246983,2823 7.000914,44.246973,2822 7.000921,44.246980,2822 7.000932,44.246974,2822 7.000947,44.246956,2821 7.000957,44.246971,2821 7.000948,44.246985,2820 7.000965,44.246976,2819 7.000945,44.246971,2820 7.000938,44.246992,2819 7.000951,44.246978,2818 7.000927,44.246953,2817 7.000965,44.246973,2816 7.000934,44.246980,2816 7.000950,44.246981,2816 7.000962,44.246989,2815 7.000953,44.246984,2814 7.000953,44.246984,2814 7.000953,44.246984,2814 7.000953,44.246984,2815 7.000945,44.246983,2815 7.000967,44.246977,2815 7.000954,44.246992,2814 7.000945,44.246982,2814 7.000959,44.246969,2814 7.000952,44.246972,2814 7.000953,44.246984,2814 7.000966,44.246980,2813 7.000957,44.246978,2814 7.000957,44.246977,2814 7.000971,44.246977,2814 7.000948,44.246974,2814 7.000957,44.246967,2814 7.000962,44.246979,2813 7.000959,44.246982,2813 7.000963,44.246972,2813 7.000954,44.246974,2814 7.000965,44.246979,2814 7.000934,44.246974,2815 7.000917,44.246971,2815 7.000939,44.246979,2814 7.000940,44.246950,2815 7.000960,44.246993,2815 7.000942,44.246995,2815 7.000947,44.246987,2814 7.000941,44.246965,2815 7.000960,44.246982,2815 7.000962,44.246987,2815 7.000983,44.247000,2815 7.001004,44.247016,2813 7.000985,44.247035,2813 7.000990,44.247037,2812 7.000987,44.247047,2810 7.001016,44.247086,2808 7.001085,44.247100,2807 7.001131,44.247112,2806 7.001155,44.247150,2805 7.001185,44.247136,2805 7.001195,44.247148,2803 7.001218,44.247172,2803 7.001237,44.247180,2803 7.001268,44.247161,2802 7.001271,44.247177,2801 7.001281,44.247182,2801 7.001330,44.247183,2799 7.001382,44.247183,2798 7.001481,44.247261,2798 7.001552,44.247281,2798 7.001602,44.247329,2798 7.001633,44.247338,2799 7.001683,44.247338,2800 7.001744,44.247359,2801 7.001820,44.247401,2802 7.001878,44.247430,2802 7.001873,44.247420,2801 7.001877,44.247401,2801 7.001886,44.247397,2801 7.001872,44.247404,2801 7.001873,44.247415,2801 7.001878,44.247415,2801 7.001900,44.247420,2801 7.001909,44.247452,2800 7.001902,44.247472,2799 7.001902,44.247477,2799 7.001934,44.247467,2798 7.001932,44.247470,2797 7.001921,44.247506,2796 7.001917,44.247511,2794 7.001917,44.247526,2793 7.001915,44.247564,2792 7.001947,44.247596,2792 7.001972,44.247625,2790 7.002031,44.247624,2790 7.002051,44.247656,2789 7.002053,44.247665,2788 7.002069,44.247639,2787 7.002089,44.247636,2785 7.002110,44.247662,2784 7.002101,44.247676,2784 7.002100,44.247671,2784 7.002096,44.247673,2783 7.002099,44.247710,2783 7.002056,44.247741,2782 7.002028,44.247749,2781 7.002042,44.247745,2780 7.001983,44.247792,2778 7.001906,44.247829,2779 7.001902,44.247832,2777 7.001837,44.247836,2777 7.001813,44.247832,2775 7.001768,44.247858,2774 7.001732,44.247884,2773 7.001733,44.247889,2772 7.001739,44.247866,2772 7.001691,44.247819,2772 7.001631,44.247806,2770 7.001581,44.247836,2768 7.001561,44.247853,2767 7.001511,44.247892,2766 7.001477,44.247876,2765 7.001394,44.247885,2764 7.001333,44.247874,2763 7.001323,44.247913,2762 7.001296,44.247945,2761 7.001293,44.247944,2760 7.001265,44.247955,2759 7.001256,44.247953,2758 7.001245,44.247966,2757 7.001189,44.248007,2756 7.001139,44.248008,2755 7.001152,44.248065,2754 7.001132,44.248062,2753 7.001126,44.248063,2753 7.001129,44.248105,2751 7.001100,44.248108,2750 7.001067,44.248073,2750 7.001083,44.248119,2749 7.001067,44.248156,2748 7.001053,44.248171,2747 7.001019,44.248186,2746 7.000986,44.248205,2745 7.000918,44.248216,2744 7.000910,44.248222,2743 7.000885,44.248257,2742 7.000894,44.248263,2741 7.000827,44.248264,2740 7.000758,44.248302,2739 7.000744,44.248338,2737 7.000736,44.248366,2736 7.000700,44.248392,2735 7.000638,44.248365,2735 7.000627,44.248400,2734 7.000580,44.248423,2733 7.000544,44.248423,2733 7.000576,44.248417,2733 7.000566,44.248444,2733 7.000587,44.248452,2732 7.000579,44.248452,2731 7.000569,44.248458,2730 7.000540,44.248523,2730 7.000527,44.248567,2730 7.000471,44.248652,2729 7.000473,44.248663,2729 7.000426,44.248681,2727 7.000414,44.248747,2726 7.000420,44.248742,2726 7.000398,44.248782,2726 7.000392,44.248783,2726 7.000316,44.248803,2726 7.000324,44.248814,2726 7.000322,44.248837,2725 7.000312,44.248850,2725 7.000317,44.248880,2723 7.000299,44.248877,2722 7.000277,44.248854,2722 7.000331,44.248908,2722 7.000312,44.248915,2721 7.000268,44.248980,2720 7.000284,44.249017,2719 7.000265,44.249018,2719 7.000231,44.249070,2718 7.000238,44.249091,2718 7.000246,44.249086,2717 7.000250,44.249089,2715 7.000252,44.249109,2714 7.000284,44.249071,2714 7.000230,44.249102,2714 7.000273,44.249106,2713 7.000316,44.249116,2712 7.000404,44.249113,2711 7.000411,44.249097,2710 7.000421,44.249078,2709 7.000459,44.249103,2708 7.000497,44.249094,2707 7.000495,44.249073,2705 7.000510,44.249056,2704 7.000511,44.249064,2703 7.000555,44.249027,2702 7.000570,44.249044,2702 7.000635,44.249047,2702 7.000676,44.249010,2701 7.000676,44.248995,2699 7.000691,44.249023,2698 7.000743,44.249030,2697 7.000775,44.249018,2695 7.000856,44.249014,2694 7.000849,44.249018,2694 7.000861,44.249009,2693 7.000880,44.248999,2692 7.000909,44.249022,2691 7.000921,44.249026,2690 7.000961,44.249026,2688 7.000987,44.248991,2687 7.000966,44.249006,2687 7.000969,44.249008,2687 7.000989,44.248991,2686 7.001021,44.248983,2686 7.001072,44.248991,2686 7.001123,44.248998,2685 7.001117,44.248988,2685 7.001142,44.248958,2685 7.001130,44.248954,2684 7.001097,44.248963,2683 7.001051,44.248998,2682 7.001030,44.249055,2681 7.001074,44.249021,2681 7.001066,44.249084,2681 7.001038,44.249081,2682 7.000990,44.249091,2682 7.000937,44.249126,2681 7.000895,44.249151,2680 7.000868,44.249165,2679 7.000878,44.249159,2679 7.000873,44.249191,2678 7.000853,44.249233,2678 7.000796,44.249268,2677 7.000702,44.249303,2677 7.000586,44.249390,2676 7.000611,44.249417,2675 7.000644,44.249415,2675 7.000619,44.249418,2673 7.000583,44.249409,2672 7.000596,44.249407,2672 7.000591,44.249460,2672 7.000583,44.249527,2670 7.000613,44.249603,2670 7.000571,44.249659,2669 7.000578,44.249662,2669 7.000587,44.249708,2669 7.000569,44.249739,2667 7.000607,44.249735,2666 7.000639,44.249766,2664 7.000631,44.249826,2663 7.000669,44.249801,2662 7.000735,44.249808,2661 7.000754,44.249819,2660 7.000770,44.249834,2659 7.000798,44.249842,2658 7.000852,44.249810,2657 7.000866,44.249799,2656 7.000881,44.249777,2655 7.000945,44.249737,2654 7.000982,44.249777,2652 7.001003,44.249824,2651 7.001017,44.249836,2650 7.001024,44.249823,2649 7.001075,44.249790,2648 7.001099,44.249855,2647 7.001140,44.249840,2646 7.001169,44.249819,2645 7.001227,44.249826,2645 7.001296,44.249782,2645 7.001319,44.249784,2644 7.001355,44.249824,2643 7.001369,44.249838,2643 7.001404,44.249870,2641 7.001446,44.249886,2640 7.001438,44.249928,2639 7.001458,44.249982,2638 7.001471,44.250018,2637 7.001601,44.250093,2636 7.001662,44.250091,2635 7.001747,44.250096,2633 7.001790,44.250105,2632 7.001828,44.250120,2631 7.001854,44.250164,2629 7.001904,44.250221,2628 7.001958,44.250246,2627 7.002008,44.250269,2626 7.002035,44.250294,2625 7.002072,44.250339,2624 7.002132,44.250327,2622 7.002183,44.250314,2621 7.002235,44.250344,2619 7.002276,44.250386,2618 7.002361,44.250414,2616 7.002411,44.250410,2616 7.002497,44.250416,2614 7.002543,44.250452,2613 7.002588,44.250489,2612 7.002642,44.250530,2610 7.002718,44.250622,2607 7.002932,44.250729,2607 7.003056,44.250831,2606 7.003114,44.250868,2605 7.003189,44.250897,2604 7.003352,44.250939,2603 7.003473,44.250934,2603 7.003529,44.250950,2602 7.003558,44.250949,2602 7.003619,44.250949,2602 7.003671,44.250943,2600 7.003779,44.250971,2599 7.003866,44.250992,2599 7.003967,44.251000,2598 7.004047,44.250998,2597 7.004119,44.251026,2595 7.004095,44.251074,2596 7.004164,44.251062,2597 7.004184,44.251016,2597 7.004147,44.251038,2598 7.004101,44.251059,2598 7.004099,44.251027,2597 7.004133,44.251067,2597 7.004162,44.251141,2595 7.004190,44.251260,2595 7.004271,44.251341,2593 7.004283,44.251371,2592 7.004297,44.251436,2592 7.004306,44.251452,2592 7.004302,44.251493,2593 7.004351,44.251496,2594 7.004419,44.251496,2594 7.004546,44.251532,2593 7.004600,44.251570,2593 7.004672,44.251635,2593 7.004852,44.251713,2593 7.004973,44.251741,2593 7.005013,44.251784,2594 7.005011,44.251838,2595 7.004994,44.251863,2596 7.004940,44.251887,2598 7.004894,44.251919,2599 7.004875,44.251928,2600 7.004907,44.251957,2601 7.004919,44.251999,2603 7.004912,44.252038,2603 7.004918,44.252052,2604 7.004919,44.252050,2604 7.004925,44.252049,2604 7.004857,44.252083,2603 7.004720,44.252142,2604 7.004682,44.252150,2604 7.004623,44.252168,2605 7.004620,44.252208,2607 7.004594,44.252243,2608 7.004585,44.252262,2609 7.004582,44.252275,2610 7.004622,44.252286,2612 7.004641,44.252321,2613 7.004646,44.252323,2615 7.004631,44.252347,2616 7.004627,44.252361,2617 7.004628,44.252410,2618 7.004604,44.252460,2619 7.004612,44.252470,2620 7.004617,44.252485,2619 7.004604,44.252540,2620 7.004640,44.252595,2621 7.004614,44.252653,2622 7.004576,44.252685,2621 7.004512,44.252737,2621 7.004519,44.252775,2619 7.004588,44.252810,2618 7.004612,44.252863,2617 7.004586,44.252886,2617 7.004609,44.252911,2615 7.004677,44.252941,2614 7.004750,44.252968,2612 7.004772,44.252986,2611 7.004855,44.253070,2609 7.004865,44.253092,2609 7.004821,44.253167,2607 7.004780,44.253221,2606 7.004740,44.253273,2604 7.004709,44.253311,2603 7.004701,44.253319,2602 7.004672,44.253374,2600 7.004634,44.253447,2602 7.004697,44.253540,2602 7.004709,44.253570,2603 7.004702,44.253596,2604 7.004688,44.253610,2604 7.004671,44.253644,2605 7.004702,44.253684,2603 7.004724,44.253706,2602 7.004765,44.253748,2600 7.004769,44.253795,2599 7.004782,44.253879,2598 7.004785,44.253926,2596 7.004817,44.254007,2596 7.004813,44.254071,2595 7.004790,44.254125,2593 7.004809,44.254170,2592 7.004882,44.254200,2590 7.004972,44.254222,2589 7.005011,44.254256,2588 7.005030,44.254249,2586 7.005067,44.254256,2585 7.005091,44.254292,2584 7.005128,44.254262,2583 7.005137,44.254278,2581 7.005133,44.254288,2580 7.005135,44.254302,2579 7.005126,44.254306,2578 7.005129,44.254318,2578 7.005160,44.254276,2578 7.005156,44.254283,2579 7.005128,44.254274,2579 7.005119,44.254274,2579 7.005119,44.254274,2579 7.005119,44.254274,2580 7.005175,44.254280,2581 7.005187,44.254278,2581 7.005203,44.254279,2579 7.005219,44.254281,2578 7.005259,44.254275,2576 7.005294,44.254253,2575 7.005308,44.254249,2574 7.005313,44.254239,2573 7.005348,44.254229,2572 7.005371,44.254220,2570 7.005415,44.254248,2569 7.005425,44.254285,2567 7.005421,44.254288,2566 7.005421,44.254309,2566 7.005469,44.254324,2564 7.005495,44.254320,2563 7.005543,44.254328,2562 7.005583,44.254336,2561 7.005622,44.254334,2559 7.005666,44.254353,2558 7.005737,44.254387,2556 7.005781,44.254398,2554 7.005782,44.254411,2552 7.005809,44.254450,2551 7.005828,44.254469,2551 7.005805,44.254489,2550 7.005676,44.254576,2551 7.005640,44.254583,2551 7.005650,44.254602,2550 7.005659,44.254641,2548 7.005715,44.254657,2547 7.005705,44.254716,2545 7.005732,44.254778,2544 7.005659,44.254816,2543 7.005601,44.254834,2542 7.005657,44.254839,2540 7.005700,44.254848,2538 7.005735,44.254843,2537 7.005770,44.254869,2536 7.005749,44.254904,2534 7.005776,44.254907,2534 7.005789,44.254898,2534 7.005787,44.254906,2533 7.005824,44.254889,2531 7.005854,44.254894,2530 7.005884,44.254907,2529 7.005901,44.254918,2527 7.005921,44.254926,2526 7.005952,44.254925,2525 7.005984,44.254941,2524 7.006014,44.254953,2522 7.006089,44.254949,2520 7.006174,44.254942,2518 7.006283,44.254962,2517 7.006405,44.255007,2518 7.006424,44.255035,2519 7.006450,44.255048,2518 7.006457,44.255104,2517 7.006561,44.255171,2518 7.006580,44.255180,2519 7.006659,44.255191,2520 7.006663,44.255181,2520 7.006693,44.255182,2520 7.006653,44.255239,2521 7.006679,44.255229,2521 7.006690,44.255190,2518 7.006672,44.255216,2519 7.006653,44.255238,2520 7.006665,44.255288,2521 7.006799,44.255374,2520 7.006847,44.255397,2519 7.006898,44.255365,2518 7.006984,44.255370,2517 7.007040,44.255411,2516 7.007128,44.255439,2516 7.007211,44.255490,2515 7.007254,44.255558,2516 7.007311,44.255612,2517 7.007314,44.255640,2518 7.007361,44.255738,2519 7.007391,44.255791,2518 7.007419,44.255841,2516 7.007474,44.255940,2516 7.007538,44.256013,2515 7.007593,44.256103,2516 7.007685,44.256117,2514 7.007756,44.256177,2514 7.007754,44.256330,2514 7.007820,44.256455,2514 7.007795,44.256536,2515 7.007783,44.256619,2516 7.007793,44.256640,2517 7.007798,44.256686,2517 7.007781,44.256740,2518 7.007666,44.256840,2518 7.007547,44.256973,2519 7.007535,44.257056,2520 7.007567,44.257190,2521 7.007560,44.257201,2522 7.007562,44.257260,2523 7.007548,44.257304,2525 7.007546,44.257367,2526 7.007545,44.257381,2526 7.007544,44.257395,2526 7.007539,44.257419,2527 7.007578,44.257499,2529 7.007601,44.257552,2530 7.007598,44.257586,2531 7.007623,44.257627,2533 7.007663,44.257682,2534 7.007774,44.257678,2534 7.007892,44.257709,2535 7.007919,44.257799,2533 7.007863,44.257945,2535 7.007862,44.258084,2536 7.007858,44.258103,2536 7.007829,44.258134,2537 7.007755,44.258213,2537 7.007594,44.258390,2537 7.007453,44.258493,2536 7.007337,44.258589,2537 7.007300,44.258625,2538 7.007197,44.258726,2540 7.007161,44.258749,2540 7.007147,44.258791,2541 7.007041,44.258891,2543 7.006947,44.258933,2543 7.006895,44.259016,2544 7.006854,44.259076,2545 7.006741,44.259190,2548 7.006666,44.259260,2548 7.006595,44.259387,2548 7.006546,44.259468,2549 7.006465,44.259620,2550 7.006427,44.259700,2551 7.006376,44.259749,2552 7.006403,44.259793,2553 7.006361,44.259837,2553 7.006250,44.259942,2554 7.006226,44.259983,2554 7.006143,44.260061,2554 7.006023,44.260256,2556 7.005940,44.260336,2557 7.005897,44.260446,2557 7.005897,44.260539,2556 7.005874,44.260663,2557 7.005869,44.260747,2557 7.005825,44.260896,2558 7.005836,44.261047,2558 7.005829,44.261146,2560 7.005822,44.261173,2560 7.005819,44.261197,2562 7.005770,44.261269,2562 7.005723,44.261330,2563 7.005679,44.261433,2565 7.005664,44.261465,2566 7.005590,44.261581,2566 7.005539,44.261670,2568 7.005503,44.261750,2568 7.005472,44.261805,2569 7.005408,44.261983,2569 7.005358,44.262100,2570 7.005333,44.262133,2571 7.005305,44.262188,2572 7.005293,44.262351,2573 7.005221,44.262429,2573 7.005181,44.262487,2575 7.005162,44.262617,2576 7.005152,44.262638,2577 7.005140,44.262666,2578 7.005143,44.262725,2580 7.005170,44.262739,2581 7.005226,44.262762,2582 7.005281,44.262803,2583 7.005290,44.262830,2583 7.005287,44.262831,2584 7.005301,44.262837,2584 7.005314,44.262845,2585 7.005272,44.262886,2585 7.005267,44.262917,2586 7.005276,44.262941,2587 7.005279,44.263004,2588 7.005284,44.263034,2590 7.005264,44.263088,2591 7.005285,44.263130,2592 7.005278,44.263146,2593 7.005249,44.263185,2595 7.005233,44.263214,2595 7.005216,44.263234,2596 7.005170,44.263289,2596 7.005057,44.263389,2598 7.005033,44.263352,2599 7.004981,44.263337,2600 7.004911,44.263311,2601 7.004857,44.263356,2602 7.004793,44.263363,2603 7.004750,44.263359,2604 7.004727,44.263394,2606 7.004688,44.263418,2607 7.004647,44.263462,2608 7.004649,44.263464,2609 7.004637,44.263472,2608 7.004620,44.263458,2608 7.004647,44.263456,2608 7.004638,44.263477,2609 7.004557,44.263518,2610 7.004500,44.263539,2611 7.004431,44.263578,2612 7.004355,44.263624,2613 7.004298,44.263703,2614 7.004301,44.263763,2615 7.004307,44.263795,2616 7.004275,44.263795,2617 7.004251,44.263822,2619 7.004205,44.263857,2620 7.004168,44.263879,2622 7.004136,44.263927,2623 7.004124,44.263895,2624 7.004038,44.263908,2625 7.003956,44.263906,2628 7.003862,44.263897,2629 7.003803,44.263898,2630 7.003788,44.263922,2631 7.003826,44.263958,2632 7.003864,44.263998,2634 7.003917,44.264026,2635 7.003966,44.264091,2636 7.003983,44.264142,2637 7.004021,44.264195,2639 7.004076,44.264219,2640 7.004113,44.264292,2641 7.004125,44.264315,2642 7.004115,44.264344,2643 7.004144,44.264393,2644 7.004187,44.264424,2645 7.004217,44.264454,2647 7.004231,44.264473,2648 7.004256,44.264490,2649 7.004256,44.264522,2649 7.004243,44.264577,2651 7.004244,44.264605,2652 7.004220,44.264624,2653 7.004241,44.264627,2654 7.004223,44.264681,2656 7.004208,44.264715,2657 7.004188,44.264734,2658 7.004202,44.264766,2660 7.004180,44.264756,2661 7.004127,44.264751,2662 7.004078,44.264800,2663 7.004020,44.264828,2665 7.003955,44.264857,2666 7.003915,44.264902,2667 7.003866,44.264954,2667 7.003849,44.265048,2668 7.003818,44.265112,2669 7.003817,44.265119,2670 7.003734,44.265096,2671 7.003709,44.265129,2673 7.003734,44.265186,2674 7.003743,44.265247,2675 7.003788,44.265304,2676 7.003744,44.265341,2678 7.003713,44.265350,2680 7.003722,44.265374,2681 7.003776,44.265421,2682 7.003695,44.265505,2682 7.003671,44.265528,2683 7.003681,44.265565,2684 7.003717,44.265590,2686 7.003733,44.265623,2687 7.003693,44.265670,2688 7.003646,44.265707,2689 7.003601,44.265741,2690 7.003543,44.265789,2692 7.003483,44.265855,2692 7.003416,44.265897,2693 7.003359,44.265925,2694 7.003302,44.265938,2694 7.003255,44.265955,2695 7.003213,44.265960,2697 7.003126,44.265962,2698 7.003088,44.265965,2699 7.003008,44.265977,2701 7.002946,44.265970,2703 7.002978,44.265995,2705 7.002999,44.266031,2706 7.002975,44.266035,2707 7.002979,44.266063,2708 7.002975,44.266075,2710 7.002960,44.266101,2711 7.002942,44.266089,2712 7.002904,44.266090,2714 7.002871,44.266080,2715 7.002839,44.266074,2716 7.002756,44.266076,2718 7.002738,44.266073,2720 7.002686,44.266080,2721 7.002650,44.266075,2722 7.002604,44.266071,2724 7.002576,44.266081,2725 7.002559,44.266082,2726 7.002489,44.266072,2728 7.002406,44.266087,2729 7.002343,44.266084,2730 7.002286,44.266072,2732 7.002257,44.266069,2733 7.002260,44.266093,2734 7.002282,44.266127,2736 7.002314,44.266146,2737 7.002361,44.266205,2738 7.002312,44.266223,2739 7.002288,44.266220,2740 7.002238,44.266207,2741 7.002177,44.266206,2742 7.002126,44.266199,2743 7.002042,44.266216,2745 7.001983,44.266217,2746 7.001860,44.266182,2746 7.001727,44.266159,2745 7.001668,44.266137,2744 7.001575,44.266131,2743 7.001409,44.266124,2743 7.001331,44.266097,2744 7.001279,44.266081,2746 7.001205,44.266062,2745 7.001138,44.266076,2747 7.001122,44.266097,2748 7.001079,44.266070,2749 7.000991,44.266083,2750 7.000885,44.266079,2751 7.000837,44.266070,2752 7.000802,44.266072,2753 7.000763,44.266053,2754 7.000703,44.266038,2756 7.000643,44.266035,2757 7.000602,44.266018,2758 7.000552,44.266005,2759 7.000501,44.266013,2761 7.000420,44.266022,2762 7.000362,44.266015,2764 7.000249,44.265994,2765 7.000189,44.265981,2766 7.000138,44.265964,2768 7.000107,44.265963,2769 7.000080,44.265954,2769 6.999995,44.265921,2771 6.999938,44.265873,2771 6.999867,44.265854,2772 6.999821,44.265845,2774 6.999752,44.265845,2775 6.999709,44.265841,2777 6.999693,44.265837,2777 6.999698,44.265827,2776 6.999676,44.265853,2776 6.999686,44.265863,2776 6.999699,44.265863,2776 6.999702,44.265865,2776 6.999678,44.265856,2775 6.999663,44.265832,2776 6.999646,44.265827,2777 6.999672,44.265805,2777 6.999632,44.265819,2778 6.999580,44.265802,2778 6.999646,44.265809,2778 6.999670,44.265836,2778 6.999645,44.265844,2778 6.999713,44.265864,2778 6.999653,44.265845,2778 6.999614,44.265815,2778 6.999649,44.265834,2778 6.999652,44.265808,2779 6.999666,44.265802,2779 6.999676,44.265829,2778 6.999659,44.265787,2778 6.999657,44.265787,2778 6.999667,44.265793,2778 6.999617,44.265807,2778 6.999637,44.265845,2778 6.999604,44.265827,2778 6.999649,44.265842,2779 6.999658,44.265831,2779 6.999707,44.265829,2779 6.999640,44.265794,2779 6.999691,44.265825,2779 6.999654,44.265792,2778 6.999669,44.265791,2778 6.999666,44.265818,2779 6.999663,44.265829,2778 6.999663,44.265798,2777 6.999669,44.265806,2777 6.999647,44.265810,2779 6.999658,44.265814,2778 6.999662,44.265835,2779 6.999672,44.265812,2779 6.999678,44.265820,2779 6.999648,44.265781,2779 6.999658,44.265832,2779 6.999661,44.265826,2779 6.999661,44.265826,2778 6.999661,44.265826,2778 6.999686,44.265833,2778 6.999632,44.265808,2779 6.999625,44.265806,2780 6.999622,44.265792,2782 6.999586,44.265777,2781 6.999616,44.265829,2781 6.999604,44.265828,2781 6.999588,44.265799,2782 6.999615,44.265827,2781 6.999622,44.265772,2781 6.999525,44.265736,2782 6.999492,44.265734,2783 6.999447,44.265727,2785 6.999410,44.265722,2786 6.999351,44.265714,2786 6.999327,44.265709,2788 6.999318,44.265699,2788 6.999284,44.265683,2789 6.999258,44.265701,2791 6.999255,44.265702,2791 6.999193,44.265716,2793 6.999221,44.265738,2794 6.999216,44.265800,2795 6.999224,44.265822,2796 6.999238,44.265873,2797 6.999224,44.265891,2798 6.999214,44.265874,2800 6.999145,44.265849,2801 6.999127,44.265853,2802 6.999137,44.265844,2802 6.999098,44.265854,2803 6.999073,44.265839,2803 6.999041,44.265845,2804 6.998991,44.265829,2805 6.998909,44.265832,2806 6.998894,44.265819,2807 6.998853,44.265804,2808 6.998836,44.265830,2810 6.998844,44.265864,2811 6.998926,44.265931,2812 6.998954,44.265946,2812 6.998970,44.265951,2812 6.999016,44.265985,2812 6.999055,44.266027,2813 6.999071,44.266050,2814 6.999079,44.266053,2815 6.999060,44.266051,2815 6.999111,44.266043,2815 6.999084,44.266054,2815 6.999083,44.266063,2815 6.999091,44.266063,2816 6.999097,44.266071,2817 6.999082,44.266091,2818 6.999138,44.266123,2819 6.999157,44.266178,2820 6.999173,44.266214,2822 6.999198,44.266258,2823 6.999204,44.266285,2824 6.999193,44.266308,2825 6.999217,44.266305,2826 6.999238,44.266319,2827 6.999219,44.266330,2828 6.999216,44.266358,2830 6.999222,44.266386,2831 6.999229,44.266401,2832 6.999233,44.266420,2834 6.999253,44.266451,2836 6.999261,44.266469,2837 6.999273,44.266481,2837 6.999282,44.266498,2839 6.999302,44.266526,2840 6.999330,44.266559,2842 6.999328,44.266574,2843 6.999303,44.266579,2843 6.999295,44.266575,2844 6.999256,44.266577,2846 6.999229,44.266583,2847 6.999228,44.266590,2847 6.999234,44.266596,2849 6.999230,44.266591,2850 6.999220,44.266616,2851 6.999185,44.266601,2852 6.999148,44.266625,2854 6.999131,44.266650,2854 6.999114,44.266648,2856 6.999150,44.266641,2857 6.999184,44.266658,2859 6.999147,44.266636,2860 6.999047,44.266607,2860 6.999023,44.266607,2861 6.998985,44.266623,2862 6.998952,44.266644,2863 6.998936,44.266644,2864 6.998982,44.266664,2864 6.998992,44.266676,2865 6.999066,44.266717,2865 6.999012,44.266697,2866 6.998981,44.266702,2866 6.998949,44.266694,2868 6.998902,44.266683,2869 6.998903,44.266677,2870 6.998904,44.266682,2871 6.998901,44.266692,2873 6.998841,44.266692,2874 6.998833,44.266686,2875 6.998787,44.266668,2876 6.998801,44.266671,2876 6.998796,44.266691,2877 6.998828,44.266727,2877 6.998832,44.266747,2877 6.998829,44.266746,2878 6.998829,44.266764,2879 6.998808,44.266775,2881 6.998804,44.266810,2881 6.998873,44.266827,2883 6.998968,44.266852,2882 6.999070,44.266852,2883 6.999080,44.266839,2883 6.999063,44.266834,2883 6.999088,44.266842,2884 6.998862,44.266800,2885 6.998827,44.266798,2885 6.998772,44.266788,2886 6.998774,44.266795,2886 6.998784,44.266865,2887 6.998744,44.266891,2888 6.998670,44.266909,2887 6.998498,44.266998,2888 6.998512,44.267004,2888 6.998493,44.267008,2889 6.998528,44.266841,2907 6.998502,44.266840,2906 6.998528,44.266868,2906 6.998522,44.266826,2906 6.998501,44.266851,2907 6.998443,44.266847,2908 6.998464,44.266849,2908 6.998455,44.266859,2909 6.998481,44.266880,2909 6.998459,44.266878,2910 6.998465,44.266892,2910 6.998460,44.266883,2910 6.998464,44.266849,2909 6.998471,44.266836,2909 6.998479,44.266843,2908 6.998475,44.266802,2910 6.998492,44.266824,2911 6.998448,44.266788,2912 6.998442,44.266797,2912 6.998445,44.266811,2913 6.998446,44.266758,2914 6.998452,44.266786,2916 6.998401,44.266779,2916 6.998422,44.266778,2917 6.998408,44.266752,2916 6.998360,44.266738,2918 6.998315,44.266762,2918 6.998293,44.266761,2919 6.998276,44.266764,2920 6.998253,44.266773,2921 6.998222,44.266775,2922 6.998220,44.266770,2922 6.998160,44.266790,2923 6.998151,44.266801,2924 6.998114,44.266810,2925 6.998090,44.266820,2926 6.998067,44.266821,2927 6.998019,44.266823,2928 6.998011,44.266833,2929 6.997982,44.266831,2930 6.997993,44.266802,2930 6.997980,44.266824,2930 6.997970,44.266819,2930 6.997974,44.266826,2930 6.997977,44.266809,2930 6.997985,44.266781,2930 6.997946,44.266764,2931 6.997879,44.266780,2932 6.997883,44.266785,2933 6.997904,44.266794,2933 6.997907,44.266795,2932 6.997894,44.266769,2933 6.997864,44.266771,2934 6.997888,44.266750,2934 6.997864,44.266695,2935 6.997870,44.266705,2936 6.997834,44.266703,2937 6.997839,44.266684,2938 6.997827,44.266669,2939 6.997832,44.266651,2939 6.997803,44.266641,2940 6.997789,44.266637,2940 6.997764,44.266683,2941 6.997749,44.266685,2942 6.997744,44.266683,2944 6.997715,44.266692,2945 6.997706,44.266726,2946 6.997667,44.266719,2947 6.997657,44.266715,2948 6.997625,44.266702,2949 6.997609,44.266688,2949 6.997585,44.266660,2951 6.997527,44.266651,2952 6.997479,44.266649,2953 6.997446,44.266610,2953 6.997424,44.266601,2954 6.997394,44.266584,2955 6.997358,44.266575,2956 6.997322,44.266553,2956 6.997314,44.266568,2957 6.997281,44.266571,2958 6.997286,44.266569,2959 6.997285,44.266567,2960 6.997281,44.266565,2962 6.997295,44.266565,2963 6.997218,44.266577,2962 6.997192,44.266585,2963 6.997180,44.266609,2964 6.997159,44.266573,2965 6.997144,44.266609,2966 6.997161,44.266610,2967 6.997128,44.266591,2969 6.997111,44.266565,2970 6.997084,44.266561,2972 6.997049,44.266551,2972 6.997060,44.266548,2973 6.997031,44.266539,2974 6.997030,44.266541,2974 6.997008,44.266536,2975 6.996989,44.266559,2975 6.996930,44.266526,2975 6.996912,44.266516,2976 6.996879,44.266487,2977 6.996846,44.266471,2978 6.996806,44.266451,2980 6.996778,44.266460,2980 6.996746,44.266457,2982 6.996762,44.266470,2983 6.996731,44.266487,2983 6.996709,44.266500,2984 6.996713,44.266520,2985 6.996696,44.266513,2986 6.996614,44.266502,2989 6.996598,44.266547,2990 6.996577,44.266534,2990 6.996520,44.266534,2992 6.996504,44.266528,2993 6.996503,44.266525,2993 6.996462,44.266512,2994 6.996452,44.266509,2996 6.996418,44.266498,2997 6.996394,44.266508,2998 6.996400,44.266517,2999 6.996391,44.266505,2999 6.996389,44.266530,2999 6.996364,44.266519,2999 6.996394,44.266542,2999 6.996394,44.266537,2999 6.996392,44.266567,3000 6.996404,44.266564,3000 6.996405,44.266551,3000 6.996396,44.266526,3000 6.996402,44.266510,3000 6.996402,44.266496,3001 6.996417,44.266488,3001 6.996412,44.266536,3001 6.996399,44.266520,3001 6.996380,44.266531,3000 6.996371,44.266523,3000 6.996390,44.266525,3000 6.996388,44.266529,2999 6.996381,44.266503,3000 6.996377,44.266518,3000 6.996363,44.266539,3000 6.996380,44.266557,3000 6.996379,44.266526,3000 6.996360,44.266543,3001 6.996341,44.266567,3001 6.996338,44.266575,3001 6.996370,44.266510,3001 6.996361,44.266537,3001 6.996359,44.266567,3002 6.996397,44.266532,3002 6.996381,44.266530,3002 6.996364,44.266551,3003 6.996352,44.266546,3004 6.996364,44.266517,3003 6.996366,44.266518,3003 6.996355,44.266522,3003 6.996382,44.266528,3004 6.996389,44.266542,3004 6.996385,44.266517,3004 6.996387,44.266523,3004 6.996376,44.266543,3004 6.996379,44.266550,3005 6.996375,44.266509,3004 6.996394,44.266499,3004 6.996403,44.266523,3004 6.996372,44.266513,3004 6.996363,44.266559,3004 6.996337,44.266544,3004 6.996342,44.266533,3004 6.996378,44.266568,3004 6.996364,44.266546,3004 6.996386,44.266515,3004 6.996396,44.266525,3004 6.996372,44.266531,3005 6.996367,44.266500,3004 6.996363,44.266519,3005 6.996340,44.266515,3006 6.996376,44.266530,3005 6.996386,44.266508,3006 6.996370,44.266538,3007 6.996376,44.266543,3007 6.996368,44.266568,3007 6.996353,44.266550,3007 6.996344,44.266524,3007 6.996361,44.266516,3007 6.996376,44.266538,3006 6.996357,44.266541,3007 6.996357,44.266540,3007 6.996360,44.266533,3006 6.996366,44.266521,3007 6.996376,44.266533,3007 6.996366,44.266512,3008 6.996372,44.266529,3007 6.996388,44.266532,3007 6.996378,44.266530,3007 6.996377,44.266520,3007 6.996393,44.266519,3008 6.996385,44.266513,3008 6.996389,44.266517,3008 6.996388,44.266518,3007 6.996385,44.266506,3008 6.996379,44.266500,3007 6.996376,44.266503,3008 6.996375,44.266507,3008 6.996377,44.266517,3008 6.996379,44.266505,3008 6.996386,44.266518,3009 6.996383,44.266520,3009 6.996389,44.266526,3010 6.996395,44.266525,3008 6.996391,44.266516,3008 6.996390,44.266517,3008 6.996386,44.266519,3009 6.996390,44.266514,3009 6.996379,44.266517,3009 6.996385,44.266520,3009 6.996384,44.266517,3009 6.996389,44.266523,3009 6.996382,44.266521,3009 6.996383,44.266521,3010 6.996383,44.266521,3009 6.996390,44.266518,3010 6.996374,44.266488,3010 6.996412,44.266496,3010 6.996399,44.266491,3009 6.996390,44.266490,3009 6.996397,44.266526,3008 6.996407,44.266526,3009 6.996381,44.266504,3010 6.996406,44.266527,3010 6.996387,44.266517,3010 6.996380,44.266512,3010 6.996363,44.266497,3010 6.996367,44.266503,3010 6.996375,44.266503,3010 6.996399,44.266526,3010 6.996375,44.266507,3009 6.996380,44.266483,3010 6.996387,44.266506,3010 6.996374,44.266510,3010 6.996416,44.266536,3010 6.996396,44.266503,3010 6.996362,44.266516,3010 6.996373,44.266516,3010 6.996385,44.266508,3010 6.996365,44.266524,3010 6.996377,44.266519,3010 6.996373,44.266540,3010 6.996404,44.266525,3009 6.996415,44.266489,3010 6.996394,44.266517,3010 6.996379,44.266524,3010 6.996352,44.266542,3011 6.996354,44.266541,3011 6.996370,44.266531,3010 6.996378,44.266527,3011 6.996401,44.266534,3011 6.996386,44.266527,3011 6.996387,44.266520,3011 6.996386,44.266512,3011 6.996390,44.266513,3011 6.996357,44.266519,3011 6.996370,44.266520,3011 6.996385,44.266508,3011 6.996410,44.266506,3012 6.996383,44.266519,3012 6.996385,44.266512,3012 6.996383,44.266536,3012 6.996371,44.266531,3011 6.996371,44.266508,3012 6.996370,44.266511,3012 6.996369,44.266512,3012 6.996367,44.266512,3011 6.996371,44.266504,3011 6.996371,44.266512,3011 6.996378,44.266492,3010 6.996381,44.266519,3010 6.996377,44.266514,3010 6.996409,44.266488,3010 6.996388,44.266490,3010 6.996345,44.266497,3011 6.996349,44.266505,3010 6.996350,44.266526,3010 6.996341,44.266534,3009 6.996366,44.266510,3008 6.996365,44.266520,3009 6.996361,44.266517,3009 6.996339,44.266518,3009 6.996378,44.266500,3010 6.996373,44.266502,3010 6.996380,44.266496,3010 6.996371,44.266494,3011 6.996358,44.266499,3010 6.996351,44.266516,3010 6.996351,44.266509,3011 6.996375,44.266494,3011 6.996383,44.266506,3011 6.996391,44.266496,3011 6.996378,44.266514,3012 6.996369,44.266498,3011 6.996365,44.266499,3011 6.996361,44.266489,3012 6.996364,44.266479,3012 6.996371,44.266510,3012 6.996390,44.266489,3012 6.996378,44.266504,3012 6.996304,44.266539,3013 6.996331,44.266536,3012 6.996380,44.266526,3012 6.996373,44.266520,3012 6.996370,44.266517,3011 6.996345,44.266518,3011 6.996375,44.266500,3011 6.996376,44.266506,3012 6.996378,44.266495,3012 6.996348,44.266520,3013 6.996365,44.266517,3013 6.996358,44.266514,3012 6.996377,44.266502,3013 6.996369,44.266493,3013 6.996360,44.266511,3013 6.996333,44.266508,3013 6.996351,44.266515,3013 6.996339,44.266521,3013 6.996330,44.266536,3013 6.996353,44.266520,3013 6.996363,44.266515,3013 6.996371,44.266512,3013 6.996404,44.266472,3013 6.996420,44.266491,3013 6.996414,44.266500,3013 6.996396,44.266515,3013 6.996373,44.266506,3013 6.996363,44.266515,3013 6.996354,44.266502,3013 6.996338,44.266517,3013 6.996336,44.266526,3013 6.996348,44.266532,3013 6.996335,44.266530,3013 6.996384,44.266500,3013 6.996355,44.266514,3013 6.996347,44.266486,3012 6.996348,44.266504,3012 6.996368,44.266525,3013 6.996368,44.266546,3013 6.996351,44.266561,3013 6.996355,44.266541,3013 6.996361,44.266545,3013 6.996396,44.266523,3013 6.996329,44.266550,3012 6.996340,44.266552,3012 6.996368,44.266535,3012 6.996366,44.266538,3012 6.996368,44.266515,3012 6.996369,44.266515,3013 6.996390,44.266513,3012 6.996379,44.266524,3012 6.996388,44.266542,3014 6.996372,44.266544,3013 6.996359,44.266541,3014 6.996386,44.266528,3014 6.996370,44.266519,3014 6.996396,44.266546,3014 6.996358,44.266643,3013 6.996331,44.266671,3013 6.996330,44.266662,3012 6.996349,44.266671,3013 6.996349,44.266657,3013 6.996330,44.266684,3011 6.996328,44.266704,3010 6.996316,44.266701,3009 6.996302,44.266701,3008 6.996316,44.266685,3007 6.996311,44.266698,3006 6.996282,44.266707,3006 6.996289,44.266680,3005 6.996303,44.266667,3004 6.996292,44.266677,3004 6.996242,44.266673,3003 6.996240,44.266687,3003 6.996229,44.266662,3001 6.996219,44.266632,3000 6.996197,44.266633,2999 6.996221,44.266629,2999 6.996180,44.266619,2998 6.996200,44.266609,2997 6.996221,44.266624,2997 6.996180,44.266604,2997 6.996225,44.266595,2997 6.996222,44.266598,2996 6.996209,44.266574,2995 6.996184,44.266562,2994 6.996170,44.266547,2994 6.996183,44.266568,2993 6.996189,44.266544,2993 6.996241,44.266548,2992 6.996138,44.266521,2991 6.996170,44.266547,2990 6.996147,44.266549,2990 6.996133,44.266554,2988 6.996113,44.266553,2988 6.996080,44.266561,2988 6.996064,44.266573,2987 6.996069,44.266561,2987 6.996098,44.266521,2986 6.996096,44.266519,2985 6.996093,44.266509,2985 6.996086,44.266521,2984 6.996079,44.266532,2983 6.996074,44.266524,2983 6.996084,44.266547,2982 6.996036,44.266549,2980 6.996005,44.266536,2979 6.996029,44.266502,2979 6.996003,44.266485,2978 6.996009,44.266444,2976 6.996009,44.266424,2976 6.996031,44.266402,2976 6.996022,44.266420,2976 6.996070,44.266429,2977 6.996059,44.266409,2975 6.996029,44.266370,2975 6.996020,44.266351,2974 6.996021,44.266315,2972 6.996031,44.266334,2971 6.996047,44.266341,2970 6.996033,44.266349,2969 6.995995,44.266307,2968 6.996011,44.266298,2966 6.996036,44.266270,2964 6.996000,44.266231,2963 6.995999,44.266233,2963 6.996012,44.266183,2961 6.996016,44.266149,2961 6.995994,44.266138,2959 6.996019,44.266132,2958 6.996006,44.266136,2957 6.996008,44.266109,2955 6.996035,44.266084,2954 6.996028,44.266067,2953 6.996007,44.266045,2953 6.995994,44.266037,2952 6.995981,44.266040,2951 6.995986,44.266036,2950 6.995987,44.265988,2949 6.995984,44.265990,2948 6.996015,44.265992,2947 6.996015,44.265990,2945 6.996005,44.265950,2945 6.995998,44.265935,2943 6.996043,44.265939,2943 6.996006,44.265922,2942 6.995988,44.265910,2942 6.995976,44.265906,2942 6.995977,44.265918,2941 6.996006,44.265928,2941 6.996013,44.265921,2940 6.995967,44.265948,2939 6.995985,44.265945,2938 6.995926,44.265947,2937 6.995940,44.265920,2937 6.995947,44.265933,2936 6.995942,44.265935,2936 6.995929,44.265950,2935 6.995916,44.265923,2934 6.995912,44.265908,2933 6.995894,44.265912,2932 6.995871,44.265893,2931 6.995852,44.265907,2930 6.995858,44.265941,2930 6.995855,44.265938,2929 6.995833,44.265937,2928 6.995806,44.265947,2928 6.995763,44.265964,2928 6.995781,44.265977,2928 6.995844,44.265952,2927 6.995822,44.265960,2925 6.995798,44.265961,2924 6.995802,44.265949,2924 6.995797,44.265956,2924 6.995803,44.265958,2923 6.995773,44.265917,2922 6.995763,44.265938,2921 6.995753,44.265917,2920 6.995693,44.265960,2919 6.995771,44.265904,2919 6.995771,44.265893,2919 6.995723,44.265875,2918 6.995731,44.265866,2918 6.995733,44.265842,2917 6.995752,44.265864,2916 6.995742,44.265849,2917 6.995718,44.265860,2916 6.995683,44.265853,2914 6.995673,44.265844,2914 6.995657,44.265865,2913 6.995640,44.265909,2911 6.995610,44.265907,2910 6.995550,44.265896,2909 6.995555,44.265878,2909 6.995582,44.265854,2909 6.995559,44.265812,2909 6.995536,44.265802,2908 6.995512,44.265785,2907 6.995491,44.265753,2906 6.995508,44.265732,2906 6.995464,44.265726,2906 6.995411,44.265730,2906 6.995379,44.265696,2904 6.995364,44.265714,2903 6.995343,44.265724,2903 6.995279,44.265720,2902 6.995266,44.265717,2901 6.995226,44.265740,2899 6.995193,44.265745,2899 6.995181,44.265749,2898 6.995131,44.265800,2897 6.995141,44.265787,2897 6.995179,44.265776,2896 6.995156,44.265791,2895 6.995154,44.265786,2894 6.995126,44.265779,2893 6.995091,44.265793,2893 6.995103,44.265781,2892 6.995102,44.265786,2890 6.995090,44.265775,2889 6.995010,44.265843,2889 6.995053,44.265836,2890 6.995103,44.265863,2892 6.995095,44.265890,2890 6.995064,44.265926,2889 6.995057,44.265929,2889 6.995064,44.265955,2887 6.995059,44.266010,2886 6.995144,44.265985,2887 6.995154,44.265986,2887 6.995112,44.266004,2887 6.995068,44.266045,2888 6.995054,44.266045,2888 6.995102,44.266045,2888 6.994987,44.266092,2889 6.995044,44.266030,2888 6.995064,44.266070,2888 6.995134,44.266077,2889 6.995153,44.266156,2889 6.995180,44.266190,2888 6.995198,44.266173,2888 6.995138,44.266175,2887 6.995198,44.266158,2886 6.995195,44.266175,2886 6.995175,44.266185,2885 6.995155,44.266190,2886 6.995155,44.266212,2885 6.995147,44.266222,2885 6.995184,44.266218,2884 6.995167,44.266217,2884 6.995164,44.266229,2883 6.995177,44.266243,2883 6.995175,44.266259,2882 6.995152,44.266273,2883 6.995150,44.266231,2884 6.995150,44.266222,2884 6.995153,44.266230,2885 6.995166,44.266252,2885 6.995157,44.266208,2884 6.995156,44.266231,2885 6.995130,44.266237,2886 6.995126,44.266239,2884 6.995125,44.266244,2885 6.995130,44.266247,2884 6.995173,44.266271,2884 6.995156,44.266239,2884 6.995227,44.266278,2884 6.995173,44.266250,2883 6.995177,44.266270,2883 6.995144,44.266272,2882 6.995145,44.266269,2881 6.995147,44.266259,2880 6.995116,44.266284,2880 6.995136,44.266324,2880 6.995182,44.266324,2880 6.995110,44.266298,2880 6.995154,44.266317,2880 6.995157,44.266316,2880 6.995173,44.266302,2880 6.995117,44.266278,2879 6.995145,44.266290,2879 6.995124,44.266326,2878 6.995088,44.266313,2878 6.995066,44.266314,2877 6.995108,44.266323,2877 6.995131,44.266331,2876 6.995114,44.266333,2875 6.995117,44.266345,2875 6.995092,44.266327,2875 6.995098,44.266322,2875 6.995088,44.266361,2874 6.995049,44.266335,2874 6.995153,44.266376,2874 6.995054,44.266389,2873 6.995047,44.266375,2872 6.995045,44.266367,2872 6.995030,44.266364,2871 6.995042,44.266367,2870 6.995118,44.266443,2871 6.995205,44.266418,2871 6.995220,44.266411,2871 6.995030,44.266374,2872 6.994987,44.266388,2873 6.995038,44.266364,2873 6.995003,44.266360,2873 6.994960,44.266376,2873 6.995024,44.266377,2872 6.995042,44.266367,2873 6.995026,44.266377,2873 6.994987,44.266357,2873 6.994992,44.266403,2872 6.994989,44.266393,2871 6.994996,44.266427,2871 6.994988,44.266430,2870 6.995011,44.266446,2869 6.994991,44.266415,2867 6.994981,44.266422,2867 6.994973,44.266441,2867 6.994970,44.266431,2866 6.994924,44.266441,2866 6.994925,44.266430,2865 6.994924,44.266461,2864 6.994915,44.266467,2864 6.994915,44.266444,2863 6.994879,44.266420,2863 6.994881,44.266436,2863 6.994893,44.266428,2862 6.994901,44.266445,2861 6.994867,44.266430,2860 6.994847,44.266446,2859 6.994884,44.266449,2858 6.994870,44.266496,2858 6.994933,44.266510,2857 6.994859,44.266489,2858 6.994859,44.266500,2858 6.994823,44.266496,2858 6.994867,44.266496,2858 6.994954,44.266519,2857 6.994967,44.266536,2857 6.994902,44.266542,2856 6.994914,44.266486,2856 6.994936,44.266521,2856 6.994871,44.266555,2856 6.994938,44.266570,2855 6.994909,44.266559,2856 6.994871,44.266576,2856 6.994873,44.266517,2858 6.994890,44.266508,2857 6.994932,44.266553,2857 6.994838,44.266631,2857 6.994825,44.266530,2856 6.994838,44.266508,2856 6.994871,44.266575,2855 6.994819,44.266530,2855 6.994782,44.266564,2854 6.994825,44.266585,2853 6.994804,44.266616,2853 6.994792,44.266572,2852 6.994755,44.266600,2852 6.994795,44.266620,2852 6.994743,44.266576,2852 6.994757,44.266618,2851 6.994740,44.266664,2850 6.994743,44.266655,2849 6.994755,44.266650,2849 6.994760,44.266580,2848 6.994738,44.266642,2848 6.994767,44.266630,2849 6.994768,44.266612,2848 6.994769,44.266624,2849 6.994780,44.266593,2848 6.994753,44.266573,2848 6.994734,44.266582,2848 6.994692,44.266569,2847 6.994662,44.266570,2847 6.994665,44.266604,2846 6.994655,44.266558,2846 6.994646,44.266575,2845 6.994636,44.266598,2845 6.994618,44.266561,2845 6.994590,44.266554,2844 6.994613,44.266567,2843 6.994608,44.266625,2843 6.994589,44.266654,2842 6.994644,44.266637,2842 6.994613,44.266659,2842 6.994609,44.266655,2841 6.994586,44.266639,2841 6.994593,44.266662,2841 6.994545,44.266672,2841 6.994541,44.266640,2841 6.994550,44.266650,2842 6.994544,44.266650,2841 6.994541,44.266623,2841 6.994522,44.266578,2841 6.994544,44.266567,2841 6.994551,44.266591,2841 6.994542,44.266595,2840 6.994521,44.266574,2840 6.994459,44.266557,2839 6.994445,44.266544,2839 6.994418,44.266545,2838 6.994433,44.266573,2837 6.994453,44.266614,2836 6.994480,44.266599,2836 6.994475,44.266614,2836 6.994453,44.266622,2835 6.994465,44.266648,2834 6.994482,44.266661,2833 6.994489,44.266667,2833 6.994654,44.266638,2833 6.994565,44.266653,2833 6.994474,44.266673,2834 6.994430,44.266679,2834 6.994475,44.266704,2834 6.994411,44.266682,2832 6.994485,44.266703,2832 6.994480,44.266723,2832 6.994470,44.266745,2831 6.994477,44.266738,2831 6.994465,44.266738,2830 6.994400,44.266734,2829 6.994413,44.266739,2829 6.994439,44.266763,2829 6.994390,44.266787,2829 6.994384,44.266817,2829 6.994385,44.266821,2829 6.994427,44.266801,2829 6.994430,44.266841,2828 6.994389,44.266851,2828 6.994360,44.266844,2827 6.994315,44.266869,2828 6.994298,44.266893,2828 6.994331,44.266891,2827 6.994331,44.266894,2827 6.994308,44.266903,2827 6.994238,44.266903,2826 6.994265,44.266870,2826 6.994302,44.266889,2826 6.994356,44.266868,2825 6.994286,44.266817,2825 6.994327,44.266893,2826 6.994287,44.266848,2825 6.994184,44.266906,2824 6.994170,44.266861,2825 6.994181,44.266857,2825 6.994153,44.266877,2825 6.994129,44.266879,2825 6.994176,44.266901,2825 6.994189,44.266931,2824 6.994173,44.266923,2824 6.994166,44.266894,2824 6.994182,44.266923,2824 6.994210,44.266947,2825 6.994186,44.266855,2825 6.994129,44.266901,2825 6.994084,44.266927,2825 6.994095,44.266937,2825 6.994122,44.266935,2825 6.994246,44.266888,2825 6.994205,44.266831,2825 6.994218,44.266856,2824 6.994211,44.266977,2824 6.994188,44.266950,2824 6.994235,44.267013,2826 6.994233,44.266995,2825 6.994223,44.267068,2825 6.994189,44.267104,2826 6.994138,44.267147,2825 6.994150,44.267202,2824 6.994185,44.267198,2823 6.994195,44.267208,2824 6.994178,44.267229,2823 6.994166,44.267251,2824 6.994160,44.267265,2825 6.994136,44.267316,2824 6.994138,44.267337,2824 6.994158,44.267392,2823 6.994167,44.267409,2822 6.994129,44.267465,2822 6.994133,44.267472,2821 6.994104,44.267489,2822 6.994109,44.267500,2822 6.994071,44.267492,2822 6.994064,44.267541,2821 6.994106,44.267546,2822 6.994145,44.267484,2821 6.994133,44.267488,2820 6.994158,44.267536,2820 6.994165,44.267535,2819 6.994218,44.267555,2818 6.994248,44.267539,2817 6.994244,44.267610,2816 6.994281,44.267576,2816 6.994292,44.267633,2816 6.994288,44.267648,2816 6.994298,44.267595,2816 6.994339,44.267597,2816 6.994255,44.267637,2816 6.994274,44.267674,2815 6.994280,44.267688,2815 6.994263,44.267728,2815 6.994275,44.267725,2816 6.994278,44.267729,2815 6.994281,44.267771,2815 6.994270,44.267822,2815 6.994258,44.267811,2815 6.994282,44.267850,2813 6.994230,44.267886,2812 6.994255,44.267912,2811 6.994290,44.267916,2811 6.994257,44.267935,2810 6.994258,44.267942,2810 6.994261,44.267964,2809 6.994276,44.267962,2809 6.994275,44.268013,2808 6.994320,44.268029,2807 6.994330,44.268039,2807 6.994334,44.268082,2806 6.994342,44.268083,2806 6.994323,44.268114,2805 6.994311,44.268129,2805 6.994305,44.268146,2805 6.994286,44.268167,2805 6.994308,44.268176,2804 6.994311,44.268219,2804 6.994269,44.268270,2805 6.994247,44.268284,2804 6.994274,44.268260,2804 6.994256,44.268308,2804 6.994196,44.268331,2803 6.994261,44.268392,2803 6.994285,44.268390,2803 6.994298,44.268396,2803 6.994284,44.268407,2803 6.994269,44.268384,2802 6.994253,44.268360,2802 6.994228,44.268364,2803 6.994236,44.268368,2802 6.994254,44.268375,2801 6.994264,44.268392,2800 6.994317,44.268401,2799 6.994344,44.268422,2799 6.994373,44.268452,2798 6.994410,44.268475,2798 6.994399,44.268464,2798 6.994390,44.268456,2797 6.994409,44.268484,2798 6.994401,44.268510,2799 6.994420,44.268512,2800 6.994452,44.268520,2800 6.994440,44.268522,2801 6.994429,44.268519,2800 6.994442,44.268523,2801 6.994484,44.268594,2800 6.994480,44.268593,2799 6.994508,44.268605,2800 6.994522,44.268625,2800 6.994538,44.268624,2800 6.994602,44.268687,2800 6.994561,44.268697,2799 6.994560,44.268708,2798 6.994589,44.268730,2796 6.994597,44.268771,2795 6.994597,44.268795,2794 6.994667,44.268817,2794 6.994631,44.268844,2793 6.994602,44.268884,2791 6.994618,44.268931,2790 6.994592,44.268923,2790 6.994616,44.268926,2790 6.994630,44.268915,2789 6.994616,44.268969,2788 6.994585,44.269004,2788 6.994567,44.269007,2787 6.994571,44.269008,2786 6.994587,44.269039,2785 6.994550,44.269077,2784 6.994570,44.269081,2783 6.994547,44.269095,2782 6.994525,44.269112,2781 6.994486,44.269130,2780 6.994495,44.269170,2779 6.994491,44.269167,2777 6.994475,44.269185,2777 6.994484,44.269220,2777 6.994471,44.269249,2775 6.994446,44.269261,2774 6.994435,44.269250,2773 6.994442,44.269269,2772 6.994440,44.269277,2771 6.994435,44.269351,2769 6.994435,44.269385,2768 6.994419,44.269340,2768 6.994420,44.269345,2767 6.994369,44.269365,2766 6.994362,44.269420,2766 6.994364,44.269454,2765 6.994344,44.269438,2765 6.994356,44.269438,2764 6.994365,44.269448,2761 6.994383,44.269489,2761 6.994391,44.269525,2760 6.994382,44.269532,2759 6.994364,44.269533,2759 6.994325,44.269550,2758 6.994305,44.269580,2757 6.994311,44.269626,2756 6.994287,44.269648,2755 6.994291,44.269679,2754 6.994272,44.269669,2753 6.994249,44.269680,2752 6.994255,44.269767,2752 6.994305,44.269779,2752 6.994323,44.269789,2750 6.994243,44.269789,2750 6.994199,44.269790,2749 6.994233,44.269811,2749 6.994202,44.269837,2748 6.994188,44.269819,2747 6.994214,44.269885,2746 6.994145,44.269925,2745 6.994180,44.269922,2744 6.994154,44.269923,2742 6.994151,44.269934,2741 6.994153,44.269949,2739 6.994151,44.269985,2738 6.994153,44.269990,2738 6.994127,44.269981,2736 6.994111,44.269986,2736 6.994101,44.269968,2734 6.994101,44.270000,2734 6.994128,44.270022,2733 6.994139,44.270010,2733 6.994130,44.270064,2733 6.994114,44.270099,2732 6.994149,44.270110,2731 6.994195,44.270121,2731 6.994145,44.270196,2731 6.994151,44.270214,2730 6.994154,44.270208,2730 6.994114,44.270191,2729 6.994116,44.270219,2729 6.994058,44.270286,2729 6.994060,44.270293,2728 6.994093,44.270202,2728 6.994092,44.270180,2728 6.994134,44.270198,2729 6.994105,44.270167,2729 6.994108,44.270150,2729 6.994046,44.270265,2729 6.994040,44.270284,2729 6.994045,44.270259,2729 6.994065,44.270232,2729 6.994090,44.270242,2729 6.994101,44.270239,2729 6.994134,44.270195,2728 6.994082,44.270343,2728 6.994050,44.270388,2728 6.994110,44.270268,2728 6.994146,44.270247,2728 6.994099,44.270221,2728 6.994053,44.270296,2729 6.994122,44.270304,2729 6.994167,44.270256,2728 6.994182,44.270203,2729 6.994177,44.270180,2728 6.994112,44.270226,2728 6.994108,44.270258,2728 6.994113,44.270212,2728 6.994117,44.270203,2728 6.994137,44.270203,2728 6.994139,44.270261,2728 6.994155,44.270270,2728 6.994150,44.270285,2728 6.994132,44.270289,2728 6.994129,44.270223,2727 6.994105,44.270248,2726 6.994133,44.270261,2727 6.994194,44.270282,2725 6.994190,44.270351,2726 6.994202,44.270383,2726 6.994162,44.270441,2726 6.994209,44.270410,2725 6.994180,44.270437,2725 6.994164,44.270457,2724 6.994138,44.270451,2724 6.994081,44.270405,2723 6.994053,44.270379,2722 6.994053,44.270395,2721 6.994002,44.270379,2721 6.993986,44.270356,2720 6.993952,44.270366,2720 6.993911,44.270372,2719 6.993920,44.270367,2719 6.993879,44.270401,2719 6.993855,44.270422,2719 6.993832,44.270419,2718 6.993838,44.270434,2718 6.993809,44.270444,2719 6.993767,44.270462,2720 6.993740,44.270508,2720 6.993718,44.270489,2720 6.993669,44.270537,2721 6.993689,44.270571,2721 6.993679,44.270621,2720 6.993696,44.270638,2719 6.993680,44.270721,2720 6.993682,44.270808,2720 6.993691,44.270801,2720 6.993720,44.270778,2720 6.993769,44.270715,2720 6.993726,44.270718,2720 6.993653,44.270762,2720 6.993647,44.270795,2720 6.993662,44.270779,2720 6.993697,44.270779,2721 6.993674,44.270821,2721 6.993678,44.270867,2720 6.993678,44.270887,2719 6.993680,44.270835,2717 6.993705,44.270853,2716 6.993698,44.270803,2717 6.993699,44.270802,2717 6.993697,44.270786,2717 6.993709,44.270801,2717 6.993704,44.270894,2716 6.993705,44.270935,2715 6.993674,44.270969,2715 6.993632,44.270933,2714 6.993610,44.270918,2712 6.993590,44.270924,2712 6.993537,44.270948,2711 6.993558,44.270962,2711 6.993520,44.270980,2709 6.993542,44.270937,2709 6.993511,44.270963,2709 6.993495,44.270972,2708 6.993454,44.270990,2707 6.993393,44.270984,2706 6.993386,44.270991,2706 6.993403,44.270988,2705 6.993385,44.271063,2705 6.993415,44.271073,2703 6.993361,44.271049,2703 6.993357,44.271081,2703 6.993382,44.271095,2703 6.993330,44.271118,2702 6.993306,44.271122,2701 6.993300,44.271118,2699 6.993257,44.271150,2698 6.993255,44.271147,2698 6.993183,44.271207,2697 6.993173,44.271207,2695 6.993189,44.271206,2694 6.993172,44.271199,2695 6.993161,44.271249,2696 6.993154,44.271252,2696 6.993142,44.271258,2699 6.993170,44.271235,2700 6.993192,44.271217,2699 6.993186,44.271215,2698 6.993179,44.271245,2696 6.993170,44.271265,2696 6.993169,44.271258,2695 6.993200,44.271307,2694 6.993186,44.271296,2694 6.993128,44.271289,2694 6.993126,44.271307,2696 6.993142,44.271327,2694 6.993146,44.271366,2693 6.993156,44.271408,2691 6.993113,44.271393,2690 6.993090,44.271427,2690 6.993101,44.271427,2689 6.993101,44.271476,2688 6.993040,44.271505,2687 6.992988,44.271533,2685 6.992989,44.271534,2683 6.992978,44.271553,2683 6.992971,44.271540,2684 6.992950,44.271565,2685 6.992941,44.271567,2683 6.992956,44.271585,2683 6.992979,44.271619,2683 6.992936,44.271576,2682 6.992912,44.271611,2680 6.992921,44.271624,2679 6.992903,44.271681,2678 6.992896,44.271662,2677 6.992876,44.271691,2676 6.992832,44.271627,2675 6.992827,44.271637,2675 6.992847,44.271639,2675 6.992862,44.271648,2674 6.992877,44.271698,2675 6.992846,44.271683,2673 6.992846,44.271673,2674 6.992874,44.271661,2675 6.992870,44.271657,2675 6.992876,44.271643,2674 6.992871,44.271658,2675 6.992871,44.271687,2675 6.992872,44.271714,2675 6.992857,44.271686,2674 6.992768,44.271716,2674 6.992843,44.271695,2674 6.992879,44.271742,2673 6.992894,44.271779,2674 6.992897,44.271827,2675 6.992886,44.271828,2674 6.992885,44.271861,2672 6.992848,44.271902,2671 6.992805,44.271929,2671 6.992792,44.271903,2672 6.992780,44.271867,2672 6.992800,44.271945,2671 6.992797,44.271949,2671 6.992785,44.271961,2670 6.992776,44.272002,2670 6.992753,44.272034,2669 6.992745,44.272072,2669 6.992723,44.272077,2669 6.992655,44.272103,2669 6.992564,44.272171,2670 6.992568,44.272185,2669 6.992559,44.272144,2668 6.992532,44.272166,2668 6.992532,44.272178,2668 6.992562,44.272227,2668 6.992542,44.272224,2667 6.992571,44.272235,2666 6.992524,44.272241,2665 6.992551,44.272265,2665 6.992544,44.272248,2665 6.992541,44.272273,2665 6.992518,44.272312,2664 6.992507,44.272335,2663 6.992522,44.272355,2662 6.992527,44.272400,2662 6.992526,44.272434,2660 6.992514,44.272484,2659 6.992487,44.272530,2658 6.992460,44.272539,2658 6.992452,44.272541,2657 6.992473,44.272554,2657 6.992489,44.272559,2655 6.992454,44.272565,2654 6.992483,44.272622,2653 6.992483,44.272665,2651 6.992462,44.272709,2649 6.992450,44.272746,2648 6.992434,44.272747,2647 6.992464,44.272777,2646 6.992457,44.272798,2645 6.992423,44.272813,2644 6.992388,44.272811,2643 6.992383,44.272874,2641 6.992431,44.272867,2642 6.992452,44.272877,2642 6.992442,44.272866,2642 6.992443,44.272849,2642 6.992392,44.272864,2641 6.992389,44.272850,2642 6.992375,44.272866,2641 6.992343,44.272883,2640 6.992314,44.272900,2639 6.992262,44.272902,2637 6.992251,44.272913,2636 6.992288,44.272897,2635 6.992334,44.272956,2635 6.992342,44.273042,2633 6.992322,44.273063,2633 6.992288,44.273077,2631 6.992369,44.273062,2630 6.992345,44.273053,2630 6.992386,44.273108,2629 6.992407,44.273115,2629 6.992386,44.273114,2629 6.992386,44.273156,2628 6.992411,44.273153,2628 6.992414,44.273153,2628 6.992434,44.273195,2627 6.992456,44.273212,2626 6.992465,44.273207,2626 6.992467,44.273258,2626 6.992489,44.273273,2625 6.992476,44.273298,2624 6.992509,44.273316,2624 6.992482,44.273304,2623 6.992487,44.273334,2622 6.992481,44.273363,2621 6.992496,44.273387,2620 6.992488,44.273446,2619 6.992501,44.273508,2618 6.992474,44.273548,2617 6.992474,44.273556,2617 6.992471,44.273568,2617 6.992483,44.273603,2618 6.992497,44.273663,2619 6.992491,44.273705,2619 6.992482,44.273756,2618 6.992483,44.273840,2617 6.992421,44.273847,2617 6.992409,44.273894,2617 6.992405,44.273971,2616 6.992329,44.273991,2616 6.992336,44.273986,2616 6.992346,44.273986,2616 6.992350,44.274001,2615 6.992349,44.274050,2615 6.992298,44.274026,2616 6.992324,44.274067,2616 6.992269,44.274098,2617 6.992267,44.274130,2615 6.992246,44.274151,2617 6.992179,44.274180,2615 6.992155,44.274181,2616 6.992156,44.274187,2613 6.992160,44.274202,2613 6.992095,44.274230,2615 6.992087,44.274249,2615 6.992145,44.274256,2614 6.992151,44.274209,2614 6.992151,44.274205,2613 6.992151,44.274198,2613 6.992145,44.274221,2613 6.992114,44.274244,2612 6.992080,44.274257,2611 6.992039,44.274281,2610 6.992037,44.274309,2610 6.992010,44.274332,2608 6.991942,44.274352,2607 6.991918,44.274368,2606 6.991894,44.274353,2608 6.991883,44.274409,2608 6.991829,44.274413,2606 6.991832,44.274424,2604 6.991791,44.274452,2605 6.991735,44.274458,2605 6.991694,44.274461,2603 6.991642,44.274475,2604 6.991513,44.274535,2602 6.991506,44.274560,2603 6.991442,44.274612,2604 6.991426,44.274631,2604 6.991419,44.274643,2605 6.991403,44.274649,2605 6.991374,44.274648,2605 6.991343,44.274664,2603 6.991250,44.274689,2605 6.991229,44.274734,2606 6.991272,44.274747,2608 6.991282,44.274759,2609 6.991289,44.274767,2611 6.991301,44.274788,2613 6.991316,44.274813,2614 6.991312,44.274826,2615 6.991286,44.274841,2616 6.991251,44.274866,2616 6.991193,44.274883,2618 6.991172,44.274893,2619 6.991124,44.274923,2619 6.991101,44.274947,2620 6.991105,44.274976,2620 6.991118,44.275017,2620 6.991138,44.275067,2619 6.991119,44.275132,2618 6.991112,44.275165,2618 6.991092,44.275195,2617 6.991121,44.275247,2617 6.991133,44.275315,2617 6.991114,44.275356,2617 6.991144,44.275487,2617 6.991167,44.275499,2618 6.991133,44.275479,2618 6.991134,44.275481,2618 6.991124,44.275498,2618 6.991111,44.275510,2618 6.991073,44.275517,2617 6.991084,44.275518,2618 6.991095,44.275509,2618 6.991132,44.275528,2619 6.991114,44.275545,2618 6.991095,44.275579,2617 6.991076,44.275611,2618 6.991106,44.275686,2619 6.991067,44.275697,2619 6.990952,44.275636,2619 6.990956,44.275736,2618 6.990963,44.275756,2618 6.990980,44.275770,2617 6.990979,44.275694,2618 6.990912,44.275663,2618 6.990861,44.275643,2616 6.990802,44.275634,2615 6.990804,44.275704,2616 6.990756,44.275744,2616 6.990754,44.275785,2617 6.990767,44.275822,2618 6.990749,44.275821,2619 6.990715,44.275825,2619 6.990703,44.275843,2621 6.990745,44.275878,2621 6.990732,44.275911,2622 6.990727,44.275941,2622 6.990731,44.275987,2623 6.990750,44.276025,2623 6.990731,44.276011,2623 6.990717,44.276042,2623 6.990694,44.276133,2623 6.990700,44.276169,2624 6.990687,44.276222,2625 6.990626,44.276252,2627 6.990602,44.276280,2629 6.990578,44.276304,2630 6.990586,44.276344,2631 6.990588,44.276363,2632 6.990527,44.276348,2633 6.990480,44.276348,2635 6.990478,44.276359,2636 6.990492,44.276400,2638 6.990491,44.276410,2639 6.990475,44.276433,2640 6.990431,44.276422,2642 6.990385,44.276430,2643 6.990368,44.276448,2644 6.990347,44.276484,2645 6.990343,44.276515,2646 6.990304,44.276581,2647 6.990308,44.276591,2647 6.990310,44.276747,2648 6.990309,44.276728,2648 6.990311,44.276731,2648 6.990311,44.276735,2648 6.990315,44.276825,2649 6.990317,44.276852,2650 6.990284,44.276944,2651 6.990270,44.276961,2652 6.990251,44.277001,2655 6.990240,44.277080,2655 6.990213,44.277175,2654 6.990296,44.277306,2653 6.990309,44.277401,2653 6.990296,44.277481,2653 6.990237,44.277618,2653 6.990096,44.277713,2653 6.989999,44.277736,2654 6.989909,44.277869,2655 6.989825,44.277914,2655 6.989739,44.277995,2656 6.989641,44.278117,2656 6.989529,44.278170,2655 6.989436,44.278257,2655 6.989409,44.278288,2654 6.989370,44.278315,2654 6.989330,44.278346,2654 6.989287,44.278442,2653 6.989234,44.278520,2652 6.989071,44.278635,2651 6.989059,44.278655,2651 6.989044,44.278678,2651 6.988952,44.278775,2650 6.988921,44.278815,2648 6.988869,44.278849,2649 6.988795,44.278888,2648 6.988752,44.278914,2647 6.988721,44.278920,2646 6.988722,44.278950,2647 6.988745,44.279078,2647 6.988717,44.279128,2648 6.988704,44.279150,2648 6.988726,44.279123,2648 6.988711,44.279152,2649 6.988728,44.279151,2648 6.988726,44.279111,2649 6.988733,44.278953,2649 6.988689,44.278904,2650 6.988617,44.278876,2650 6.988624,44.278880,2650 6.988647,44.278891,2650 6.988595,44.278829,2650 6.988563,44.278792,2652 6.988541,44.278796,2652 6.988503,44.278795,2653 6.988459,44.278800,2654 6.988429,44.278810,2654 6.988450,44.278803,2654 6.988428,44.278817,2654 6.988319,44.278828,2651 6.988272,44.278846,2650 6.988283,44.278813,2649 6.988272,44.278759,2648 6.988200,44.278706,2647 6.988118,44.278674,2646 6.988096,44.278676,2646 6.988110,44.278654,2646 6.988111,44.278654,2646 6.988095,44.278645,2646 6.988099,44.278661,2646</coordinates></LineString></Placemark></Document></kml>