<?xml version="1.0" encoding="UTF-8"?>
<kml xmlns="http://www.opengis.net/kml/2.2"><Document><name>Alta Linea Continua – Stage 13: Refuge des Lacs de Vens to Vallone di Colombart</name><Style id="l"><LineStyle><color>ff2b30c4</color><width>4</width></LineStyle></Style><Placemark><name>Alta Linea Continua – Stage 13: Refuge des Lacs de Vens to Vallone di Colombart</name><styleUrl>#l</styleUrl><LineString><tessellate>1</tessellate><altitudeMode>clampToGround</altitudeMode><coordinates>6.941844,44.316596,2373 6.941856,44.316621,2373 6.941853,44.316708,2373 6.941988,44.316878,2372 6.941989,44.316947,2373 6.941994,44.317015,2374 6.941996,44.317046,2375 6.941991,44.317134,2377 6.941971,44.317211,2378 6.942002,44.317237,2378 6.942043,44.317285,2380 6.942045,44.317348,2381 6.942120,44.317435,2382 6.942142,44.317465,2383 6.942149,44.317488,2385 6.942183,44.317477,2386 6.942226,44.317465,2387 6.942190,44.317509,2389 6.942212,44.317513,2390 6.942211,44.317504,2391 6.942249,44.317538,2392 6.942266,44.317560,2393 6.942256,44.317577,2394 6.942214,44.317622,2396 6.942201,44.317655,2397 6.942194,44.317714,2398 6.942120,44.317709,2398 6.942193,44.317715,2398 6.942189,44.317719,2398 6.942162,44.317733,2398 6.942185,44.317783,2399 6.942178,44.317827,2400 6.942162,44.317903,2401 6.942162,44.317926,2402 6.942168,44.317967,2402 6.942200,44.318076,2405 6.942209,44.318137,2406 6.942235,44.318218,2407 6.942225,44.318308,2408 6.942235,44.318357,2410 6.942235,44.318371,2411 6.942238,44.318376,2411 6.942272,44.318457,2413 6.942247,44.318513,2414 6.942195,44.318542,2415 6.942123,44.318587,2416 6.942074,44.318638,2417 6.942033,44.318685,2418 6.941987,44.318730,2419 6.941891,44.318772,2420 6.941823,44.318816,2422 6.941736,44.318857,2423 6.941635,44.318875,2424 6.941542,44.318891,2425 6.941445,44.318901,2426 6.941353,44.318939,2428 6.941325,44.318966,2429 6.941268,44.319036,2430 6.941212,44.319127,2431 6.941149,44.319190,2433 6.941038,44.319207,2434 6.940970,44.319240,2436 6.940941,44.319334,2436 6.940873,44.319315,2437 6.940829,44.319313,2438 6.940655,44.319302,2440 6.940587,44.319305,2441 6.940491,44.319306,2442 6.940433,44.319269,2443 6.940381,44.319279,2444 6.940300,44.319309,2446 6.940235,44.319308,2447 6.940191,44.319284,2447 6.940067,44.319233,2448 6.939985,44.319261,2449 6.939917,44.319280,2450 6.939817,44.319232,2451 6.939819,44.319208,2452 6.939806,44.319222,2452 6.939795,44.319224,2452 6.939677,44.319211,2453 6.939657,44.319205,2453 6.939569,44.319176,2454 6.939464,44.319146,2455 6.939469,44.319199,2457 6.939500,44.319234,2458 6.939493,44.319212,2458 6.939502,44.319183,2458 6.939500,44.319200,2458 6.939474,44.319167,2459 6.939572,44.319246,2459 6.939619,44.319287,2460 6.939716,44.319348,2461 6.939725,44.319370,2462 6.939747,44.319400,2463 6.939827,44.319409,2464 6.939912,44.319443,2465 6.939963,44.319507,2467 6.939982,44.319556,2467 6.939978,44.319579,2468 6.940036,44.319644,2469 6.940116,44.319657,2470 6.940141,44.319688,2471 6.940244,44.319741,2472 6.940307,44.319750,2473 6.940443,44.319805,2476 6.940513,44.319821,2477 6.940590,44.319841,2478 6.940648,44.319861,2479 6.940713,44.319901,2480 6.940753,44.319923,2481 6.940868,44.320012,2482 6.940935,44.320059,2483 6.940960,44.320066,2485 6.941052,44.320080,2486 6.941166,44.320083,2487 6.941279,44.320072,2488 6.941341,44.320034,2489 6.941441,44.319998,2491 6.941556,44.319985,2492 6.941626,44.319997,2493 6.941704,44.319998,2495 6.941791,44.319973,2496 6.941859,44.319913,2497 6.941939,44.319850,2498 6.941992,44.319856,2499 6.941931,44.319910,2500 6.941923,44.319951,2501 6.941862,44.320032,2502 6.941828,44.320108,2503 6.941762,44.320167,2504 6.941668,44.320182,2505 6.941611,44.320195,2506 6.941554,44.320216,2507 6.941512,44.320255,2508 6.941465,44.320295,2509 6.941402,44.320344,2510 6.941349,44.320401,2511 6.941286,44.320449,2512 6.941214,44.320486,2514 6.941178,44.320506,2515 6.941177,44.320560,2516 6.941130,44.320573,2517 6.940975,44.320555,2518 6.940890,44.320581,2519 6.940847,44.320601,2520 6.940782,44.320587,2522 6.940737,44.320590,2522 6.940723,44.320588,2523 6.940642,44.320542,2524 6.940566,44.320525,2525 6.940456,44.320522,2526 6.940382,44.320513,2527 6.940281,44.320517,2528 6.940213,44.320531,2529 6.940133,44.320566,2531 6.940075,44.320609,2532 6.940001,44.320625,2533 6.939859,44.320511,2534 6.939792,44.320482,2535 6.939673,44.320454,2537 6.939589,44.320467,2538 6.939515,44.320483,2539 6.939432,44.320476,2539 6.939333,44.320448,2541 6.939279,44.320458,2542 6.939221,44.320455,2542 6.939126,44.320452,2543 6.939026,44.320436,2544 6.938870,44.320420,2546 6.938772,44.320413,2547 6.938665,44.320421,2548 6.938513,44.320459,2550 6.938469,44.320472,2551 6.938404,44.320495,2552 6.938343,44.320513,2554 6.938205,44.320533,2555 6.938115,44.320517,2555 6.938030,44.320560,2556 6.937929,44.320618,2558 6.937870,44.320686,2559 6.937857,44.320741,2560 6.937837,44.320790,2562 6.937796,44.320838,2563 6.937756,44.320902,2565 6.937695,44.320938,2566 6.937617,44.321001,2567 6.937537,44.321064,2568 6.937486,44.321101,2569 6.937429,44.321200,2570 6.937471,44.321332,2571 6.937460,44.321405,2572 6.937418,44.321542,2573 6.937476,44.321672,2574 6.937479,44.321721,2575 6.937448,44.321786,2576 6.937381,44.321895,2577 6.937339,44.321964,2578 6.937293,44.322073,2579 6.937246,44.322167,2581 6.937202,44.322248,2581 6.937142,44.322295,2582 6.937067,44.322369,2583 6.936997,44.322433,2585 6.936976,44.322541,2586 6.936988,44.322607,2587 6.936940,44.322707,2588 6.936906,44.322772,2589 6.936855,44.322876,2590 6.936865,44.323055,2589 6.936840,44.323257,2588 6.936822,44.323440,2587 6.936811,44.323442,2587 6.936806,44.323464,2587 6.936813,44.323531,2587 6.936820,44.323557,2586 6.936800,44.323657,2586 6.936763,44.323815,2587 6.936785,44.323811,2587 6.936761,44.323923,2587 6.936751,44.324051,2588 6.936707,44.324169,2588 6.936724,44.324231,2589 6.936701,44.324326,2590 6.936680,44.324428,2590 6.936674,44.324534,2590 6.936668,44.324591,2591 6.936664,44.324666,2591 6.936629,44.324893,2590 6.936606,44.324991,2589 6.936628,44.325121,2589 6.936612,44.325334,2589 6.936641,44.325486,2590 6.936693,44.325578,2592 6.936743,44.325683,2592 6.936839,44.325847,2593 6.936839,44.325892,2591 6.936826,44.325922,2591 6.936866,44.325933,2590 6.936930,44.325962,2589 6.937024,44.326009,2587 6.937086,44.326045,2587 6.937192,44.326145,2586 6.937272,44.326272,2585 6.937389,44.326419,2585 6.937503,44.326547,2585 6.937530,44.326687,2587 6.937547,44.326725,2587 6.937564,44.326718,2586 6.937543,44.326710,2586 6.937522,44.326705,2586 6.937545,44.326713,2585 6.937550,44.326718,2585 6.937546,44.326719,2585 6.937551,44.326714,2585 6.937550,44.326711,2585 6.937531,44.326703,2586 6.937539,44.326744,2586 6.937562,44.326722,2586 6.937528,44.326716,2586 6.937546,44.326711,2586 6.937540,44.326715,2586 6.937522,44.326717,2585 6.937544,44.326693,2585 6.937560,44.326709,2585 6.937555,44.326729,2585 6.937551,44.326720,2585 6.937508,44.326708,2585 6.937512,44.326737,2584 6.937515,44.326739,2584 6.937524,44.326749,2584 6.937541,44.326717,2584 6.937551,44.326722,2584 6.937572,44.326711,2584 6.937539,44.326707,2584 6.937540,44.326709,2584 6.937512,44.326709,2584 6.937514,44.326711,2584 6.937477,44.326717,2584 6.937486,44.326693,2585 6.937574,44.326751,2584 6.937580,44.326754,2584 6.937509,44.326726,2584 6.937519,44.326727,2584 6.937468,44.326731,2584 6.937551,44.326730,2584 6.937565,44.326772,2583 6.937561,44.326814,2582 6.937479,44.326949,2583 6.937449,44.327006,2584 6.937441,44.327144,2585 6.937441,44.327202,2586 6.937391,44.327220,2587 6.937389,44.327245,2588 6.937365,44.327336,2589 6.937332,44.327372,2590 6.937335,44.327410,2591 6.937337,44.327462,2591 6.937288,44.327509,2592 6.937252,44.327546,2593 6.937223,44.327614,2594 6.937194,44.327665,2593 6.937162,44.327743,2592 6.937127,44.327778,2591 6.937035,44.327847,2593 6.937001,44.327928,2593 6.936886,44.328148,2592 6.936822,44.328255,2592 6.936769,44.328339,2592 6.936737,44.328384,2591 6.936648,44.328556,2591 6.936522,44.328679,2592 6.936447,44.328742,2592 6.936378,44.328786,2592 6.936182,44.328920,2592 6.936110,44.329012,2591 6.935989,44.329093,2590 6.935716,44.329286,2589 6.935620,44.329369,2588 6.935477,44.329457,2588 6.935444,44.329482,2589 6.935392,44.329514,2590 6.935350,44.329553,2592 6.935280,44.329561,2593 6.935237,44.329575,2594 6.935194,44.329603,2596 6.935126,44.329623,2597 6.935087,44.329629,2599 6.935078,44.329648,2599 6.935073,44.329654,2600 6.935023,44.329675,2602 6.935003,44.329700,2603 6.934958,44.329723,2604 6.934928,44.329726,2605 6.934869,44.329732,2606 6.934861,44.329731,2606 6.934811,44.329776,2607 6.934707,44.329812,2608 6.934620,44.329843,2609 6.934576,44.329861,2610 6.934513,44.329876,2611 6.934451,44.329896,2612 6.934380,44.329936,2613 6.934342,44.329951,2614 6.934242,44.329951,2615 6.934204,44.329961,2616 6.934141,44.329978,2617 6.934098,44.329994,2618 6.934038,44.329997,2619 6.933970,44.329976,2620 6.933940,44.329991,2621 6.933871,44.330012,2623 6.933812,44.330015,2624 6.933780,44.330024,2625 6.933729,44.330039,2625 6.933689,44.330028,2627 6.933640,44.330031,2628 6.933584,44.330027,2629 6.933564,44.330010,2630 6.933557,44.329981,2631 6.933547,44.329985,2631 6.933494,44.329980,2633 6.933450,44.329985,2634 6.933324,44.330000,2633 6.933172,44.330028,2632 6.933138,44.330037,2631 6.933103,44.330052,2631 6.933071,44.330076,2629 6.933024,44.330093,2628 6.932962,44.330087,2628 6.932928,44.330122,2627 6.932904,44.330193,2629 6.932871,44.330208,2630 6.932874,44.330212,2632 6.932872,44.330206,2633 6.932875,44.330217,2635 6.932887,44.330245,2636 6.932931,44.330265,2638 6.932944,44.330288,2639 6.932920,44.330309,2640 6.932900,44.330324,2640 6.932906,44.330334,2641 6.932919,44.330358,2642 6.932921,44.330380,2644 6.932934,44.330403,2645 6.932914,44.330433,2644 6.932889,44.330451,2644 6.932877,44.330474,2643 6.932859,44.330479,2642 6.932842,44.330450,2643 6.932826,44.330436,2643 6.932823,44.330444,2643 6.932821,44.330445,2643 6.932826,44.330441,2642 6.932858,44.330443,2642 6.932834,44.330446,2642 6.932825,44.330454,2642 6.932834,44.330450,2642 6.932835,44.330440,2642 6.932828,44.330449,2642 6.932826,44.330443,2642 6.932827,44.330440,2642 6.932848,44.330426,2641 6.932837,44.330428,2642 6.932841,44.330447,2642 6.932888,44.330482,2642 6.932876,44.330483,2642 6.932866,44.330470,2642 6.932836,44.330469,2642 6.932775,44.330547,2642 6.932781,44.330564,2642 6.932781,44.330565,2643 6.932766,44.330566,2643 6.932764,44.330560,2644 6.932750,44.330572,2644 6.932755,44.330591,2644 6.932793,44.330546,2643 6.932786,44.330526,2642 6.932787,44.330543,2642 6.932808,44.330543,2642 6.932812,44.330534,2642 6.932821,44.330551,2642 6.932836,44.330532,2642 6.932843,44.330506,2642 6.932833,44.330516,2642 6.932789,44.330531,2642 6.932823,44.330524,2642 6.932808,44.330500,2642 6.932830,44.330509,2642 6.932839,44.330525,2642 6.932842,44.330522,2642 6.932832,44.330527,2642 6.932812,44.330555,2642 6.932790,44.330556,2642 6.932809,44.330548,2641 6.932807,44.330537,2641 6.932826,44.330542,2641 6.932824,44.330523,2641 6.932791,44.330516,2641 6.932804,44.330515,2641 6.932807,44.330534,2641 6.932802,44.330536,2641 6.932800,44.330544,2641 6.932809,44.330527,2641 6.932810,44.330539,2641 6.932786,44.330504,2641 6.932779,44.330528,2641 6.932781,44.330526,2641 6.932781,44.330537,2640 6.932802,44.330528,2641 6.932782,44.330519,2641 6.932779,44.330526,2640 6.932784,44.330522,2640 6.932813,44.330521,2640 6.932800,44.330540,2640 6.932791,44.330538,2640 6.932797,44.330539,2640 6.932802,44.330533,2640 6.932823,44.330530,2640 6.932840,44.330525,2640 6.932806,44.330513,2640 6.932820,44.330520,2640 6.932810,44.330524,2640 6.932808,44.330520,2640 6.932799,44.330524,2640 6.932840,44.330523,2640 6.932824,44.330520,2640 6.932817,44.330530,2640 6.932803,44.330531,2640 6.932784,44.330533,2640 6.932842,44.330534,2640 6.932838,44.330537,2639 6.932813,44.330530,2640 6.932842,44.330520,2640 6.932817,44.330539,2640 6.932825,44.330544,2640 6.932814,44.330507,2640 6.932810,44.330520,2640 6.932810,44.330503,2640 6.932812,44.330514,2640 6.932786,44.330516,2640 6.932826,44.330511,2640 6.932832,44.330508,2639 6.932789,44.330495,2639 6.932752,44.330520,2639 6.932841,44.330512,2639 6.932805,44.330508,2639 6.932799,44.330513,2639 6.932785,44.330549,2639 6.932838,44.330552,2639 6.932833,44.330567,2639 6.932829,44.330574,2639 6.932841,44.330590,2639 6.932845,44.330598,2639 6.932864,44.330605,2639 6.932876,44.330593,2639 6.932859,44.330575,2639 6.932852,44.330571,2639 6.932864,44.330561,2639 6.932842,44.330552,2639 6.932852,44.330546,2639 6.932830,44.330534,2639 6.932831,44.330540,2639 6.932899,44.330577,2639 6.932801,44.330539,2638 6.932790,44.330553,2638 6.932783,44.330545,2638 6.932893,44.330578,2638 6.932880,44.330580,2638 6.932886,44.330625,2639 6.932907,44.330629,2639 6.932840,44.330581,2638 6.932822,44.330553,2638 6.932761,44.330539,2638 6.932827,44.330567,2638 6.932842,44.330573,2638 6.932787,44.330541,2638 6.932794,44.330538,2638 6.932819,44.330540,2637 6.932792,44.330574,2639 6.932777,44.330573,2639 6.932779,44.330523,2639 6.932781,44.330528,2638 6.932812,44.330540,2638 6.932819,44.330528,2638 6.932819,44.330510,2638 6.932804,44.330514,2637 6.932804,44.330538,2638 6.932809,44.330535,2638 6.932818,44.330537,2638 6.932800,44.330521,2637 6.932768,44.330551,2637 6.932791,44.330536,2636 6.932806,44.330540,2637 6.932811,44.330535,2637 6.932810,44.330543,2637 6.932802,44.330552,2637 6.932805,44.330538,2637 6.932796,44.330542,2637 6.932741,44.330591,2637 6.932663,44.330623,2639 6.932601,44.330629,2639 6.932562,44.330581,2640 6.932522,44.330566,2642 6.932474,44.330591,2643 6.932427,44.330591,2644 6.932434,44.330595,2645 6.932408,44.330610,2646 6.932354,44.330627,2647 6.932316,44.330650,2648 6.932289,44.330647,2649 6.932289,44.330650,2649 6.932271,44.330661,2650 6.932222,44.330679,2651 6.932232,44.330695,2651 6.932178,44.330653,2651 6.932102,44.330636,2653 6.932082,44.330630,2654 6.932072,44.330633,2656 6.932051,44.330631,2657 6.932036,44.330635,2658 6.932015,44.330632,2660 6.931958,44.330609,2661 6.931917,44.330600,2662 6.931866,44.330607,2663 6.931799,44.330615,2664 6.931749,44.330625,2664 6.931686,44.330630,2666 6.931612,44.330620,2668 6.931592,44.330629,2668 6.931592,44.330627,2669 6.931489,44.330596,2669 6.931423,44.330597,2670 6.931359,44.330606,2670 6.931294,44.330597,2671 6.931217,44.330594,2672 6.931195,44.330566,2673 6.931109,44.330546,2674 6.931024,44.330544,2676 6.930982,44.330555,2678 6.930973,44.330579,2679 6.930982,44.330584,2679 6.930951,44.330614,2681 6.930889,44.330634,2682 6.930855,44.330655,2683 6.930830,44.330662,2684 6.930806,44.330681,2685 6.930767,44.330695,2686 6.930746,44.330716,2687 6.930699,44.330739,2688 6.930628,44.330768,2689 6.930529,44.330818,2690 6.930443,44.330850,2692 6.930334,44.330894,2693 6.930247,44.330918,2694 6.930192,44.330941,2695 6.930099,44.330997,2695 6.929926,44.331115,2694 6.929822,44.331178,2693 6.929730,44.331244,2694 6.929629,44.331291,2694 6.929497,44.331380,2693 6.929434,44.331412,2691 6.929347,44.331475,2690 6.929258,44.331528,2689 6.929212,44.331588,2690 6.929170,44.331605,2690 6.929117,44.331602,2688 6.929111,44.331602,2688 6.929073,44.331636,2688 6.929036,44.331668,2689 6.928986,44.331685,2689 6.928831,44.331707,2690 6.928739,44.331714,2691 6.928633,44.331736,2692 6.928542,44.331786,2693 6.928340,44.331806,2692 6.928174,44.331776,2695 6.928156,44.331778,2695 6.928105,44.331797,2696 6.928042,44.331795,2697 6.927877,44.331774,2696 6.927747,44.331817,2695 6.927624,44.331893,2697 6.927466,44.332015,2698 6.927372,44.332080,2699 6.927260,44.332132,2699 6.927040,44.332275,2700 6.926936,44.332311,2700 6.926808,44.332389,2701 6.926709,44.332445,2702 6.926654,44.332477,2703 6.926582,44.332523,2703 6.926384,44.332640,2704 6.926296,44.332687,2704 6.926150,44.332723,2705 6.926098,44.332738,2706 6.925994,44.332770,2707 6.925914,44.332798,2708 6.925822,44.332830,2709 6.925755,44.332839,2711 6.925660,44.332842,2712 6.925633,44.332866,2713 6.925584,44.332884,2713 6.925584,44.332879,2713 6.925584,44.332879,2713 6.925597,44.332911,2713 6.925525,44.332930,2712 6.925484,44.332957,2711 6.925500,44.332955,2711 6.925464,44.332921,2711 6.925502,44.332944,2712 6.925507,44.332958,2712 6.925508,44.332963,2712 6.925518,44.332951,2712 6.925551,44.332925,2713 6.925582,44.332900,2714 6.925592,44.332873,2715 6.925604,44.332886,2715 6.925626,44.332826,2715 6.925603,44.332917,2715 6.925563,44.332877,2715 6.925589,44.332872,2715 6.925620,44.332864,2715 6.925618,44.332895,2715 6.925555,44.332892,2715 6.925614,44.332891,2715 6.925609,44.332887,2715 6.925630,44.332884,2715 6.925611,44.332873,2715 6.925565,44.332895,2716 6.925584,44.332883,2716 6.925602,44.332910,2716 6.925603,44.332898,2716 6.925575,44.332883,2716 6.925597,44.332883,2716 6.925631,44.332906,2716 6.925533,44.332954,2715 6.925480,44.332985,2713 6.925412,44.333003,2712 6.925399,44.333046,2710 6.925388,44.333115,2709 6.925313,44.333186,2706 6.925238,44.333245,2704 6.925194,44.333262,2703 6.925135,44.333279,2701 6.925021,44.333340,2700 6.924966,44.333383,2698 6.924913,44.333410,2697 6.924874,44.333422,2695 6.924761,44.333481,2694 6.924662,44.333519,2692 6.924615,44.333542,2691 6.924507,44.333580,2689 6.924439,44.333605,2686 6.924398,44.333617,2685 6.924288,44.333642,2683 6.924175,44.333647,2682 6.924063,44.333673,2681 6.923951,44.333716,2679 6.923838,44.333756,2678 6.923782,44.333810,2677 6.923705,44.333889,2675 6.923626,44.333932,2674 6.923581,44.333969,2673 6.923580,44.333968,2673 6.923504,44.334108,2673 6.923510,44.334156,2672 6.923512,44.334156,2672 6.923512,44.334156,2672 6.923512,44.334156,2673 6.923512,44.334156,2672 6.923532,44.334185,2673 6.923609,44.334143,2675 6.923666,44.334122,2676 6.923689,44.334110,2677 6.923701,44.334107,2677 6.923699,44.334111,2677 6.923710,44.334131,2678 6.923710,44.334160,2678 6.923700,44.334104,2677 6.923703,44.334092,2677 6.923813,44.333992,2679 6.923883,44.333926,2679 6.923909,44.333899,2681 6.923939,44.333881,2682 6.923959,44.333898,2683 6.924004,44.333905,2684 6.924040,44.333880,2685 6.924106,44.333810,2686 6.924150,44.333768,2685 6.924262,44.333728,2685 6.924247,44.333722,2684 6.924247,44.333722,2684 6.924311,44.333750,2684 6.924438,44.333734,2684 6.924516,44.333684,2685 6.924556,44.333628,2687 6.924602,44.333609,2688 6.924652,44.333592,2690 6.924718,44.333544,2691 6.924764,44.333494,2693 6.924822,44.333454,2694 6.924859,44.333445,2696 6.924884,44.333436,2697 6.924949,44.333424,2699 6.925072,44.333371,2699 6.925119,44.333294,2701 6.925164,44.333264,2703 6.925248,44.333255,2704 6.925303,44.333227,2706 6.925349,44.333155,2708 6.925369,44.333112,2709 6.925373,44.333071,2711 6.925371,44.333032,2713 6.925437,44.332990,2714 6.925500,44.332967,2715 6.925568,44.332919,2717 6.925636,44.332874,2718 6.925613,44.332852,2718 6.925615,44.332875,2718 6.925588,44.332878,2718 6.925611,44.332882,2718 6.925619,44.332870,2718 6.925602,44.332919,2717 6.925630,44.332873,2717 6.925649,44.332863,2718 6.925619,44.332889,2718 6.925656,44.332887,2718 6.925688,44.332907,2718 6.925751,44.332930,2719 6.925785,44.332953,2721 6.925834,44.332969,2722 6.925858,44.332966,2724 6.925886,44.332974,2724 6.925903,44.332989,2725 6.925939,44.333021,2727 6.925975,44.333037,2728 6.925963,44.333035,2729 6.925992,44.333048,2730 6.926003,44.333051,2731 6.926057,44.333087,2733 6.926070,44.333087,2734 6.926122,44.333099,2736 6.926182,44.333121,2738 6.926205,44.333129,2739 6.926260,44.333124,2740 6.926319,44.333129,2741 6.926360,44.333145,2742 6.926361,44.333173,2743 6.926362,44.333226,2744 6.926397,44.333268,2744 6.926439,44.333289,2745 6.926459,44.333337,2747 6.926478,44.333391,2746 6.926498,44.333476,2747 6.926504,44.333563,2746 6.926519,44.333569,2745 6.926497,44.333570,2745 6.926507,44.333599,2745 6.926502,44.333555,2744 6.926508,44.333558,2744 6.926471,44.333573,2744 6.926492,44.333542,2744 6.926519,44.333552,2743 6.926509,44.333563,2743 6.926506,44.333555,2743 6.926484,44.333584,2743 6.926492,44.333575,2742 6.926480,44.333587,2741 6.926504,44.333587,2741 6.926521,44.333569,2741 6.926479,44.333596,2740 6.926454,44.333607,2739 6.926434,44.333621,2738 6.926444,44.333661,2739 6.926452,44.333648,2739 6.926461,44.333681,2740 6.926434,44.333708,2739 6.926438,44.333740,2738 6.926421,44.333737,2737 6.926416,44.333726,2736 6.926442,44.333747,2736 6.926456,44.333716,2734 6.926448,44.333725,2733 6.926419,44.333713,2733 6.926445,44.333769,2732 6.926446,44.333743,2731 6.926373,44.333715,2730 6.926364,44.333706,2730 6.926334,44.333700,2730 6.926352,44.333704,2730 6.926350,44.333734,2728 6.926394,44.333768,2728 6.926347,44.333786,2728 6.926329,44.333777,2728 6.926335,44.333796,2728 6.926329,44.333781,2728 6.926325,44.333782,2728 6.926333,44.333795,2729 6.926315,44.333804,2729 6.926310,44.333803,2730 6.926309,44.333818,2729 6.926307,44.333844,2730 6.926303,44.333829,2731 6.926309,44.333833,2732 6.926291,44.333835,2733 6.926267,44.333864,2734 6.926310,44.333856,2732 6.926284,44.333843,2733 6.926326,44.333854,2733 6.926325,44.333857,2732 6.926346,44.333848,2731 6.926312,44.333839,2732 6.926341,44.333838,2731 6.926302,44.333836,2731 6.926309,44.333836,2731 6.926341,44.333865,2731 6.926382,44.333861,2731 6.926330,44.333854,2730 6.926320,44.333851,2730 6.926322,44.333828,2730 6.926305,44.333837,2730 6.926309,44.333826,2730 6.926321,44.333858,2729 6.926347,44.333853,2729 6.926364,44.333843,2729 6.926329,44.333829,2729 6.926335,44.333830,2729 6.926299,44.333830,2729 6.926304,44.333835,2729 6.926315,44.333849,2729 6.926287,44.333849,2728 6.926297,44.333839,2728 6.926317,44.333842,2729 6.926311,44.333831,2728 6.926296,44.333843,2728 6.926329,44.333834,2728 6.926302,44.333840,2729 6.926297,44.333829,2729 6.926296,44.333828,2729 6.926294,44.333826,2728 6.926302,44.333823,2728 6.926300,44.333829,2728 6.926309,44.333831,2727 6.926285,44.333848,2727 6.926294,44.333838,2727 6.926296,44.333839,2726 6.926291,44.333837,2726 6.926305,44.333846,2726 6.926277,44.333834,2726 6.926325,44.333819,2726 6.926305,44.333823,2726 6.926287,44.333845,2726 6.926286,44.333827,2726 6.926282,44.333819,2726 6.926297,44.333822,2725 6.926282,44.333827,2725 6.926276,44.333828,2725 6.926295,44.333840,2725 6.926295,44.333837,2725 6.926310,44.333826,2726 6.926314,44.333830,2726 6.926306,44.333860,2726 6.926313,44.333855,2726 6.926313,44.333855,2725 6.926331,44.333883,2726 6.926326,44.333888,2726 6.926322,44.333897,2726 6.926343,44.333888,2725 6.926337,44.333892,2725 6.926412,44.333919,2726 6.926351,44.333927,2727 6.926360,44.333905,2727 6.926350,44.333899,2727 6.926347,44.333925,2729 6.926366,44.333932,2730 6.926363,44.333916,2730 6.926361,44.333926,2730 6.926361,44.333926,2730 6.926362,44.333945,2730 6.926369,44.333944,2729 6.926366,44.333919,2729 6.926380,44.333965,2729 6.926363,44.334002,2729 6.926351,44.334010,2729 6.926344,44.334022,2729 6.926385,44.334004,2728 6.926362,44.334051,2728 6.926348,44.334068,2726 6.926343,44.334057,2725 6.926322,44.334079,2724 6.926323,44.334088,2724 6.926322,44.334088,2723 6.926325,44.334100,2723 6.926321,44.334090,2722 6.926326,44.334104,2722 6.926320,44.334117,2721 6.926317,44.334115,2720 6.926330,44.334123,2720 6.926317,44.334110,2720 6.926318,44.334133,2719 6.926345,44.334127,2718 6.926346,44.334149,2718 6.926309,44.334126,2718 6.926313,44.334144,2718 6.926360,44.334120,2717 6.926395,44.334120,2716 6.926356,44.334168,2717 6.926329,44.334187,2717 6.926333,44.334186,2717 6.926339,44.334187,2717 6.926439,44.334208,2718 6.926401,44.334206,2717 6.926380,44.334227,2716 6.926371,44.334245,2716 6.926391,44.334233,2716 6.926387,44.334251,2715 6.926436,44.334268,2715 6.926451,44.334258,2714 6.926429,44.334301,2714 6.926426,44.334305,2713 6.926412,44.334337,2713 6.926417,44.334352,2714 6.926383,44.334369,2713 6.926438,44.334358,2712 6.926421,44.334410,2712 6.926391,44.334411,2711 6.926417,44.334389,2711 6.926419,44.334337,2710 6.926465,44.334333,2710 6.926491,44.334371,2710 6.926470,44.334326,2709 6.926461,44.334318,2709 6.926473,44.334367,2710 6.926525,44.334410,2710 6.926453,44.334408,2710 6.926477,44.334427,2710 6.926471,44.334448,2710 6.926515,44.334477,2711 6.926500,44.334489,2711 6.926506,44.334489,2712 6.926479,44.334528,2712 6.926526,44.334518,2713 6.926538,44.334527,2714 6.926464,44.334544,2714 6.926502,44.334548,2715 6.926485,44.334546,2716 6.926479,44.334548,2717 6.926460,44.334557,2716 6.926470,44.334514,2718 6.926512,44.334507,2718 6.926551,44.334526,2718 6.926531,44.334563,2718 6.926527,44.334562,2719 6.926544,44.334554,2719 6.926487,44.334529,2720 6.926533,44.334531,2720 6.926527,44.334540,2721 6.926520,44.334538,2721 6.926526,44.334532,2720 6.926549,44.334520,2721 6.926548,44.334563,2721 6.926563,44.334462,2720 6.926571,44.334483,2720 6.926562,44.334537,2719 6.926570,44.334524,2718 6.926566,44.334503,2718 6.926566,44.334527,2719 6.926555,44.334545,2718 6.926559,44.334546,2718 6.926557,44.334553,2718 6.926597,44.334529,2717 6.926569,44.334553,2717 6.926597,44.334532,2716 6.926612,44.334505,2716 6.926618,44.334547,2716 6.926592,44.334532,2716 6.926612,44.334522,2716 6.926616,44.334520,2716 6.926597,44.334570,2716 6.926624,44.334608,2717 6.926595,44.334544,2717 6.926600,44.334508,2716 6.926601,44.334504,2716 6.926612,44.334541,2716 6.926663,44.334591,2717 6.926655,44.334593,2718 6.926662,44.334625,2718 6.926659,44.334591,2718 6.926647,44.334623,2717 6.926629,44.334613,2718 6.926619,44.334617,2718 6.926580,44.334643,2719 6.926614,44.334644,2719 6.926622,44.334614,2720 6.926622,44.334626,2720 6.926617,44.334631,2719 6.926625,44.334643,2719 6.926661,44.334614,2719 6.926674,44.334668,2719 6.926648,44.334627,2719 6.926565,44.334585,2718 6.926548,44.334599,2718 6.926576,44.334649,2717 6.926567,44.334658,2717 6.926583,44.334665,2716 6.926677,44.334733,2716 6.926680,44.334751,2716 6.926665,44.334731,2716 6.926631,44.334718,2715 6.926591,44.334640,2715 6.926563,44.334615,2715 6.926544,44.334646,2715 6.926585,44.334678,2715 6.926620,44.334702,2716 6.926625,44.334595,2716 6.926712,44.334726,2717 6.926688,44.334726,2717 6.926597,44.334718,2717 6.926578,44.334713,2717 6.926595,44.334738,2718 6.926561,44.334749,2718 6.926551,44.334710,2719 6.926567,44.334700,2719 6.926568,44.334723,2720 6.926558,44.334711,2720 6.926557,44.334714,2721 6.926547,44.334713,2722 6.926546,44.334709,2721 6.926581,44.334735,2720 6.926584,44.334794,2720 6.926593,44.334792,2720 6.926587,44.334759,2720 6.926579,44.334767,2720 6.926538,44.334800,2720 6.926532,44.334786,2719 6.926495,44.334780,2718 6.926505,44.334805,2718 6.926549,44.334806,2718 6.926547,44.334839,2717 6.926591,44.334859,2717 6.926485,44.334914,2717 6.926374,44.334873,2717 6.926382,44.334889,2718 6.926526,44.334920,2719 6.926396,44.334930,2718 6.926276,44.334975,2718 6.926249,44.334987,2717 6.926258,44.334986,2718 6.926242,44.334988,2718 6.926523,44.334912,2717 6.926459,44.334921,2718 6.926461,44.334906,2718 6.926511,44.334901,2718 6.926562,44.334886,2717 6.926547,44.334886,2719 6.926565,44.334882,2718 6.926623,44.334882,2718 6.926591,44.334872,2719 6.926648,44.334862,2720 6.926640,44.334862,2720 6.926579,44.334874,2720 6.926554,44.334884,2720 6.926554,44.334870,2721 6.926534,44.334847,2721 6.926563,44.334883,2720 6.926586,44.334887,2720 6.926587,44.334876,2720 6.926554,44.334883,2720 6.926524,44.334871,2720 6.926557,44.334866,2721 6.926568,44.334917,2722 6.926565,44.334927,2722 6.926598,44.334906,2722 6.926595,44.334887,2723 6.926644,44.334882,2723 6.926562,44.334911,2723 6.926589,44.334931,2723 6.926528,44.334895,2723 6.926530,44.334880,2723 6.926563,44.334864,2723 6.926655,44.334850,2724 6.926643,44.334940,2724 6.926650,44.334929,2725 6.926634,44.334941,2725 6.926634,44.334973,2725 6.926644,44.334962,2725 6.926626,44.334974,2726 6.926671,44.334952,2728 6.926683,44.334974,2729 6.926702,44.334960,2730 6.926700,44.334984,2730 6.926747,44.335012,2732 6.926740,44.335023,2732 6.926744,44.335015,2733 6.926742,44.335016,2733 6.926732,44.335037,2733 6.926758,44.335022,2732 6.926731,44.335011,2732 6.926693,44.334979,2731 6.926676,44.334978,2729 6.926649,44.334977,2728 6.926647,44.334970,2727 6.926649,44.334977,2726 6.926637,44.334964,2726 6.926609,44.334988,2725 6.926620,44.334994,2724 6.926618,44.334998,2723 6.926611,44.334986,2723 6.926604,44.334975,2723 6.926608,44.334988,2722 6.926642,44.335028,2722 6.926617,44.334980,2721 6.926585,44.334941,2720 6.926602,44.334988,2719 6.926611,44.334996,2719 6.926607,44.334965,2718 6.926592,44.335013,2717 6.926606,44.334990,2716 6.926585,44.335046,2715 6.926488,44.335032,2715 6.926555,44.335017,2715 6.926556,44.335025,2714 6.926578,44.334992,2714 6.926580,44.335038,2713 6.926554,44.335029,2712 6.926602,44.335079,2711 6.926594,44.335094,2711 6.926635,44.335097,2710 6.926610,44.335102,2710 6.926525,44.335049,2710 6.926543,44.335071,2709 6.926445,44.335078,2709 6.926510,44.335066,2709 6.926527,44.335106,2710 6.926523,44.335114,2710 6.926523,44.335149,2711 6.926537,44.335184,2712 6.926573,44.335162,2713 6.926544,44.335145,2714 6.926550,44.335158,2714 6.926542,44.335157,2715 6.926583,44.335167,2716 6.926645,44.335145,2716 6.926632,44.335119,2717 6.926597,44.335123,2717 6.926601,44.335167,2717 6.926597,44.335185,2718 6.926591,44.335189,2717 6.926581,44.335201,2716 6.926545,44.335215,2715 6.926534,44.335210,2715 6.926498,44.335260,2715 6.926483,44.335282,2715 6.926498,44.335331,2716 6.926513,44.335350,2716 6.926496,44.335327,2717 6.926498,44.335323,2718 6.926511,44.335341,2718 6.926521,44.335319,2719 6.926524,44.335315,2720 6.926541,44.335331,2720 6.926547,44.335364,2720 6.926533,44.335368,2720 6.926527,44.335364,2720 6.926505,44.335340,2720 6.926475,44.335341,2720 6.926479,44.335366,2720 6.926508,44.335361,2720 6.926541,44.335384,2720 6.926560,44.335344,2719 6.926514,44.335349,2719 6.926513,44.335373,2718 6.926521,44.335413,2717 6.926520,44.335408,2718 6.926495,44.335432,2718 6.926502,44.335458,2719 6.926506,44.335474,2719 6.926549,44.335427,2718 6.926510,44.335430,2720 6.926550,44.335457,2721 6.926571,44.335464,2721 6.926571,44.335461,2721 6.926569,44.335458,2721 6.926551,44.335447,2720 6.926614,44.335439,2720 6.926590,44.335430,2721 6.926575,44.335425,2721 6.926596,44.335424,2721 6.926618,44.335417,2721 6.926607,44.335448,2721 6.926606,44.335435,2721 6.926614,44.335450,2721 6.926610,44.335469,2720 6.926618,44.335459,2720 6.926598,44.335473,2719 6.926598,44.335494,2718 6.926557,44.335488,2718 6.926546,44.335526,2717 6.926549,44.335533,2717 6.926608,44.335472,2716 6.926587,44.335415,2716 6.926605,44.335482,2716 6.926568,44.335442,2716 6.926583,44.335477,2717 6.926585,44.335486,2716 6.926615,44.335504,2716 6.926616,44.335465,2715 6.926623,44.335482,2715 6.926611,44.335490,2715 6.926637,44.335455,2716 6.926648,44.335466,2717 6.926616,44.335467,2717 6.926612,44.335440,2718 6.926600,44.335444,2718 6.926590,44.335438,2718 6.926624,44.335467,2718 6.926613,44.335466,2718 6.926621,44.335447,2718 6.926606,44.335457,2717 6.926607,44.335450,2717 6.926603,44.335461,2717 6.926600,44.335438,2717 6.926605,44.335460,2717 6.926615,44.335454,2717 6.926627,44.335458,2717 6.926599,44.335452,2717 6.926623,44.335474,2716 6.926617,44.335470,2716 6.926631,44.335485,2716 6.926627,44.335484,2716 6.926630,44.335464,2716 6.926603,44.335447,2716 6.926596,44.335437,2716 6.926595,44.335448,2716 6.926596,44.335433,2716 6.926604,44.335444,2716 6.926637,44.335478,2716 6.926649,44.335500,2717 6.926641,44.335518,2718 6.926642,44.335512,2718 6.926647,44.335506,2719 6.926679,44.335515,2720 6.926671,44.335509,2720 6.926671,44.335522,2720 6.926630,44.335513,2719 6.926649,44.335530,2720 6.926642,44.335539,2721 6.926663,44.335571,2722 6.926695,44.335567,2722 6.926671,44.335580,2721 6.926655,44.335615,2722 6.926635,44.335605,2723 6.926631,44.335615,2723 6.926609,44.335653,2723 6.926588,44.335661,2724 6.926607,44.335641,2725 6.926612,44.335641,2723 6.926626,44.335653,2722 6.926610,44.335651,2721 6.926608,44.335640,2721 6.926604,44.335633,2720 6.926636,44.335635,2719 6.926654,44.335636,2720 6.926654,44.335645,2720 6.926687,44.335642,2720 6.926730,44.335603,2721 6.926733,44.335608,2720 6.926758,44.335593,2721 6.926748,44.335600,2720 6.926727,44.335607,2722 6.926742,44.335627,2722 6.926749,44.335614,2723 6.926729,44.335605,2724 6.926732,44.335622,2723 6.926731,44.335629,2722 6.926711,44.335624,2721 6.926693,44.335649,2723 6.926681,44.335672,2723 6.926688,44.335665,2723 6.926731,44.335663,2723 6.926736,44.335669,2724 6.926726,44.335657,2724 6.926750,44.335676,2724 6.926756,44.335692,2725 6.926770,44.335696,2725 6.926766,44.335697,2726 6.926747,44.335698,2726 6.926731,44.335709,2726 6.926724,44.335705,2726 6.926714,44.335718,2725 6.926722,44.335704,2724 6.926704,44.335690,2724 6.926703,44.335722,2725 6.926716,44.335715,2724 6.926726,44.335696,2723 6.926718,44.335694,2723 6.926714,44.335702,2723 6.926728,44.335718,2722 6.926732,44.335706,2722 6.926716,44.335715,2721 6.926731,44.335717,2721 6.926722,44.335720,2721 6.926734,44.335735,2721 6.926737,44.335736,2721 6.926719,44.335729,2721 6.926706,44.335713,2721 6.926723,44.335720,2721 6.926729,44.335692,2720 6.926730,44.335750,2720 6.926725,44.335730,2720 6.926738,44.335719,2720 6.926724,44.335716,2721 6.926732,44.335759,2720 6.926719,44.335728,2720 6.926722,44.335717,2719 6.926748,44.335730,2719 6.926700,44.335728,2718 6.926698,44.335744,2718 6.926717,44.335761,2718 6.926685,44.335763,2717 6.926667,44.335759,2717 6.926676,44.335749,2716 6.926667,44.335746,2715 6.926678,44.335763,2715 6.926655,44.335744,2714 6.926686,44.335715,2712 6.926655,44.335665,2712 6.926674,44.335695,2712 6.926683,44.335725,2711 6.926671,44.335743,2710 6.926670,44.335740,2709 6.926638,44.335737,2709 6.926623,44.335766,2708 6.926680,44.335815,2708 6.926683,44.335821,2707 6.926671,44.335775,2707 6.926633,44.335723,2706 6.926602,44.335744,2706 6.926632,44.335752,2706 6.926652,44.335751,2706 6.926628,44.335770,2706 6.926628,44.335781,2705 6.926635,44.335777,2705 6.926616,44.335777,2705 6.926652,44.335783,2705 6.926629,44.335792,2704 6.926645,44.335800,2703 6.926663,44.335792,2703 6.926624,44.335825,2703 6.926649,44.335808,2703 6.926611,44.335783,2702 6.926634,44.335790,2701 6.926632,44.335782,2701 6.926654,44.335781,2700 6.926657,44.335803,2699 6.926627,44.335791,2698 6.926618,44.335782,2697 6.926565,44.335820,2697 6.926567,44.335828,2696 6.926586,44.335818,2696 6.926559,44.335809,2695 6.926573,44.335818,2695 6.926584,44.335800,2695 6.926566,44.335816,2694 6.926581,44.335797,2694 6.926558,44.335769,2693 6.926508,44.335784,2693 6.926521,44.335774,2692 6.926559,44.335776,2692 6.926524,44.335778,2691 6.926534,44.335751,2691 6.926542,44.335735,2690 6.926551,44.335739,2690 6.926520,44.335723,2690 6.926543,44.335708,2689 6.926549,44.335695,2689 6.926564,44.335696,2689 6.926542,44.335689,2689 6.926583,44.335708,2690 6.926620,44.335678,2689 6.926531,44.335677,2688 6.926507,44.335686,2688 6.926497,44.335695,2688 6.926472,44.335691,2688 6.926476,44.335698,2688 6.926440,44.335702,2688 6.926484,44.335687,2689 6.926500,44.335685,2689 6.926492,44.335709,2690 6.926489,44.335701,2690 6.926479,44.335722,2690 6.926503,44.335723,2690 6.926492,44.335753,2690 6.926495,44.335763,2691 6.926455,44.335763,2690 6.926439,44.335767,2690 6.926333,44.335806,2689 6.926355,44.335767,2689 6.926393,44.335780,2688 6.926397,44.335787,2688 6.926388,44.335738,2688 6.926352,44.335832,2688 6.926401,44.335735,2687 6.926391,44.335726,2687 6.926415,44.335738,2688 6.926415,44.335764,2688 6.926372,44.335748,2688 6.926400,44.335775,2687 6.926384,44.335758,2686 6.926392,44.335751,2686 6.926433,44.335743,2685 6.926441,44.335744,2685 6.926389,44.335742,2684 6.926351,44.335732,2685 6.926340,44.335741,2685 6.926401,44.335765,2685 6.926346,44.335755,2684 6.926322,44.335733,2684 6.926390,44.335759,2685 6.926399,44.335757,2685 6.926314,44.335749,2685 6.926356,44.335761,2684 6.926332,44.335745,2683 6.926323,44.335760,2683 6.926269,44.335767,2682 6.926317,44.335768,2683 6.926310,44.335765,2683 6.926270,44.335768,2682 6.926238,44.335770,2682 6.926215,44.335797,2681 6.926218,44.335810,2681 6.926184,44.335841,2681 6.926147,44.335870,2680 6.926131,44.335900,2681 6.926086,44.335911,2680 6.926128,44.335914,2681 6.926132,44.335947,2682 6.926111,44.335956,2683 6.926073,44.335953,2684 6.926060,44.335968,2684 6.926062,44.335972,2684 6.926071,44.335998,2685 6.926079,44.336003,2686 6.926103,44.336033,2687 6.926076,44.336018,2688 6.926044,44.336020,2689 6.926066,44.336047,2689 6.926037,44.336096,2689 6.926039,44.336105,2689 6.926045,44.336127,2691 6.926034,44.336163,2692 6.926032,44.336170,2692 6.926027,44.336188,2693 6.926004,44.336194,2694 6.925997,44.336193,2695 6.926025,44.336212,2696 6.926037,44.336233,2697 6.926020,44.336236,2698 6.926042,44.336236,2699 6.926062,44.336278,2699 6.926032,44.336272,2699 6.926021,44.336250,2700 6.926041,44.336281,2701 6.926027,44.336286,2701 6.926027,44.336287,2702 6.925997,44.336296,2703 6.926000,44.336319,2704 6.926035,44.336336,2705 6.926029,44.336342,2706 6.926013,44.336352,2707 6.926008,44.336370,2708 6.926032,44.336359,2709 6.926054,44.336360,2710 6.926058,44.336349,2711 6.926131,44.336351,2712 6.926102,44.336390,2712 6.926102,44.336399,2713 6.926123,44.336381,2714 6.926085,44.336400,2713 6.926063,44.336400,2713 6.926057,44.336409,2714 6.926073,44.336438,2716 6.926084,44.336448,2716 6.926077,44.336449,2717 6.926062,44.336450,2718 6.926058,44.336468,2719 6.926050,44.336483,2719 6.926049,44.336481,2720 6.926083,44.336459,2721 6.926078,44.336481,2721 6.926098,44.336476,2722 6.926085,44.336479,2722 6.926121,44.336462,2723 6.926131,44.336490,2724 6.926133,44.336501,2725 6.926127,44.336502,2725 6.926131,44.336495,2727 6.926166,44.336488,2727 6.926174,44.336494,2728 6.926129,44.336551,2729 6.926114,44.336563,2730 6.926114,44.336588,2730 6.926076,44.336624,2731 6.926098,44.336597,2731 6.926119,44.336582,2732 6.926117,44.336608,2733 6.926121,44.336609,2733 6.926126,44.336619,2733 6.926167,44.336597,2734 6.926179,44.336605,2735 6.926179,44.336612,2736 6.926200,44.336598,2736 6.926181,44.336607,2737 6.926231,44.336628,2738 6.926237,44.336627,2739 6.926198,44.336645,2739 6.926174,44.336640,2740 6.926172,44.336686,2741 6.926192,44.336658,2742 6.926208,44.336663,2743 6.926205,44.336660,2745 6.926213,44.336690,2746 6.926181,44.336707,2748 6.926185,44.336726,2748 6.926172,44.336744,2748 6.926193,44.336737,2748 6.926194,44.336742,2748 6.926192,44.336753,2747 6.926203,44.336757,2746 6.926187,44.336781,2746 6.926192,44.336775,2746 6.926243,44.336794,2746 6.926223,44.336821,2745 6.926220,44.336804,2746 6.926212,44.336821,2746 6.926242,44.336827,2747 6.926261,44.336830,2747 6.926233,44.336829,2747 6.926232,44.336816,2746 6.926262,44.336832,2747 6.926218,44.336853,2748 6.926209,44.336877,2750 6.926221,44.336901,2751 6.926191,44.336976,2751 6.926093,44.337017,2752 6.926133,44.337018,2752 6.926147,44.337017,2752 6.926188,44.336986,2753 6.926204,44.336964,2754 6.926179,44.336989,2754 6.926169,44.336972,2755 6.926186,44.336953,2755 6.926130,44.336994,2756 6.926095,44.337006,2757 6.926167,44.337012,2757 6.926182,44.336990,2756 6.926202,44.337014,2756 6.926161,44.337024,2755 6.926223,44.337004,2755 6.926229,44.337020,2755 6.926201,44.337025,2754 6.926194,44.337036,2753 6.926211,44.337026,2753 6.926202,44.337037,2753 6.926222,44.337048,2754 6.926194,44.337062,2753 6.926220,44.337083,2754 6.926224,44.337057,2754 6.926211,44.337062,2754 6.926185,44.337083,2754 6.926213,44.337082,2754 6.926207,44.337067,2754 6.926214,44.337086,2753 6.926207,44.337086,2753 6.926234,44.337096,2753 6.926270,44.337128,2753 6.926245,44.337131,2754 6.926233,44.337152,2754 6.926278,44.337162,2754 6.926245,44.337133,2755 6.926238,44.337163,2756 6.926246,44.337175,2756 6.926286,44.337156,2759 6.926284,44.337127,2759 6.926262,44.337154,2760 6.926247,44.337164,2761 6.926212,44.337166,2761 6.926237,44.337158,2762 6.926254,44.337165,2763 6.926240,44.337178,2763 6.926231,44.337178,2762 6.926184,44.337206,2763 6.926195,44.337219,2764 6.926215,44.337187,2765 6.926172,44.337202,2766 6.926175,44.337222,2767 6.926212,44.337232,2768 6.926195,44.337220,2769 6.926167,44.337253,2770 6.926171,44.337247,2770 6.926129,44.337263,2771 6.926142,44.337268,2772 6.926190,44.337271,2773 6.926157,44.337284,2774 6.926094,44.337287,2774 6.926112,44.337306,2774 6.926110,44.337320,2775 6.926126,44.337317,2776 6.926148,44.337294,2776 6.926070,44.337327,2775 6.926042,44.337326,2775 6.926059,44.337306,2774 6.926141,44.337305,2774 6.926135,44.337299,2774 6.926116,44.337316,2775 6.926084,44.337324,2776 6.926044,44.337351,2776 6.926036,44.337355,2777 6.926031,44.337360,2777 6.926045,44.337369,2777 6.926042,44.337376,2777 6.926025,44.337373,2776 6.925996,44.337405,2775 6.926004,44.337400,2774 6.926003,44.337416,2774 6.926027,44.337399,2774 6.926012,44.337418,2774 6.926062,44.337421,2774 6.926091,44.337429,2773 6.926083,44.337441,2772 6.926064,44.337447,2771 6.926054,44.337460,2772 6.926057,44.337448,2772 6.926050,44.337427,2772 6.926101,44.337468,2772 6.926063,44.337472,2771 6.926049,44.337477,2771 6.926016,44.337512,2770 6.926046,44.337504,2769 6.926023,44.337534,2768 6.925982,44.337533,2768 6.925959,44.337575,2767 6.925916,44.337616,2766 6.925887,44.337640,2766 6.925830,44.337725,2765 6.925812,44.337743,2765 6.925786,44.337775,2763 6.925818,44.337799,2763 6.925820,44.337836,2762 6.925813,44.337857,2762 6.925723,44.337882,2761 6.925726,44.337921,2762 6.925727,44.337916,2762 6.925721,44.337918,2762 6.925728,44.337942,2763 6.925752,44.337945,2764 6.925702,44.337910,2765 6.925714,44.337904,2765 6.925713,44.337898,2766 6.925692,44.337884,2766 6.925690,44.337871,2767 6.925703,44.337874,2767 6.925769,44.337908,2768 6.925725,44.337914,2768 6.925702,44.337909,2768 6.925751,44.337912,2769 6.925810,44.337930,2770 6.925820,44.337911,2771 6.925821,44.337914,2771 6.925815,44.337917,2771 6.925821,44.337908,2771 6.925826,44.337882,2772 6.925851,44.337831,2772 6.925855,44.337816,2773 6.925854,44.337819,2774 6.925857,44.337807,2774 6.925852,44.337825,2775 6.925843,44.337816,2775 6.925856,44.337824,2775 6.925833,44.337857,2776 6.925869,44.337814,2776 6.925871,44.337834,2776 6.925860,44.337829,2777 6.925867,44.337805,2777 6.925860,44.337828,2777 6.925845,44.337825,2776 6.925871,44.337835,2777 6.925870,44.337824,2777 6.925879,44.337828,2777 6.925864,44.337828,2778 6.925853,44.337827,2778 6.925876,44.337854,2790 6.925881,44.337807,2789 6.925917,44.337837,2789 6.925889,44.337832,2789 6.925884,44.337828,2789 6.925892,44.337766,2788 6.925930,44.337787,2787 6.925945,44.337787,2786 6.925979,44.337774,2784 6.926021,44.337790,2783 6.926047,44.337772,2781 6.926064,44.337765,2780 6.926084,44.337778,2779 6.926100,44.337789,2779 6.926127,44.337816,2778 6.926157,44.337831,2777 6.926164,44.337819,2776 6.926191,44.337800,2774 6.926178,44.337760,2774 6.926182,44.337762,2774 6.926203,44.337785,2774 6.926218,44.337786,2772 6.926216,44.337764,2772 6.926227,44.337814,2771 6.926257,44.337824,2770 6.926275,44.337842,2769 6.926279,44.337830,2768 6.926282,44.337827,2769 6.926297,44.337836,2768 6.926334,44.337914,2767 6.926353,44.337962,2766 6.926289,44.337910,2765 6.926275,44.337883,2765 6.926311,44.337896,2764 6.926320,44.337943,2763 6.926293,44.337951,2761 6.926304,44.337954,2761 6.926313,44.337973,2760 6.926312,44.338009,2760 6.926291,44.338003,2759 6.926311,44.337993,2758 6.926308,44.337998,2758 6.926286,44.338048,2757 6.926275,44.338065,2756 6.926290,44.338096,2755 6.926284,44.338094,2754 6.926273,44.338109,2754 6.926315,44.338154,2752 6.926300,44.338193,2752 6.926351,44.338216,2752 6.926322,44.338190,2752 6.926330,44.338211,2751 6.926291,44.338223,2750 6.926316,44.338214,2748 6.926313,44.338199,2747 6.926379,44.338212,2745 6.926397,44.338235,2745 6.926422,44.338293,2743 6.926439,44.338312,2742 6.926418,44.338300,2742 6.926422,44.338304,2741 6.926456,44.338304,2741 6.926459,44.338295,2740 6.926451,44.338326,2738 6.926464,44.338353,2737 6.926440,44.338354,2738 6.926475,44.338402,2736 6.926499,44.338385,2735 6.926519,44.338382,2734 6.926555,44.338359,2733 6.926593,44.338354,2732 6.926623,44.338383,2731 6.926606,44.338365,2730 6.926640,44.338426,2729 6.926652,44.338427,2728 6.926661,44.338428,2727 6.926658,44.338446,2727 6.926648,44.338449,2726 6.926630,44.338440,2726 6.926642,44.338475,2725 6.926680,44.338452,2725 6.926717,44.338462,2724 6.926745,44.338469,2722 6.926754,44.338484,2720 6.926784,44.338504,2719 6.926799,44.338543,2718 6.926818,44.338548,2719 6.926764,44.338508,2718 6.926770,44.338505,2717 6.926811,44.338494,2716 6.926840,44.338517,2715 6.926840,44.338511,2714 6.926835,44.338512,2713 6.926892,44.338509,2712 6.926890,44.338494,2711 6.926943,44.338467,2710 6.926950,44.338475,2709 6.927007,44.338476,2709 6.927035,44.338500,2708 6.927093,44.338510,2707 6.927052,44.338473,2707 6.927095,44.338476,2706 6.927140,44.338488,2704 6.927102,44.338479,2704 6.927127,44.338478,2703 6.927153,44.338542,2701 6.927175,44.338551,2700 6.927183,44.338555,2699 6.927185,44.338577,2697 6.927206,44.338574,2697 6.927201,44.338575,2696 6.927214,44.338597,2694 6.927226,44.338612,2693 6.927257,44.338620,2692 6.927266,44.338634,2691 6.927240,44.338656,2689 6.927258,44.338684,2689 6.927252,44.338677,2688 6.927265,44.338671,2688 6.927307,44.338716,2687 6.927300,44.338742,2686 6.927289,44.338729,2686 6.927331,44.338761,2685 6.927351,44.338775,2684 6.927376,44.338799,2682 6.927418,44.338776,2682 6.927434,44.338780,2682 6.927426,44.338781,2682 6.927387,44.338744,2682 6.927366,44.338773,2681 6.927301,44.338738,2682 6.927280,44.338780,2682 6.927332,44.338792,2682 6.927417,44.338812,2682 6.927352,44.338809,2682 6.927321,44.338829,2682 6.927296,44.338797,2683 6.927331,44.338771,2682 6.927325,44.338803,2682 6.927369,44.338821,2681 6.927414,44.338838,2679 6.927387,44.338878,2677 6.927403,44.338888,2676 6.927418,44.338920,2675 6.927423,44.338940,2673 6.927393,44.338970,2672 6.927387,44.338973,2671 6.927364,44.339008,2670 6.927302,44.339054,2669 6.927292,44.339051,2668 6.927260,44.339102,2668 6.927267,44.339148,2667 6.927239,44.339137,2666 6.927254,44.339201,2664 6.927271,44.339227,2663 6.927186,44.339274,2662 6.927162,44.339289,2661 6.927148,44.339326,2660 6.927154,44.339339,2660 6.927159,44.339372,2658 6.927164,44.339409,2658 6.927103,44.339439,2657 6.927141,44.339454,2656 6.927117,44.339481,2656 6.927042,44.339472,2656 6.927032,44.339464,2656 6.927017,44.339481,2655 6.926995,44.339498,2654 6.926976,44.339547,2653 6.926965,44.339574,2652 6.926911,44.339608,2652 6.926907,44.339665,2650 6.926874,44.339703,2649 6.926918,44.339701,2650 6.926855,44.339712,2648 6.926854,44.339723,2647 6.926822,44.339753,2646 6.926865,44.339754,2646 6.926834,44.339748,2646 6.926822,44.339741,2646 6.926853,44.339764,2646 6.926834,44.339700,2646 6.926872,44.339732,2646 6.926863,44.339757,2646 6.926889,44.339735,2646 6.926868,44.339758,2646 6.926815,44.339801,2645 6.926815,44.339818,2644 6.926832,44.339823,2643 6.926814,44.339831,2641 6.926789,44.339865,2640 6.926758,44.339896,2638 6.926718,44.339927,2637 6.926703,44.339947,2637 6.926714,44.339965,2638 6.926615,44.339938,2639 6.926601,44.339931,2639 6.926620,44.339941,2639 6.926692,44.339948,2640 6.926692,44.339938,2640 6.926674,44.339980,2639 6.926640,44.339994,2638 6.926588,44.340003,2637 6.926608,44.340017,2636 6.926552,44.340025,2635 6.926504,44.340104,2637 6.926478,44.340106,2638 6.926478,44.340084,2639 6.926453,44.340080,2639 6.926459,44.340126,2640 6.926466,44.340144,2640 6.926463,44.340136,2640 6.926495,44.340123,2641 6.926361,44.340054,2640 6.926374,44.340062,2640 6.926393,44.340102,2640 6.926402,44.340162,2640 6.926415,44.340178,2639 6.926411,44.340193,2639 6.926359,44.340177,2639 6.926410,44.340193,2639 6.926344,44.340138,2639 6.926376,44.340165,2640 6.926367,44.340188,2640 6.926345,44.340220,2641 6.926316,44.340258,2642 6.926266,44.340264,2643 6.926219,44.340259,2644 6.926184,44.340319,2644 6.926147,44.340413,2645 6.926136,44.340440,2645 6.926131,44.340441,2646 6.926113,44.340453,2647 6.926088,44.340441,2648 6.926061,44.340451,2650 6.926030,44.340460,2651 6.926009,44.340471,2652 6.925960,44.340518,2654 6.925926,44.340515,2655 6.925920,44.340488,2656 6.925890,44.340500,2657 6.925869,44.340492,2658 6.925841,44.340516,2659 6.925810,44.340524,2660 6.925801,44.340545,2660 6.925779,44.340534,2661 6.925783,44.340518,2662 6.925790,44.340493,2663 6.925765,44.340478,2665 6.925772,44.340479,2666 6.925752,44.340481,2666 6.925744,44.340492,2667 6.925665,44.340474,2668 6.925652,44.340482,2668 6.925662,44.340483,2669 6.925600,44.340486,2670 6.925582,44.340497,2671 6.925547,44.340496,2672 6.925533,44.340475,2673 6.925530,44.340495,2674 6.925532,44.340489,2675 6.925515,44.340502,2676 6.925523,44.340496,2676 6.925483,44.340520,2677 6.925460,44.340540,2678 6.925469,44.340550,2678 6.925479,44.340575,2680 6.925463,44.340620,2681 6.925445,44.340612,2681 6.925446,44.340608,2682 6.925437,44.340590,2683 6.925447,44.340574,2684 6.925471,44.340579,2685 6.925453,44.340560,2686 6.925405,44.340542,2687 6.925450,44.340550,2688 6.925418,44.340555,2689 6.925353,44.340578,2690 6.925342,44.340566,2692 6.925341,44.340551,2693 6.925296,44.340563,2693 6.925287,44.340576,2694 6.925291,44.340595,2695 6.925261,44.340628,2696 6.925239,44.340631,2696 6.925267,44.340609,2697 6.925226,44.340621,2698 6.925201,44.340607,2698 6.925198,44.340612,2700 6.925216,44.340619,2701 6.925214,44.340618,2701 6.925191,44.340616,2702 6.925217,44.340611,2703 6.925187,44.340612,2703 6.925136,44.340623,2704 6.925102,44.340647,2705 6.925090,44.340659,2706 6.925072,44.340678,2707 6.925081,44.340663,2708 6.925034,44.340667,2709 6.925003,44.340670,2710 6.924996,44.340661,2711 6.925010,44.340670,2712 6.924998,44.340696,2713 6.925008,44.340689,2713 6.925005,44.340683,2714 6.925033,44.340658,2715 6.925010,44.340708,2716 6.924953,44.340731,2717 6.924967,44.340748,2718 6.924986,44.340724,2718 6.924987,44.340723,2719 6.924974,44.340761,2718 6.924974,44.340758,2718 6.924969,44.340737,2718 6.924977,44.340722,2719 6.924954,44.340721,2719 6.924960,44.340723,2719 6.924830,44.340762,2720 6.924886,44.340741,2720 6.924912,44.340754,2722 6.924884,44.340731,2723 6.924880,44.340733,2723 6.924878,44.340737,2724 6.924815,44.340754,2724 6.924784,44.340773,2725 6.924864,44.340759,2726 6.924810,44.340770,2727 6.924821,44.340774,2728 6.924813,44.340781,2728 6.924795,44.340787,2729 6.924730,44.340801,2730 6.924701,44.340804,2730 6.924714,44.340802,2730 6.924743,44.340791,2731 6.924783,44.340795,2731 6.924813,44.340807,2731 6.924819,44.340797,2731 6.924697,44.340802,2732 6.924721,44.340806,2732 6.924728,44.340807,2732 6.924750,44.340795,2732 6.924694,44.340828,2731 6.924705,44.340825,2732 6.924719,44.340780,2733 6.924685,44.340803,2734 6.924669,44.340794,2734 6.924699,44.340811,2735 6.924690,44.340807,2736 6.924679,44.340795,2737 6.924641,44.340813,2737 6.924639,44.340830,2738 6.924639,44.340807,2739 6.924585,44.340818,2739 6.924654,44.340800,2739 6.924629,44.340792,2740 6.924582,44.340797,2740 6.924595,44.340806,2741 6.924515,44.340803,2742 6.924509,44.340774,2743 6.924518,44.340812,2743 6.924504,44.340825,2744 6.924501,44.340820,2744 6.924494,44.340828,2744 6.924494,44.340819,2745 6.924453,44.340847,2746 6.924383,44.340849,2746 6.924400,44.340854,2747 6.924387,44.340845,2748 6.924380,44.340852,2748 6.924415,44.340844,2748 6.924382,44.340839,2748 6.924368,44.340842,2749 6.924350,44.340855,2749 6.924330,44.340830,2750 6.924333,44.340859,2751 6.924303,44.340898,2752 6.924282,44.340905,2752 6.924272,44.340885,2753 6.924284,44.340874,2754 6.924289,44.340854,2754 6.924295,44.340849,2755 6.924308,44.340841,2754 6.924282,44.340850,2754 6.924296,44.340866,2754 6.924319,44.340860,2754 6.924316,44.340868,2754 6.924316,44.340876,2754 6.924253,44.340887,2753 6.924269,44.340835,2753 6.924279,44.340848,2753 6.924271,44.340856,2752 6.924285,44.340897,2751 6.924228,44.340888,2751 6.924269,44.340889,2751 6.924241,44.340893,2752 6.924232,44.340931,2752 6.924256,44.340933,2753 6.924208,44.340909,2753 6.924227,44.340930,2753 6.924225,44.340915,2754 6.924284,44.340979,2755 6.924333,44.340968,2756 6.924325,44.340993,2755 6.924303,44.340989,2754 6.924335,44.340990,2753 6.924300,44.340986,2753 6.924344,44.341013,2752 6.924302,44.341005,2752 6.924292,44.340983,2751 6.924300,44.340990,2751 6.924288,44.340981,2750 6.924284,44.341020,2750 6.924280,44.341029,2750 6.924222,44.341029,2748 6.924181,44.341029,2747 6.924240,44.341047,2746 6.924248,44.341054,2745 6.924193,44.341030,2745 6.924225,44.341062,2745 6.924203,44.341036,2745 6.924193,44.341052,2745 6.924202,44.341057,2745 6.924241,44.341059,2744 6.924215,44.341058,2744 6.924261,44.341080,2744 6.924207,44.341050,2744 6.924176,44.341022,2744 6.924211,44.341053,2743 6.924206,44.341049,2743 6.924209,44.341025,2743 6.924195,44.341038,2742 6.924188,44.341043,2742 6.924198,44.341047,2741 6.924170,44.341035,2741 6.924175,44.341026,2740 6.924220,44.341043,2739 6.924267,44.341087,2739 6.924222,44.341059,2738 6.924216,44.341055,2738 6.924174,44.341044,2738 6.924166,44.341055,2738 6.924188,44.341048,2737 6.924181,44.341033,2737 6.924183,44.341058,2737 6.924202,44.341061,2737 6.924199,44.341046,2736 6.924199,44.341037,2736 6.924196,44.341024,2736 6.924241,44.341036,2736 6.924259,44.341045,2736 6.924224,44.341044,2737 6.924224,44.341040,2736 6.924228,44.341042,2736 6.924188,44.341039,2736 6.924170,44.341041,2736 6.924246,44.341045,2735 6.924222,44.341038,2734 6.924205,44.341034,2734 6.924206,44.341050,2734 6.924200,44.341042,2734 6.924197,44.341045,2734 6.924163,44.341039,2733 6.924154,44.341056,2731 6.924149,44.341067,2731 6.924159,44.341071,2730 6.924137,44.341070,2729 6.924118,44.341070,2729 6.924100,44.341088,2729 6.924088,44.341070,2728 6.924053,44.341094,2727 6.923974,44.341099,2726 6.923988,44.341103,2725 6.923974,44.341094,2724 6.923949,44.341092,2724 6.923973,44.341131,2723 6.923910,44.341153,2722 6.923936,44.341164,2721 6.923895,44.341172,2720 6.923884,44.341184,2719 6.923882,44.341180,2719 6.923859,44.341186,2718 6.923861,44.341209,2718 6.923825,44.341201,2718 6.923815,44.341210,2718 6.923819,44.341255,2716 6.923816,44.341257,2716 6.923802,44.341266,2715 6.923795,44.341266,2715 6.923777,44.341261,2714 6.923752,44.341291,2713 6.923745,44.341293,2713 6.923707,44.341315,2712 6.923664,44.341325,2712 6.923641,44.341314,2711 6.923613,44.341318,2711 6.923555,44.341335,2709 6.923545,44.341366,2711 6.923522,44.341399,2711 6.923522,44.341384,2710 6.923479,44.341418,2710 6.923440,44.341407,2710 6.923360,44.341427,2711 6.923355,44.341460,2711 6.923319,44.341433,2712 6.923289,44.341466,2713 6.923215,44.341459,2713 6.923193,44.341472,2713 6.923125,44.341485,2713 6.923053,44.341504,2712 6.923028,44.341497,2714 6.922991,44.341501,2714 6.923004,44.341501,2714 6.922931,44.341511,2715 6.922893,44.341513,2715 6.922864,44.341541,2716 6.922870,44.341510,2717 6.922889,44.341532,2718 6.922846,44.341535,2719 6.922815,44.341555,2720 6.922876,44.341536,2720 6.922890,44.341511,2720 6.922876,44.341540,2721 6.922868,44.341592,2721 6.922802,44.341574,2721 6.922811,44.341585,2722 6.922786,44.341609,2723 6.922806,44.341591,2724 6.922806,44.341597,2725 6.922801,44.341595,2725 6.922781,44.341600,2726 6.922753,44.341605,2727 6.922797,44.341619,2727 6.922798,44.341616,2727 6.922766,44.341614,2727 6.922759,44.341637,2728 6.922745,44.341630,2729 6.922766,44.341659,2730 6.922736,44.341664,2731 6.922748,44.341665,2731 6.922723,44.341676,2731 6.922707,44.341666,2732 6.922650,44.341673,2732 6.922622,44.341688,2733 6.922671,44.341691,2733 6.922656,44.341690,2734 6.922649,44.341705,2734 6.922633,44.341733,2734 6.922593,44.341733,2734 6.922588,44.341732,2734 6.922580,44.341740,2734 6.922572,44.341752,2735 6.922624,44.341741,2735 6.922612,44.341703,2734 6.922627,44.341708,2735 6.922609,44.341716,2734 6.922609,44.341701,2734 6.922595,44.341693,2734 6.922582,44.341694,2733 6.922577,44.341715,2733 6.922609,44.341734,2732 6.922578,44.341719,2734 6.922573,44.341723,2734 6.922566,44.341700,2735 6.922539,44.341707,2736 6.922529,44.341714,2735 6.922498,44.341722,2736 6.922490,44.341713,2736 6.922509,44.341710,2737 6.922467,44.341712,2736 6.922420,44.341707,2737 6.922409,44.341714,2739 6.922375,44.341729,2739 6.922359,44.341753,2738 6.922365,44.341733,2738 6.922400,44.341742,2737 6.922367,44.341737,2737 6.922387,44.341743,2736 6.922377,44.341755,2736 6.922371,44.341744,2735 6.922390,44.341711,2735 6.922382,44.341700,2735 6.922352,44.341735,2735 6.922337,44.341746,2734 6.922362,44.341764,2734 6.922333,44.341758,2734 6.922367,44.341738,2734 6.922365,44.341748,2734 6.922372,44.341753,2735 6.922379,44.341757,2735 6.922349,44.341753,2735 6.922357,44.341749,2734 6.922348,44.341748,2734 6.922374,44.341721,2734 6.922381,44.341714,2735 6.922352,44.341734,2734 6.922341,44.341757,2734 6.922372,44.341716,2734 6.922384,44.341750,2733 6.922353,44.341761,2732 6.922373,44.341739,2733 6.922368,44.341738,2732 6.922353,44.341743,2733 6.922338,44.341770,2733 6.922366,44.341742,2733 6.922362,44.341760,2732 6.922353,44.341755,2732 6.922367,44.341754,2732 6.922354,44.341739,2732 6.922322,44.341743,2732 6.922345,44.341773,2731 6.922350,44.341773,2732 6.922403,44.341738,2732 6.922453,44.341731,2732 6.922377,44.341765,2732 6.922367,44.341771,2732 6.922358,44.341769,2732 6.922341,44.341762,2732 6.922356,44.341760,2732 6.922420,44.341792,2731 6.922392,44.341767,2731 6.922346,44.341748,2731 6.922345,44.341752,2731 6.922405,44.341733,2730 6.922391,44.341733,2730 6.922382,44.341740,2730 6.922424,44.341747,2731 6.922363,44.341746,2731 6.922362,44.341783,2731 6.922371,44.341780,2731 6.922400,44.341746,2731 6.922402,44.341726,2731 6.922403,44.341737,2732 6.922404,44.341735,2733 6.922354,44.341676,2732 6.922377,44.341726,2733 6.922379,44.341757,2734 6.922381,44.341757,2733 6.922390,44.341707,2734 6.922365,44.341759,2734 6.922371,44.341745,2734 6.922398,44.341784,2734 6.922411,44.341766,2734 6.922338,44.341755,2733 6.922352,44.341745,2733 6.922365,44.341762,2734 6.922363,44.341739,2734 6.922353,44.341750,2734 6.922350,44.341766,2734 6.922351,44.341758,2735 6.922355,44.341748,2735 6.922359,44.341769,2735 6.922389,44.341776,2735 6.922351,44.341779,2736 6.922272,44.341808,2735 6.922331,44.341824,2735 6.922352,44.341753,2736 6.922376,44.341739,2736 6.922372,44.341728,2735 6.922349,44.341743,2736 6.922302,44.341789,2736 6.922305,44.341761,2736 6.922358,44.341764,2735 6.922313,44.341781,2735 6.922385,44.341773,2736 6.922338,44.341773,2736 6.922334,44.341782,2738 6.922343,44.341786,2738 6.922346,44.341788,2737 6.922360,44.341749,2737 6.922390,44.341770,2737 6.922349,44.341758,2736 6.922348,44.341747,2736 6.922364,44.341764,2735 6.922328,44.341781,2735 6.922313,44.341786,2734 6.922258,44.341807,2732 6.922243,44.341847,2731 6.922249,44.341880,2730 6.922252,44.341918,2730 6.922216,44.341967,2729 6.922177,44.341985,2727 6.922170,44.342041,2726 6.922127,44.342103,2724 6.922031,44.342204,2724 6.921987,44.342299,2724 6.921916,44.342349,2725 6.921882,44.342388,2727 6.921869,44.342411,2727 6.921843,44.342433,2728 6.921828,44.342447,2730 6.921816,44.342491,2731 6.921794,44.342529,2731 6.921738,44.342597,2733 6.921629,44.342702,2734 6.921550,44.342734,2736 6.921557,44.342770,2737 6.921526,44.342908,2736 6.921542,44.342983,2738 6.921561,44.343017,2739 6.921553,44.343042,2740 6.921538,44.343073,2741 6.921524,44.343145,2744 6.921529,44.343168,2745 6.921505,44.343212,2747 6.921419,44.343243,2748 6.921381,44.343258,2750 6.921376,44.343266,2751 6.921356,44.343286,2752 6.921316,44.343336,2754 6.921317,44.343363,2753 6.921266,44.343450,2752 6.921254,44.343501,2753 6.921274,44.343493,2753 6.921255,44.343524,2754 6.921238,44.343609,2755 6.921234,44.343662,2756 6.921211,44.343712,2758 6.921203,44.343740,2759 6.921202,44.343782,2760 6.921190,44.343846,2762 6.921191,44.343887,2764 6.921184,44.343908,2765 6.921182,44.343973,2766 6.921156,44.344050,2767 6.921080,44.344136,2768 6.921089,44.344196,2769 6.921097,44.344248,2772 6.921114,44.344267,2773 6.921093,44.344341,2774 6.921067,44.344403,2775 6.921053,44.344424,2776 6.921012,44.344473,2778 6.920972,44.344513,2779 6.920966,44.344518,2779 6.920946,44.344542,2781 6.920934,44.344578,2782 6.920942,44.344630,2783 6.920937,44.344688,2784 6.920937,44.344706,2785 6.920915,44.344746,2785 6.920909,44.344760,2786 6.920910,44.344813,2788 6.920923,44.344845,2789 6.920960,44.344848,2790 6.921006,44.344879,2792 6.920999,44.344891,2793 6.920942,44.344930,2794 6.920948,44.344953,2796 6.920973,44.344968,2798 6.920989,44.345015,2799 6.920983,44.345024,2800 6.920975,44.345056,2802 6.920945,44.345082,2804 6.920924,44.345123,2805 6.920918,44.345165,2806 6.920905,44.345180,2807 6.920864,44.345202,2809 6.920844,44.345246,2810 6.920811,44.345313,2812 6.920751,44.345378,2813 6.920804,44.345465,2812 6.920823,44.345439,2812 6.920823,44.345438,2812 6.920823,44.345438,2812 6.920829,44.345439,2811 6.920824,44.345453,2812 6.920824,44.345445,2812 6.920827,44.345445,2813 6.920819,44.345443,2813 6.920862,44.345464,2813 6.920832,44.345453,2814 6.920841,44.345452,2813 6.920889,44.345413,2812 6.920931,44.345419,2811 6.921009,44.345445,2810 6.921024,44.345476,2809 6.921084,44.345505,2807 6.921117,44.345511,2806 6.921188,44.345551,2804 6.921228,44.345586,2803 6.921301,44.345619,2802 6.921414,44.345685,2801 6.921422,44.345725,2800 6.921483,44.345777,2798 6.921491,44.345790,2797 6.921486,44.345810,2795 6.921487,44.345837,2794 6.921474,44.345851,2793 6.921488,44.345885,2792 6.921496,44.345919,2790 6.921527,44.345926,2789 6.921560,44.345938,2787 6.921524,44.345971,2786 6.921525,44.345999,2784 6.921556,44.346035,2783 6.921592,44.346061,2782 6.921629,44.346068,2781 6.921633,44.346050,2781 6.921614,44.346080,2782 6.921598,44.346052,2782 6.921602,44.346071,2782 6.921670,44.346110,2780 6.921720,44.346173,2778 6.921743,44.346205,2776 6.921805,44.346223,2775 6.921845,44.346242,2773 6.921851,44.346250,2772 6.921845,44.346255,2773 6.921878,44.346260,2774 6.921839,44.346263,2775 6.921848,44.346260,2776 6.921861,44.346255,2774 6.921922,44.346275,2773 6.922005,44.346314,2771 6.922069,44.346345,2770 6.922108,44.346431,2768 6.922082,44.346476,2766 6.922067,44.346488,2764 6.922060,44.346485,2764 6.921998,44.346531,2763 6.921998,44.346549,2762 6.921987,44.346617,2761 6.921983,44.346653,2760 6.921999,44.346687,2759 6.922013,44.346710,2758 6.922033,44.346743,2757 6.922053,44.346785,2756 6.922042,44.346836,2754 6.922067,44.346878,2753 6.922086,44.346913,2751 6.922096,44.346930,2750 6.922114,44.346953,2749 6.922134,44.346984,2748 6.922134,44.346970,2747 6.922136,44.347012,2745 6.922138,44.347039,2744 6.922142,44.347064,2744 6.922151,44.347085,2743 6.922170,44.347109,2741 6.922199,44.347139,2740 6.922208,44.347151,2739 6.922216,44.347183,2736 6.922234,44.347204,2735 6.922295,44.347229,2734 6.922298,44.347253,2732 6.922307,44.347284,2731 6.922325,44.347308,2730 6.922385,44.347317,2729 6.922420,44.347384,2727 6.922429,44.347393,2726 6.922449,44.347414,2725 6.922490,44.347441,2724 6.922517,44.347459,2723 6.922530,44.347555,2722 6.922524,44.347584,2720 6.922577,44.347654,2718 6.922611,44.347663,2720 6.922631,44.347702,2723 6.922656,44.347728,2724 6.922669,44.347739,2725 6.922680,44.347755,2725 6.922681,44.347783,2726 6.922686,44.347794,2727 6.922710,44.347851,2728 6.922712,44.347895,2728 6.922713,44.347980,2728 6.922725,44.348036,2729 6.922727,44.348058,2729 6.922724,44.348119,2730 6.922669,44.348204,2731 6.922625,44.348238,2732 6.922598,44.348268,2733 6.922589,44.348324,2734 6.922586,44.348347,2735 6.922529,44.348455,2736 6.922500,44.348465,2737 6.922501,44.348434,2736 6.922534,44.348449,2736 6.922524,44.348434,2736 6.922512,44.348437,2735 6.922478,44.348486,2736 6.922449,44.348522,2737 6.922421,44.348546,2739 6.922383,44.348565,2740 6.922354,44.348597,2741 6.922305,44.348634,2741 6.922292,44.348655,2739 6.922221,44.348726,2739 6.922213,44.348733,2740 6.922208,44.348730,2741 6.922221,44.348815,2742 6.922320,44.348837,2742 6.922425,44.348867,2744 6.922445,44.348909,2745 6.922445,44.348936,2746 6.922451,44.348966,2748 6.922477,44.349008,2749 6.922477,44.349030,2752 6.922488,44.349060,2753 6.922507,44.349072,2754 6.922536,44.349090,2755 6.922564,44.349114,2756 6.922564,44.349138,2757 6.922557,44.349153,2758 6.922532,44.349175,2759 6.922537,44.349204,2760 6.922546,44.349242,2761 6.922538,44.349265,2762 6.922526,44.349284,2763 6.922514,44.349327,2764 6.922513,44.349359,2767 6.922523,44.349380,2767 6.922528,44.349387,2769 6.922519,44.349414,2770 6.922508,44.349446,2771 6.922512,44.349477,2773 6.922540,44.349510,2774 6.922547,44.349516,2774 6.922559,44.349552,2775 6.922549,44.349560,2777 6.922533,44.349555,2779 6.922527,44.349576,2777 6.922504,44.349653,2778 6.922514,44.349674,2781 6.922539,44.349688,2782 6.922566,44.349701,2783 6.922561,44.349713,2783 6.922535,44.349767,2785 6.922436,44.349845,2785 6.922381,44.349883,2787 6.922372,44.349918,2786 6.922347,44.349944,2785 6.922326,44.349964,2783 6.922269,44.350009,2785 6.922228,44.350051,2785 6.922180,44.350085,2786 6.922152,44.350091,2787 6.922118,44.350103,2786 6.922104,44.350104,2785 6.922092,44.350110,2786 6.922102,44.350113,2785 6.922114,44.350127,2786 6.922117,44.350131,2787 6.922134,44.350128,2787 6.922129,44.350137,2787 6.922129,44.350162,2784 6.922157,44.350208,2782 6.922184,44.350258,2780 6.922170,44.350328,2780 6.922135,44.350475,2779 6.922165,44.350508,2778 6.922236,44.350594,2777 6.922270,44.350692,2778 6.922272,44.350816,2779 6.922192,44.350973,2779 6.922150,44.351035,2781 6.922113,44.351082,2781 6.922100,44.351115,2783 6.922051,44.351200,2784 6.922003,44.351244,2785 6.921900,44.351352,2785 6.921894,44.351426,2787 6.921920,44.351483,2787 6.921934,44.351560,2788 6.921987,44.351637,2789 6.922007,44.351640,2788 6.922021,44.351643,2787 6.922004,44.351659,2786 6.922014,44.351656,2786 6.922017,44.351646,2786 6.922028,44.351644,2785 6.922017,44.351650,2784 6.922034,44.351646,2784 6.922035,44.351651,2784 6.922039,44.351671,2784 6.922053,44.351665,2784 6.922036,44.351659,2783 6.922035,44.351647,2783 6.922036,44.351647,2783 6.922074,44.351654,2782 6.922026,44.351661,2783 6.922028,44.351654,2783 6.922025,44.351655,2783 6.922035,44.351650,2784 6.922006,44.351660,2784 6.922021,44.351652,2785 6.922040,44.351643,2784 6.922043,44.351654,2783 6.922024,44.351648,2783 6.922033,44.351660,2783 6.922041,44.351645,2783 6.922052,44.351652,2783 6.922060,44.351660,2783 6.922060,44.351640,2782 6.922034,44.351640,2782 6.922034,44.351642,2782 6.922052,44.351661,2783 6.922049,44.351666,2782 6.922050,44.351664,2782 6.922051,44.351662,2782 6.922035,44.351638,2782 6.922027,44.351653,2782 6.922028,44.351649,2782 6.922026,44.351650,2782 6.922015,44.351644,2782 6.922012,44.351640,2782 6.922009,44.351643,2782 6.922028,44.351651,2783 6.922039,44.351663,2784 6.922021,44.351652,2783 6.922035,44.351651,2782 6.922034,44.351652,2783 6.922010,44.351658,2783 6.922013,44.351658,2782 6.922008,44.351650,2782 6.922032,44.351658,2783 6.922022,44.351656,2783 6.922015,44.351660,2782 6.922010,44.351663,2782 6.921988,44.351659,2782 6.921991,44.351665,2782 6.922021,44.351660,2782 6.922021,44.351655,2782 6.921997,44.351664,2782 6.922033,44.351657,2781 6.922047,44.351649,2781 6.922056,44.351666,2781 6.922041,44.351665,2781 6.922033,44.351666,2780 6.922040,44.351666,2781 6.922041,44.351643,2780 6.922033,44.351652,2780 6.922035,44.351660,2780 6.922076,44.351661,2780 6.922058,44.351656,2780 6.922056,44.351653,2780 6.922039,44.351661,2780 6.922036,44.351655,2780 6.922036,44.351658,2779 6.922032,44.351661,2780 6.922038,44.351668,2780 6.922030,44.351662,2780 6.922024,44.351660,2781 6.922024,44.351667,2780 6.922030,44.351668,2780 6.922044,44.351672,2780 6.922023,44.351661,2781 6.922030,44.351657,2782 6.922037,44.351659,2780 6.922003,44.351669,2781 6.922013,44.351654,2782 6.922018,44.351658,2782 6.921974,44.351660,2781 6.921889,44.351667,2779 6.921803,44.351660,2779 6.921678,44.351626,2777 6.921582,44.351634,2775 6.921501,44.351650,2774 6.921373,44.351686,2772 6.921207,44.351739,2770 6.921114,44.351759,2769 6.921054,44.351775,2768 6.920992,44.351789,2767 6.920856,44.351823,2766 6.920722,44.351867,2766 6.920625,44.351915,2764 6.920529,44.351946,2762 6.920394,44.351970,2764 6.920305,44.351990,2763 6.920094,44.352062,2764 6.919963,44.352116,2764 6.919834,44.352212,2764 6.919747,44.352277,2762 6.919598,44.352402,2761 6.919504,44.352469,2760 6.919456,44.352491,2759 6.919357,44.352546,2758 6.919251,44.352574,2757 6.919180,44.352615,2756 6.919105,44.352700,2754 6.919049,44.352742,2754 6.919007,44.352776,2755 6.918913,44.352815,2753 6.918791,44.352871,2752 6.918722,44.352907,2749 6.918651,44.352947,2748 6.918597,44.352982,2747 6.918490,44.353028,2746 6.918322,44.353045,2747 6.918316,44.353022,2746 6.918311,44.353017,2743 6.918299,44.353018,2741 6.918277,44.353034,2741 6.918253,44.353018,2740 6.918216,44.352999,2739 6.918169,44.352970,2738 6.918139,44.352982,2736 6.918094,44.353000,2734 6.918053,44.352993,2733 6.918037,44.353005,2731 6.917987,44.352983,2730 6.917951,44.352985,2729 6.917877,44.352992,2727 6.917805,44.352996,2725 6.917792,44.352996,2725 6.917729,44.352998,2723 6.917704,44.352998,2722 6.917684,44.353001,2720 6.917637,44.353021,2718 6.917604,44.353038,2717 6.917554,44.353045,2716 6.917473,44.353064,2714 6.917430,44.353055,2713 6.917378,44.353039,2712 6.917348,44.353048,2711 6.917311,44.353061,2710 6.917286,44.353062,2707 6.917229,44.353059,2706 6.917142,44.353074,2705 6.917096,44.353102,2704 6.917087,44.353114,2701 6.917044,44.353124,2700 6.917008,44.353126,2698 6.916951,44.353156,2696 6.916903,44.353157,2694 6.916856,44.353163,2694 6.916829,44.353202,2693 6.916820,44.353225,2691 6.916773,44.353209,2689 6.916723,44.353203,2689 6.916705,44.353199,2688 6.916662,44.353190,2686 6.916629,44.353200,2685 6.916570,44.353211,2683 6.916547,44.353219,2682 6.916537,44.353227,2681 6.916522,44.353227,2681 6.916495,44.353212,2679 6.916447,44.353202,2677 6.916362,44.353234,2676 6.916332,44.353241,2675 6.916261,44.353246,2675 6.916230,44.353251,2673 6.916125,44.353294,2673 6.916104,44.353305,2672 6.915935,44.353357,2673 6.915832,44.353390,2673 6.915746,44.353402,2675 6.915655,44.353409,2674 6.915550,44.353428,2674 6.915499,44.353457,2675 6.915394,44.353476,2677 6.915284,44.353497,2677 6.915231,44.353504,2678 6.915167,44.353512,2679 6.915019,44.353532,2680 6.914914,44.353545,2681 6.914769,44.353590,2682 6.914653,44.353608,2682 6.914515,44.353605,2681 6.914410,44.353562,2680 6.914320,44.353547,2676 6.914239,44.353521,2675 6.914036,44.353483,2674 6.913902,44.353470,2672 6.913744,44.353434,2672 6.913708,44.353428,2671 6.913576,44.353415,2672 6.913455,44.353405,2671 6.913249,44.353353,2672 6.913109,44.353358,2673 6.913011,44.353366,2671 6.912901,44.353367,2672 6.912690,44.353362,2671 6.912565,44.353383,2670 6.912471,44.353400,2668 6.912437,44.353404,2667 6.912391,44.353411,2665 6.912369,44.353415,2663 6.912305,44.353426,2662 6.912272,44.353435,2661 6.912120,44.353462,2660 6.912011,44.353496,2659 6.911939,44.353527,2657 6.911882,44.353570,2655 6.911851,44.353592,2654 6.911788,44.353624,2652 6.911690,44.353666,2651 6.911640,44.353722,2649 6.911617,44.353763,2648 6.911508,44.353838,2647 6.911410,44.353883,2645 6.911305,44.353913,2644 6.911185,44.353951,2643 6.911160,44.353963,2642 6.911071,44.354027,2640 6.910987,44.354081,2638 6.910941,44.354117,2636 6.910902,44.354141,2635 6.910818,44.354210,2633 6.910766,44.354247,2632 6.910713,44.354266,2631 6.910666,44.354294,2629 6.910626,44.354350,2627 6.910627,44.354356,2627 6.910609,44.354385,2626 6.910591,44.354407,2625 6.910554,44.354421,2623 6.910549,44.354435,2622 6.910511,44.354469,2620 6.910482,44.354485,2619 6.910492,44.354478,2618 6.910440,44.354496,2616 6.910466,44.354531,2615 6.910425,44.354577,2613 6.910375,44.354666,2612 6.910308,44.354678,2611 6.910255,44.354693,2609 6.910189,44.354715,2608 6.910146,44.354745,2607 6.910088,44.354784,2605 6.909967,44.354870,2605 6.910002,44.354839,2606 6.909994,44.354841,2605 6.909960,44.354836,2606 6.909928,44.354908,2604 6.909917,44.354926,2603 6.909937,44.354950,2601 6.909889,44.355049,2600 6.909900,44.355070,2598 6.909896,44.355101,2596 6.909937,44.355118,2595 6.909942,44.355169,2594 6.909912,44.355230,2592 6.909882,44.355267,2591 6.909867,44.355271,2589 6.909846,44.355272,2588 6.909847,44.355311,2587 6.909851,44.355335,2586 6.909866,44.355366,2584 6.909846,44.355413,2584 6.909812,44.355430,2583 6.909834,44.355432,2583 6.909869,44.355491,2580 6.909867,44.355534,2579 6.909876,44.355589,2578 6.909821,44.355629,2577 6.909780,44.355670,2576 6.909756,44.355674,2575 6.909723,44.355715,2575 6.909595,44.355818,2573 6.909607,44.355795,2572 6.909568,44.355870,2572 6.909526,44.355934,2571 6.909488,44.356068,2569 6.909522,44.356147,2571 6.909503,44.356188,2573 6.909505,44.356197,2574 6.909503,44.356211,2574 6.909522,44.356229,2575 6.909531,44.356236,2575 6.909541,44.356243,2575 6.909533,44.356266,2576 6.909528,44.356270,2577 6.909551,44.356299,2578 6.909549,44.356326,2580 6.909528,44.356379,2581 6.909493,44.356413,2582 6.909479,44.356441,2582 6.909446,44.356475,2583 6.909413,44.356505,2584 6.909376,44.356545,2586 6.909339,44.356576,2586 6.909161,44.356626,2585 6.909080,44.356716,2585 6.909013,44.356789,2587 6.908939,44.356840,2588 6.908849,44.356943,2588 6.908748,44.357023,2590 6.908664,44.357017,2591 6.908636,44.357023,2592 6.908581,44.357029,2593 6.908560,44.357045,2596 6.908528,44.357069,2597 6.908466,44.357113,2598 6.908249,44.357183,2598 6.908134,44.357205,2599 6.908019,44.357226,2599 6.908031,44.357236,2599 6.908048,44.357240,2599 6.907929,44.357227,2598 6.907873,44.357220,2597 6.907793,44.357218,2595 6.907750,44.357242,2594 6.907668,44.357280,2593 6.907555,44.357331,2590 6.907445,44.357356,2588 6.907346,44.357379,2587 6.907247,44.357432,2584 6.907210,44.357453,2583 6.907220,44.357434,2583 6.907201,44.357438,2582 6.907155,44.357472,2581 6.907113,44.357518,2579 6.907101,44.357543,2578 6.907057,44.357573,2575 6.907039,44.357595,2574 6.907012,44.357605,2573 6.906976,44.357634,2573 6.906959,44.357677,2573 6.906909,44.357705,2571 6.906825,44.357760,2569 6.906783,44.357797,2568 6.906742,44.357827,2566 6.906682,44.357863,2565 6.906664,44.357882,2564 6.906590,44.357906,2564 6.906517,44.357952,2562 6.906421,44.358016,2562 6.906315,44.358067,2560 6.906245,44.358101,2559 6.906221,44.358119,2559 6.906040,44.358240,2558 6.905984,44.358249,2557 6.905875,44.358298,2555 6.905712,44.358374,2556 6.905648,44.358390,2556 6.905503,44.358428,2555 6.905434,44.358449,2554 6.905348,44.358467,2554 6.905311,44.358493,2553 6.905283,44.358503,2551 6.905243,44.358517,2550 6.905199,44.358531,2549 6.905191,44.358542,2546 6.905169,44.358558,2545 6.905138,44.358565,2544 6.905135,44.358566,2543 6.905119,44.358581,2541 6.905052,44.358609,2539 6.905043,44.358627,2538 6.905077,44.358669,2536 6.905091,44.358687,2535 6.905073,44.358734,2534 6.905070,44.358768,2533 6.905110,44.358790,2532 6.905104,44.358816,2531 6.905108,44.358826,2530 6.905120,44.358884,2527 6.905117,44.358918,2526 6.905114,44.358935,2526 6.905116,44.358947,2525 6.905141,44.359029,2524 6.905139,44.359038,2522 6.905145,44.359079,2521 6.905153,44.359125,2519 6.905166,44.359133,2519 6.905137,44.359224,2518 6.905127,44.359238,2516 6.905128,44.359253,2515 6.905071,44.359284,2514 6.904944,44.359275,2513 6.904972,44.359291,2513 6.904974,44.359292,2513 6.904949,44.359281,2512 6.904963,44.359291,2513 6.904949,44.359294,2513 6.904876,44.359248,2512 6.904769,44.359221,2510 6.904727,44.359212,2509 6.904610,44.359144,2510 6.904503,44.359104,2508 6.904368,44.359035,2507 6.904231,44.358956,2507 6.904121,44.358871,2506 6.904037,44.358637,2506 6.904000,44.358592,2504 6.903963,44.358539,2501 6.903844,44.358469,2503 6.903800,44.358414,2501 6.903734,44.358370,2500 6.903600,44.358316,2499 6.903611,44.358308,2502 6.903605,44.358308,2504 6.903575,44.358291,2505 6.903596,44.358299,2503 6.903610,44.358303,2502 6.903598,44.358295,2504 6.903599,44.358304,2503 6.903595,44.358288,2504 6.903632,44.358184,2503 6.903608,44.358129,2502 6.903580,44.358071,2500 6.903591,44.358039,2499 6.903591,44.358014,2498 6.903589,44.357959,2496 6.903510,44.357788,2495 6.903474,44.357755,2493 6.903375,44.357671,2492 6.903341,44.357590,2490 6.903296,44.357508,2488 6.903248,44.357485,2487 6.903194,44.357475,2487 6.903143,44.357446,2487 6.903101,44.357379,2485 6.903104,44.357364,2485 6.903069,44.357292,2484 6.903003,44.357239,2482 6.902918,44.357171,2481 6.902878,44.357156,2479 6.902803,44.357125,2478 6.902725,44.357083,2476 6.902737,44.357068,2476 6.902748,44.357044,2475 6.902724,44.357005,2474 6.902687,44.356996,2472 6.902691,44.356948,2471 6.902726,44.356905,2470 6.902657,44.356872,2469 6.902568,44.356784,2468 6.902517,44.356738,2468 6.902452,44.356758,2468 6.902400,44.356739,2469 6.902295,44.356673,2470 6.902272,44.356635,2469 6.902269,44.356635,2469 6.902264,44.356638,2469 6.902244,44.356624,2469 6.902250,44.356499,2469 6.902259,44.356445,2471 6.902266,44.356371,2471 6.902259,44.356324,2472 6.902262,44.356267,2473 6.902283,44.356229,2473 6.902283,44.356246,2473 6.902275,44.356234,2473 6.902319,44.356243,2473 6.902335,44.356262,2473</coordinates></LineString></Placemark></Document></kml>